idx,lat,long,alt,impValue,valYear,stories,zipCode,squareFeet,mktValue,className,disRate,selfMoveYear,motMoveYear,selfMoveFlag,motiMoveFlag,freeRiderFlag,movedOutFlag,property,cumuLoss
0,40.584262,-73.938671,1.8,245000,2017,1,11235,1571,349000,L,0.18,0,0,TRUE,TRUE,TRUE,TRUE,FALSE,FALSE
1,40.579303,-73.938677,2.3,467000,2017,1,11235,2500,680000,M,0.12,0,0,TRUE,TRUE,TRUE,TRUE,FALSE,FALSE
2,40.581253,-73.947697,0.2,1726000,2017,1,11235,9360,2564000,M,0.12,0,0,TRUE,TRUE,TRUE,TRUE,FALSE,FALSE
3,40.590007,-73.944872,3,409000,2017,1,11235,2200,565000,M,0.12,0,0,TRUE,TRUE,TRUE,TRUE,FALSE,FALSE
4,40.617346,-73.923523,4.1,345000,2017,1,11234,3000,502000,L,0.18,37,27,TRUE,TRUE,FALSE,TRUE,FALSE,FALSE
5,40.606995,-73.929232,3.2,409000,2017,1,11234,2267,567000,M,0.12,0,0,TRUE,TRUE,TRUE,TRUE,FALSE,FALSE
6,40.581037,-73.966746,2.5,195000,2017,1,11235,920,321000,L,0.18,17,0,TRUE,TRUE,FALSE,TRUE,FALSE,FALSE
7,40.624887,-73.923392,4.4,174000,2017,1,11234,4000,431000,L,0.18,200,150,FALSE,FALSE,FALSE,FALSE,FALSE,FALSE
8,40.584616,-73.937566,2,218000,2017,1,11235,1287,333000,L,0.18,2,0,TRUE,TRUE,FALSE,TRUE,FALSE,FALSE
9,40.5867,-73.95937,3.3,246000,2017,1,11235,1452,364000,L,0.18,17,0,TRUE,TRUE,FALSE,TRUE,FALSE,FALSE
10,40.631032,-73.930844,6.6,387000,2017,1,11234,2200,527000,M,0.12,200,150,FALSE,FALSE,FALSE,FALSE,FALSE,FALSE
11,40.641471,-73.910057,5.8,472000,2017,1,11236,2212,606000,M,0.12,200,150,FALSE,FALSE,FALSE,FALSE,FALSE,FALSE
12,40.643321,-73.911055,6,384000,2017,1,11236,3000,563000,M,0.12,200,150,FALSE,FALSE,FALSE,FALSE,FALSE,FALSE
13,40.584868,-73.938429,3.2,274000,2017,1,11235,1073,357000,L,0.18,8,0,TRUE,TRUE,FALSE,TRUE,FALSE,FALSE
14,40.652043,-73.917529,8.9,139000,2017,1,11236,2300,378000,L,0.18,200,150,FALSE,FALSE,FALSE,FALSE,FALSE,FALSE
15,40.584629,-73.936768,1.7,218000,2017,1,11235,2077,368000,L,0.18,0,0,TRUE,TRUE,TRUE,TRUE,FALSE,FALSE
16,40.58028,-73.961586,2.7,137000,2017,1,11235,1800,309000,L,0.18,31,12,TRUE,TRUE,FALSE,TRUE,FALSE,FALSE
17,40.648421,-73.918791,7.4,226000,2017,1,11236,2200,465000,L,0.18,200,150,FALSE,FALSE,FALSE,FALSE,FALSE,FALSE
18,40.60973,-73.90451,4.5,691000,2017,1,11234,5575,1020000,M,0.12,200,150,FALSE,FALSE,FALSE,FALSE,FALSE,FALSE
19,40.578513,-73.960963,2.7,204000,2017,1,11235,1638,408000,L,0.18,25,5,TRUE,TRUE,FALSE,TRUE,FALSE,FALSE
20,40.637339,-73.893681,4.3,175000,2017,1,11236,2750,337000,L,0.18,200,61,FALSE,TRUE,FALSE,TRUE,FALSE,FALSE
21,40.614937,-73.908361,2.6,536000,2017,1,11234,9090,1015000,M,0.12,0,0,TRUE,TRUE,TRUE,TRUE,FALSE,FALSE
22,40.639425,-73.889158,2.4,303000,2017,1,11236,4150,479000,L,0.18,7,0,TRUE,TRUE,FALSE,TRUE,FALSE,FALSE
23,40.586185,-73.942813,4.1,520000,2017,1,11235,2264,666000,M,0.12,8,0,TRUE,TRUE,FALSE,TRUE,FALSE,FALSE
24,40.58452,-73.941839,3.6,362000,2017,1,11235,2306,525000,L,0.18,14,0,TRUE,TRUE,FALSE,TRUE,FALSE,FALSE
25,40.609683,-73.906875,4,542000,2017,1,11234,4343,848000,M,0.12,5,0,TRUE,TRUE,FALSE,TRUE,FALSE,FALSE
26,40.610611,-73.90633,3.4,637000,2017,1,11234,6000,1008000,M,0.12,0,0,TRUE,TRUE,TRUE,TRUE,FALSE,FALSE
27,40.576383,-73.953506,1.8,917000,2017,1,11235,3328,1268000,M,0.12,0,0,TRUE,TRUE,TRUE,TRUE,FALSE,FALSE
28,40.604576,-73.912418,0.3,550000,2017,1,11234,4000,888000,M,0.12,0,0,TRUE,TRUE,TRUE,TRUE,FALSE,FALSE
29,40.585164,-73.938042,3.5,191000,2017,1,11235,1870,347000,L,0.18,29,10,TRUE,TRUE,FALSE,TRUE,FALSE,FALSE
30,40.639712,-73.883378,2,342000,2017,1,11236,4000,511000,L,0.18,0,0,TRUE,TRUE,TRUE,TRUE,FALSE,FALSE
31,40.615631,-73.911232,2.7,426000,2017,1,11234,5000,676000,M,0.12,0,0,TRUE,TRUE,TRUE,TRUE,FALSE,FALSE
32,40.63106,-73.905457,1.5,326000,2017,1,11236,2200,508000,L,0.18,0,0,TRUE,TRUE,TRUE,TRUE,FALSE,FALSE
33,40.635654,-73.897389,4,138000,2017,1,11236,1954,263000,L,0.18,51,32,TRUE,TRUE,FALSE,TRUE,FALSE,FALSE
34,40.609344,-73.903562,3.7,734000,2017,1,11234,5392,1060000,M,0.12,0,0,TRUE,TRUE,TRUE,TRUE,FALSE,FALSE
35,40.608104,-73.905806,3.6,663000,2017,1,11234,3750,962000,M,0.12,0,0,TRUE,TRUE,TRUE,TRUE,FALSE,FALSE
36,40.613193,-73.931133,4.3,619000,2017,1,11234,3250,819000,M,0.12,30,23,TRUE,TRUE,FALSE,TRUE,FALSE,FALSE
37,40.607493,-73.908859,0.5,905000,2017,1,11234,4817,1225000,M,0.12,0,0,TRUE,TRUE,TRUE,TRUE,FALSE,FALSE
38,40.611992,-73.909672,2.4,679000,2017,1,11234,4975,1068000,M,0.12,0,0,TRUE,TRUE,TRUE,TRUE,FALSE,FALSE
39,40.591429,-73.951258,4.6,530000,2017,1,11235,2233,715000,M,0.12,200,150,FALSE,FALSE,FALSE,FALSE,FALSE,FALSE
40,40.58327,-73.93648,0.1,229000,2017,1,11235,1094,322000,L,0.18,0,0,TRUE,TRUE,TRUE,TRUE,FALSE,FALSE
41,40.605696,-73.929678,3,415000,2017,1,11234,2300,586000,M,0.12,0,0,TRUE,TRUE,TRUE,TRUE,FALSE,FALSE
42,40.603852,-73.910243,0.1,800000,2017,1,11234,6000,1236000,M,0.12,0,0,TRUE,TRUE,TRUE,TRUE,FALSE,FALSE
43,40.590732,-73.960316,3.5,311000,2017,1,11235,2000,460000,L,0.18,16,0,TRUE,TRUE,FALSE,TRUE,FALSE,FALSE
44,40.608762,-73.935367,3.9,485000,2017,1,11234,2200,651000,M,0.12,0,0,TRUE,TRUE,TRUE,TRUE,FALSE,FALSE
45,40.61846,-73.904371,2.9,469000,2017,1,11234,4000,689000,M,0.12,0,0,TRUE,TRUE,TRUE,TRUE,FALSE,FALSE
46,40.617626,-73.91459,3,472000,2017,1,11234,1933,588000,M,0.12,0,0,TRUE,TRUE,TRUE,TRUE,FALSE,FALSE
47,40.584208,-73.938624,1.7,221000,2017,1,11235,1571,340000,L,0.18,0,0,TRUE,TRUE,TRUE,TRUE,FALSE,FALSE
48,40.579928,-73.942727,0.6,802000,2017,1,11235,4160,1257000,M,0.12,0,0,TRUE,TRUE,TRUE,TRUE,FALSE,FALSE
49,40.642338,-73.909923,6,212000,2017,1,11236,1475,329000,L,0.18,200,150,FALSE,FALSE,FALSE,FALSE,FALSE,FALSE
50,40.640804,-73.902509,4.3,179000,2017,1,11236,2000,299000,L,0.18,200,54,FALSE,TRUE,FALSE,TRUE,FALSE,FALSE
51,40.637709,-73.889709,2.5,290000,2017,1,11236,4150,477000,L,0.18,10,0,TRUE,TRUE,FALSE,TRUE,FALSE,FALSE
52,40.651758,-73.915934,8.5,124000,2017,1,11236,2200,344000,L,0.18,200,150,FALSE,FALSE,FALSE,FALSE,FALSE,FALSE
53,40.615674,-73.918997,3.3,230000,2017,1,11234,3800,492000,L,0.18,28,14,TRUE,TRUE,FALSE,TRUE,FALSE,FALSE
54,40.620485,-73.920393,4.4,316000,2017,1,11234,4000,498000,L,0.18,200,150,FALSE,FALSE,FALSE,FALSE,FALSE,FALSE
55,40.639858,-73.889877,2.6,290000,2017,1,11236,4000,459000,L,0.18,10,0,TRUE,TRUE,FALSE,TRUE,FALSE,FALSE
56,40.633603,-73.926633,5.5,196000,2017,1,11234,2150,350000,L,0.18,200,150,FALSE,FALSE,FALSE,FALSE,FALSE,FALSE
57,40.633363,-73.927546,5.7,240000,2017,1,11234,2150,373000,L,0.18,200,150,FALSE,FALSE,FALSE,FALSE,FALSE,FALSE
58,40.614818,-73.923689,2.9,245000,2017,1,11234,1983,375000,L,0.18,15,0,TRUE,TRUE,FALSE,TRUE,FALSE,FALSE
59,40.640421,-73.886055,1.9,361000,2017,1,11236,4000,530000,M,0.12,0,0,TRUE,TRUE,TRUE,TRUE,FALSE,FALSE
60,40.6087,-73.904713,4.5,704000,2017,1,11234,6608,1158000,M,0.12,200,150,FALSE,FALSE,FALSE,FALSE,FALSE,FALSE
61,40.648264,-73.919031,7.2,302000,2017,1,11236,2300,550000,M,0.12,200,150,FALSE,FALSE,FALSE,FALSE,FALSE,FALSE
62,40.610961,-73.904128,1.3,733000,2017,1,11234,6417,1161000,M,0.12,0,0,TRUE,TRUE,TRUE,TRUE,FALSE,FALSE
63,40.590213,-73.944911,3.1,409000,2017,1,11235,2200,565000,M,0.12,0,0,TRUE,TRUE,TRUE,TRUE,FALSE,FALSE
64,40.635948,-73.925511,4.6,259000,2017,1,11234,2133,440000,L,0.18,200,150,FALSE,FALSE,FALSE,FALSE,FALSE,FALSE
65,40.629196,-73.926166,5.2,340000,2017,1,11234,4700,593000,M,0.12,200,150,FALSE,FALSE,FALSE,FALSE,FALSE,FALSE
66,40.581935,-73.964956,2.7,272000,2017,1,11235,1703,420000,L,0.18,11,0,TRUE,TRUE,FALSE,TRUE,FALSE,FALSE
67,40.578551,-73.939164,2.3,667000,2017,1,11235,2500,933000,M,0.12,0,0,TRUE,TRUE,TRUE,TRUE,FALSE,FALSE
68,40.580289,-73.959863,2.7,212000,2017,1,11235,1620,400000,L,0.18,23,4,TRUE,TRUE,FALSE,TRUE,FALSE,FALSE
69,40.633715,-73.927583,5.4,241000,2017,1,11234,2150,373000,L,0.18,200,150,FALSE,FALSE,FALSE,FALSE,FALSE,FALSE
70,40.611136,-73.908705,2.5,550000,2017,1,11234,4450,850000,M,0.12,0,0,TRUE,TRUE,TRUE,TRUE,FALSE,FALSE
71,40.608597,-73.905937,4.2,643000,2017,1,11234,4233,901000,M,0.12,21,11,TRUE,TRUE,FALSE,TRUE,FALSE,FALSE
72,40.639734,-73.888671,2.4,345000,2017,1,11236,4150,540000,M,0.12,0,0,TRUE,TRUE,TRUE,TRUE,FALSE,FALSE
73,40.651243,-73.916584,8.6,110000,2017,1,11236,2200,335000,L,0.18,200,150,FALSE,FALSE,FALSE,FALSE,FALSE,FALSE
74,40.63776,-73.899595,4.6,199000,2017,1,11236,2825,374000,L,0.18,200,150,FALSE,FALSE,FALSE,FALSE,FALSE,FALSE
75,40.605861,-73.904831,0.5,892000,2017,1,11234,4300,1427000,M,0.12,0,0,TRUE,TRUE,TRUE,TRUE,FALSE,FALSE
76,40.609897,-73.92548,3.2,430000,2017,1,11234,4000,733000,M,0.12,0,0,TRUE,TRUE,TRUE,TRUE,FALSE,FALSE
77,40.586715,-73.95928,3.3,223000,2017,1,11235,1420,345000,L,0.18,21,1,TRUE,TRUE,FALSE,TRUE,FALSE,FALSE
78,40.650883,-73.915429,8.1,122000,2017,1,11236,2225,346000,L,0.18,200,150,FALSE,FALSE,FALSE,FALSE,FALSE,FALSE
79,40.633899,-73.906778,2,291000,2017,1,11236,4000,580000,M,0.12,0,0,TRUE,TRUE,TRUE,TRUE,FALSE,FALSE
80,40.617286,-73.918673,3.4,392000,2017,1,11234,2220,527000,M,0.12,0,0,TRUE,TRUE,TRUE,TRUE,FALSE,FALSE
81,40.609816,-73.909173,2.4,642000,2017,1,11234,3975,915000,M,0.12,0,0,TRUE,TRUE,TRUE,TRUE,FALSE,FALSE
82,40.613996,-73.910638,2.6,398000,2017,1,11234,5000,727000,M,0.12,0,0,TRUE,TRUE,TRUE,TRUE,FALSE,FALSE
83,40.581501,-73.957888,2.9,246000,2017,1,11235,2400,487000,L,0.18,23,6,TRUE,TRUE,FALSE,TRUE,FALSE,FALSE
84,40.609832,-73.906457,4.1,640000,2017,1,11234,18935,1576000,M,0.12,30,26,TRUE,TRUE,FALSE,TRUE,FALSE,FALSE
85,40.610098,-73.904008,3.4,691000,2017,1,11234,5108,1010000,M,0.12,0,0,TRUE,TRUE,TRUE,TRUE,FALSE,FALSE
86,40.638677,-73.908119,4.3,370000,2017,1,11236,4050,562000,M,0.12,38,29,TRUE,TRUE,FALSE,TRUE,FALSE,FALSE
87,40.607071,-73.93225,3.6,484000,2017,1,11234,2825,659000,M,0.12,0,0,TRUE,TRUE,TRUE,TRUE,FALSE,FALSE
88,40.651069,-73.915636,8.2,105000,2017,1,11236,2192,317000,L,0.18,200,150,FALSE,FALSE,FALSE,FALSE,FALSE,FALSE
89,40.607722,-73.909339,0.7,527000,2017,1,11234,4000,829000,M,0.12,0,0,TRUE,TRUE,TRUE,TRUE,FALSE,FALSE
90,40.617471,-73.920647,3.8,362000,2017,1,11234,2800,526000,M,0.12,0,0,TRUE,TRUE,TRUE,TRUE,FALSE,FALSE
91,40.580569,-73.96157,2.7,195000,2017,1,11235,1600,349000,L,0.18,22,2,TRUE,TRUE,FALSE,TRUE,FALSE,FALSE
92,40.616834,-73.903181,2.1,479000,2017,1,11234,4000,736000,M,0.12,0,0,TRUE,TRUE,TRUE,TRUE,FALSE,FALSE
93,40.628679,-73.929647,6,360000,2017,1,11234,2200,493000,L,0.18,200,150,FALSE,FALSE,FALSE,FALSE,FALSE,FALSE
94,40.608247,-73.90882,1.4,682000,2017,1,11234,4000,975000,M,0.12,0,0,TRUE,TRUE,TRUE,TRUE,FALSE,FALSE
95,40.584956,-73.939029,3.9,241000,2017,1,11235,1960,368000,L,0.18,31,15,TRUE,TRUE,FALSE,TRUE,FALSE,FALSE
96,40.613958,-73.911696,2.8,629000,2017,1,11234,4900,983000,M,0.12,0,0,TRUE,TRUE,TRUE,TRUE,FALSE,FALSE
97,40.580318,-73.959211,2.7,152000,2017,1,11235,1620,357000,L,0.18,30,14,TRUE,TRUE,FALSE,TRUE,FALSE,FALSE
98,40.639602,-73.909201,4.7,273000,2017,1,11236,2000,393000,L,0.18,200,150,FALSE,FALSE,FALSE,FALSE,FALSE,FALSE
99,40.642446,-73.91112,5.8,328000,2017,1,11236,7499,754000,M,0.12,200,150,FALSE,FALSE,FALSE,FALSE,FALSE,FALSE
100,40.64846,-73.91873,7.4,212000,2017,1,11236,2200,444000,L,0.18,200,150,FALSE,FALSE,FALSE,FALSE,FALSE,FALSE
101,40.628514,-73.92905,5.8,410000,2017,1,11234,2200,559000,M,0.12,200,150,FALSE,FALSE,FALSE,FALSE,FALSE,FALSE
102,40.578576,-73.961146,2.7,210000,2017,1,11235,1670,408000,L,0.18,24,4,TRUE,TRUE,FALSE,TRUE,FALSE,FALSE
103,40.651057,-73.916377,8.5,95000,2017,1,11236,2233,321000,L,0.18,200,150,FALSE,FALSE,FALSE,FALSE,FALSE,FALSE
104,40.609946,-73.903965,3.6,734000,2017,1,11234,5500,1066000,M,0.12,0,0,TRUE,TRUE,TRUE,TRUE,FALSE,FALSE
105,40.579843,-73.964943,2.5,401000,2017,1,11235,2800,613000,M,0.12,0,0,TRUE,TRUE,TRUE,TRUE,FALSE,FALSE
106,40.615663,-73.911737,2.7,454000,2017,1,11234,5000,705000,M,0.12,0,0,TRUE,TRUE,TRUE,TRUE,FALSE,FALSE
107,40.637224,-73.892113,3.3,259000,2017,1,11236,4000,459000,L,0.18,22,4,TRUE,TRUE,FALSE,TRUE,FALSE,FALSE
108,40.648717,-73.919354,7.4,185000,2017,1,11236,2942,442000,L,0.18,200,150,FALSE,FALSE,FALSE,FALSE,FALSE,FALSE
109,40.615749,-73.901478,1.9,345000,2017,1,11234,5000,603000,M,0.12,0,0,TRUE,TRUE,TRUE,TRUE,FALSE,FALSE
110,40.619596,-73.90441,2.8,363000,2017,1,11234,3000,545000,M,0.12,0,0,TRUE,TRUE,TRUE,TRUE,FALSE,FALSE
111,40.632167,-73.933852,7.3,314000,2017,1,11234,2175,472000,L,0.18,200,150,FALSE,FALSE,FALSE,FALSE,FALSE,FALSE
112,40.626644,-73.923941,4.7,383000,2017,1,11234,5000,678000,M,0.12,200,150,FALSE,FALSE,FALSE,FALSE,FALSE,FALSE
113,40.608468,-73.907997,2.2,667000,2017,1,11234,4500,957000,M,0.12,0,0,TRUE,TRUE,TRUE,TRUE,FALSE,FALSE
114,40.581532,-73.952478,0.3,1323000,2017,1,11235,5820,1872000,M,0.12,0,0,TRUE,TRUE,TRUE,TRUE,FALSE,FALSE
115,40.607921,-73.903138,1.9,1031000,2017,1,11234,4200,1338000,M,0.12,0,0,TRUE,TRUE,TRUE,TRUE,FALSE,FALSE
116,40.585016,-73.936687,2.1,291000,2017,1,11235,1080,383000,L,0.18,0,0,TRUE,TRUE,TRUE,TRUE,FALSE,FALSE
117,40.640316,-73.885377,1.8,367000,2017,1,11236,4000,536000,M,0.12,0,0,TRUE,TRUE,TRUE,TRUE,FALSE,FALSE
118,40.615526,-73.911115,2.8,439000,2017,1,11234,5000,652000,M,0.12,0,0,TRUE,TRUE,TRUE,TRUE,FALSE,FALSE
119,40.584455,-73.938303,2.1,203000,2017,1,11235,1200,307000,L,0.18,4,0,TRUE,TRUE,FALSE,TRUE,FALSE,FALSE
120,40.635523,-73.899569,3.9,209000,2017,1,11236,3000,396000,L,0.18,36,25,TRUE,TRUE,FALSE,TRUE,FALSE,FALSE
121,40.616228,-73.901141,2,380000,2017,1,11234,4000,586000,M,0.12,0,0,TRUE,TRUE,TRUE,TRUE,FALSE,FALSE
122,40.61213,-73.909706,2.4,463000,2017,1,11234,4900,806000,M,0.12,0,0,TRUE,TRUE,TRUE,TRUE,FALSE,FALSE
123,40.634147,-73.897508,3.6,324000,2017,1,11236,5000,596000,M,0.12,0,0,TRUE,TRUE,TRUE,TRUE,FALSE,FALSE
124,40.640103,-73.885707,1.9,399000,2017,1,11236,4000,568000,M,0.12,0,0,TRUE,TRUE,TRUE,TRUE,FALSE,FALSE
125,40.607862,-73.907512,1.7,666000,2017,1,11234,3500,921000,M,0.12,0,0,TRUE,TRUE,TRUE,TRUE,FALSE,FALSE
126,40.63628,-73.908804,2.7,187000,2017,1,11236,3000,399000,L,0.18,27,8,TRUE,TRUE,FALSE,TRUE,FALSE,FALSE
127,40.579158,-73.941076,1.4,712000,2017,1,11235,3000,1024000,M,0.12,0,0,TRUE,TRUE,TRUE,TRUE,FALSE,FALSE
128,40.604884,-73.910498,0.4,572000,2017,1,11234,4000,943000,M,0.12,0,0,TRUE,TRUE,TRUE,TRUE,FALSE,FALSE
129,40.609109,-73.904909,4.6,698000,2017,1,11234,5733,1070000,M,0.12,200,150,FALSE,FALSE,FALSE,FALSE,FALSE,FALSE
130,40.640563,-73.885836,1.8,310000,2017,1,11236,4000,495000,L,0.18,0,0,TRUE,TRUE,TRUE,TRUE,FALSE,FALSE
131,40.64995,-73.916416,8.2,118000,2017,1,11236,2200,356000,L,0.18,200,150,FALSE,FALSE,FALSE,FALSE,FALSE,FALSE
132,40.583583,-73.935954,0.4,192000,2017,1,11235,847,263000,L,0.18,0,0,TRUE,TRUE,TRUE,TRUE,FALSE,FALSE
133,40.610978,-73.908363,2.6,722000,2017,1,11234,5233,1001000,M,0.12,0,0,TRUE,TRUE,TRUE,TRUE,FALSE,FALSE
134,40.585535,-73.937115,3.1,200000,2017,1,11235,1702,329000,L,0.18,22,2,TRUE,TRUE,FALSE,TRUE,FALSE,FALSE
135,40.607156,-73.907893,0.7,682000,2017,1,11234,3817,1014000,M,0.12,0,0,TRUE,TRUE,TRUE,TRUE,FALSE,FALSE
136,40.603936,-73.9099,0.1,842000,2017,1,11234,6000,1237000,M,0.12,0,0,TRUE,TRUE,TRUE,TRUE,FALSE,FALSE
137,40.613032,-73.907049,2.6,345000,2017,1,11234,4000,601000,M,0.12,0,0,TRUE,TRUE,TRUE,TRUE,FALSE,FALSE
138,40.578471,-73.961113,2.7,183000,2017,1,11235,1563,469000,L,0.18,31,18,TRUE,TRUE,FALSE,TRUE,FALSE,FALSE
139,40.60934,-73.93553,4,429000,2017,1,11234,2200,603000,M,0.12,4,0,TRUE,TRUE,FALSE,TRUE,FALSE,FALSE
140,40.624776,-73.926629,4.6,314000,2017,1,11234,2200,447000,L,0.18,200,150,FALSE,FALSE,FALSE,FALSE,FALSE,FALSE
141,40.59085,-73.959798,3.5,333000,2017,1,11235,2920,519000,L,0.18,16,2,TRUE,TRUE,FALSE,TRUE,FALSE,FALSE
142,40.632701,-73.901045,2.7,252000,2017,1,11236,2667,423000,L,0.18,16,0,TRUE,TRUE,FALSE,TRUE,FALSE,FALSE
143,40.624755,-73.926265,4.6,326000,2017,1,11234,2183,458000,L,0.18,200,150,FALSE,FALSE,FALSE,FALSE,FALSE,FALSE
144,40.608857,-73.935473,4,528000,2017,1,11234,2300,692000,M,0.12,0,0,TRUE,TRUE,TRUE,TRUE,FALSE,FALSE
145,40.608427,-73.908662,1.7,682000,2017,1,11234,4000,975000,M,0.12,0,0,TRUE,TRUE,TRUE,TRUE,FALSE,FALSE
146,40.634151,-73.927629,5,242000,2017,1,11234,2150,373000,L,0.18,200,150,FALSE,FALSE,FALSE,FALSE,FALSE,FALSE
147,40.605496,-73.911561,0.8,569000,2017,1,11234,4042,891000,M,0.12,0,0,TRUE,TRUE,TRUE,TRUE,FALSE,FALSE
148,40.631997,-73.929426,6.2,327000,2017,1,11234,2400,475000,L,0.18,200,150,FALSE,FALSE,FALSE,FALSE,FALSE,FALSE
149,40.605738,-73.929613,3,431000,2017,1,11234,2200,566000,M,0.12,0,0,TRUE,TRUE,TRUE,TRUE,FALSE,FALSE
150,40.633543,-73.926627,5.6,196000,2017,1,11234,2150,350000,L,0.18,200,150,FALSE,FALSE,FALSE,FALSE,FALSE,FALSE
151,40.641061,-73.885068,1.7,345000,2017,1,11236,4000,530000,M,0.12,0,0,TRUE,TRUE,TRUE,TRUE,FALSE,FALSE
152,40.619422,-73.914462,2.8,372000,2017,1,11234,3040,543000,M,0.12,0,0,TRUE,TRUE,TRUE,TRUE,FALSE,FALSE
153,40.608329,-73.934884,3.9,493000,2017,1,11234,2200,651000,M,0.12,0,0,TRUE,TRUE,TRUE,TRUE,FALSE,FALSE
154,40.618511,-73.936308,5.5,388000,2017,1,11234,4000,689000,M,0.12,200,150,FALSE,FALSE,FALSE,FALSE,FALSE,FALSE
155,40.609067,-73.903605,3.7,732000,2017,1,11234,5392,1060000,M,0.12,0,0,TRUE,TRUE,TRUE,TRUE,FALSE,FALSE
156,40.621208,-73.906084,2.7,450000,2017,1,11234,4400,731000,M,0.12,0,0,TRUE,TRUE,TRUE,TRUE,FALSE,FALSE
157,40.614465,-73.911751,2.7,455000,2017,1,11234,4500,652000,M,0.12,0,0,TRUE,TRUE,TRUE,TRUE,FALSE,FALSE
158,40.639201,-73.90876,4.3,556000,2017,1,11236,4000,818000,M,0.12,34,27,TRUE,TRUE,FALSE,TRUE,FALSE,FALSE
159,40.608626,-73.906507,3.7,614000,2017,1,11234,5213,930000,M,0.12,0,0,TRUE,TRUE,TRUE,TRUE,FALSE,FALSE
160,40.648959,-73.919624,7.4,129000,2017,1,11236,2217,353000,L,0.18,200,150,FALSE,FALSE,FALSE,FALSE,FALSE,FALSE
161,40.616043,-73.91898,3.3,250000,2017,1,11234,2050,389000,L,0.18,19,1,TRUE,TRUE,FALSE,TRUE,FALSE,FALSE
162,40.60485,-73.91256,0.5,560000,2017,1,11234,4042,891000,M,0.12,0,0,TRUE,TRUE,TRUE,TRUE,FALSE,FALSE
163,40.649847,-73.915571,7.8,178000,2017,1,11236,2300,409000,L,0.18,200,150,FALSE,FALSE,FALSE,FALSE,FALSE,FALSE
164,40.63964,-73.883488,2,342000,2017,1,11236,4000,511000,L,0.18,0,0,TRUE,TRUE,TRUE,TRUE,FALSE,FALSE
165,40.631788,-73.923552,4.6,187000,2017,1,11234,2000,324000,L,0.18,200,150,FALSE,FALSE,FALSE,FALSE,FALSE,FALSE
166,40.636128,-73.901462,4,186000,2017,1,11236,2675,351000,L,0.18,44,31,TRUE,TRUE,FALSE,TRUE,FALSE,FALSE
167,40.618221,-73.919154,3.8,423000,2017,1,11234,5589,661000,M,0.12,0,0,TRUE,TRUE,TRUE,TRUE,FALSE,FALSE
168,40.584948,-73.937752,2.5,243000,2017,1,11235,1400,354000,L,0.18,9,0,TRUE,TRUE,FALSE,TRUE,FALSE,FALSE
169,40.651435,-73.916047,8.4,105000,2017,1,11236,2192,317000,L,0.18,200,150,FALSE,FALSE,FALSE,FALSE,FALSE,FALSE
170,40.638952,-73.890301,2.6,255000,2017,1,11236,4000,415000,L,0.18,13,0,TRUE,TRUE,FALSE,TRUE,FALSE,FALSE
171,40.646063,-73.901462,4.3,164000,2017,1,11236,1176,259000,L,0.18,200,53,FALSE,TRUE,FALSE,TRUE,FALSE,FALSE
172,40.608737,-73.925433,2.8,447000,2017,1,11234,1900,589000,M,0.12,0,0,TRUE,TRUE,TRUE,TRUE,FALSE,FALSE
173,40.579765,-73.94685,0.5,1519000,2017,1,11235,5200,2112000,M,0.12,0,0,TRUE,TRUE,TRUE,TRUE,FALSE,FALSE
174,40.579889,-73.939093,1.5,419000,2017,1,11235,2500,676000,M,0.12,0,0,TRUE,TRUE,TRUE,TRUE,FALSE,FALSE
175,40.638954,-73.8969,4.4,192000,2017,1,11236,3500,410000,L,0.18,200,150,FALSE,FALSE,FALSE,FALSE,FALSE,FALSE
176,40.629065,-73.930052,6.1,360000,2017,1,11234,2225,533000,M,0.12,200,150,FALSE,FALSE,FALSE,FALSE,FALSE,FALSE
177,40.606025,-73.903408,0.6,1019000,2017,1,11234,5200,1498000,M,0.12,0,0,TRUE,TRUE,TRUE,TRUE,FALSE,FALSE
178,40.640067,-73.896114,4.1,184000,2017,1,11236,2917,365000,L,0.18,56,38,TRUE,TRUE,FALSE,TRUE,FALSE,FALSE
179,40.638497,-73.89059,2.7,295000,2017,1,11236,4650,494000,L,0.18,13,0,TRUE,TRUE,FALSE,TRUE,FALSE,FALSE
180,40.611813,-73.909268,2.4,469000,2017,1,11234,5200,820000,M,0.12,0,0,TRUE,TRUE,TRUE,TRUE,FALSE,FALSE
181,40.606,-73.931058,3.2,436000,2017,1,11234,2200,569000,M,0.12,0,0,TRUE,TRUE,TRUE,TRUE,FALSE,FALSE
182,40.586259,-73.95997,3.9,345000,2017,1,11235,2667,547000,M,0.12,3,0,TRUE,TRUE,FALSE,TRUE,FALSE,FALSE
183,40.579151,-73.965234,2.7,216000,2017,1,11235,1350,344000,L,0.18,17,0,TRUE,TRUE,FALSE,TRUE,FALSE,FALSE
184,40.578793,-73.93904,2.2,478000,2017,1,11235,2500,853000,M,0.12,0,0,TRUE,TRUE,TRUE,TRUE,FALSE,FALSE
185,40.633539,-73.927564,5.6,239000,2017,1,11234,2150,373000,L,0.18,200,150,FALSE,FALSE,FALSE,FALSE,FALSE,FALSE
186,40.608775,-73.903696,3.7,733000,2017,1,11234,6542,1142000,M,0.12,0,0,TRUE,TRUE,TRUE,TRUE,FALSE,FALSE
187,40.591623,-73.952883,6.4,682000,2017,1,11235,3900,974000,M,0.12,200,150,FALSE,FALSE,FALSE,FALSE,FALSE,FALSE
188,40.63021,-73.92765,5.9,338000,2017,1,11234,2300,552000,M,0.12,200,150,FALSE,FALSE,FALSE,FALSE,FALSE,FALSE
189,40.586113,-73.95857,3.1,199000,2017,1,11235,1500,343000,L,0.18,24,3,TRUE,TRUE,FALSE,TRUE,FALSE,FALSE
190,40.584995,-73.936871,2.2,201000,2017,1,11235,1320,308000,L,0.18,7,0,TRUE,TRUE,FALSE,TRUE,FALSE,FALSE
191,40.625025,-73.927231,4.6,331000,2017,1,11234,3500,588000,M,0.12,200,150,FALSE,FALSE,FALSE,FALSE,FALSE,FALSE
192,40.60577,-73.930801,3.1,417000,2017,1,11234,2200,550000,M,0.12,0,0,TRUE,TRUE,TRUE,TRUE,FALSE,FALSE
193,40.634811,-73.89609,2.9,227000,2017,1,11236,9558,570000,M,0.12,3,0,TRUE,TRUE,FALSE,TRUE,FALSE,FALSE
194,40.616202,-73.900774,2.1,450000,2017,1,11234,4000,644000,M,0.12,0,0,TRUE,TRUE,TRUE,TRUE,FALSE,FALSE
195,40.611268,-73.90927,2.3,686000,2017,1,11234,4292,987000,M,0.12,0,0,TRUE,TRUE,TRUE,TRUE,FALSE,FALSE
196,40.584732,-73.939959,3,368000,2017,1,11235,1716,502000,L,0.18,4,0,TRUE,TRUE,FALSE,TRUE,FALSE,FALSE
197,40.588833,-73.958549,3.1,567000,2017,1,11235,4800,871000,M,0.12,0,0,TRUE,TRUE,TRUE,TRUE,FALSE,FALSE
198,40.608356,-73.906409,3.5,676000,2017,1,11234,5750,1084000,M,0.12,0,0,TRUE,TRUE,TRUE,TRUE,FALSE,FALSE
199,40.613015,-73.908697,2.4,770000,2017,1,11234,5100,1083000,M,0.12,0,0,TRUE,TRUE,TRUE,TRUE,FALSE,FALSE
200,40.619661,-73.902403,2.8,542000,2017,1,11234,4000,783000,M,0.12,0,0,TRUE,TRUE,TRUE,TRUE,FALSE,FALSE
201,40.614629,-73.90801,2.8,292000,2017,1,11234,8280,1026000,M,0.12,14,5,TRUE,TRUE,FALSE,TRUE,FALSE,FALSE
202,40.579485,-73.965356,2.5,224000,2017,1,11235,1800,369000,L,0.18,15,0,TRUE,TRUE,FALSE,TRUE,FALSE,FALSE
203,40.635526,-73.901728,3.6,195000,2017,1,11236,2800,368000,L,0.18,30,14,TRUE,TRUE,FALSE,TRUE,FALSE,FALSE
204,40.609183,-73.903941,4.4,729000,2017,1,11234,5500,1066000,M,0.12,46,40,TRUE,TRUE,FALSE,TRUE,FALSE,FALSE
205,40.619947,-73.902243,2.7,568000,2017,1,11234,6000,901000,M,0.12,0,0,TRUE,TRUE,TRUE,TRUE,FALSE,FALSE
206,40.608893,-73.908308,2.4,659000,2017,1,11234,4000,961000,M,0.12,0,0,TRUE,TRUE,TRUE,TRUE,FALSE,FALSE
207,40.608469,-73.93504,3.9,460000,2017,1,11234,2200,623000,M,0.12,0,0,TRUE,TRUE,TRUE,TRUE,FALSE,FALSE
208,40.651451,-73.915591,8.3,117000,2017,1,11236,2175,340000,L,0.18,200,150,FALSE,FALSE,FALSE,FALSE,FALSE,FALSE
209,40.5853,-73.93713,2.5,205000,2017,1,11235,1035,292000,L,0.18,11,0,TRUE,TRUE,FALSE,TRUE,FALSE,FALSE
210,40.611947,-73.909291,2.4,541000,2017,1,11234,4975,868000,M,0.12,0,0,TRUE,TRUE,TRUE,TRUE,FALSE,FALSE
211,40.624595,-73.92661,4.7,314000,2017,1,11234,2200,447000,L,0.18,200,150,FALSE,FALSE,FALSE,FALSE,FALSE,FALSE
212,40.610929,-73.911942,2.5,655000,2017,1,11234,3900,1005000,M,0.12,0,0,TRUE,TRUE,TRUE,TRUE,FALSE,FALSE
213,40.650507,-73.919893,8.3,150000,2017,1,11236,2300,391000,L,0.18,200,150,FALSE,FALSE,FALSE,FALSE,FALSE,FALSE
214,40.639384,-73.893974,3.6,208000,2017,1,11236,2280,347000,L,0.18,27,7,TRUE,TRUE,FALSE,TRUE,FALSE,FALSE
215,40.604506,-73.912527,0.3,550000,2017,1,11234,4000,888000,M,0.12,0,0,TRUE,TRUE,TRUE,TRUE,FALSE,FALSE
216,40.621489,-73.932708,4.6,274000,2017,1,11234,4000,443000,L,0.18,200,150,FALSE,FALSE,FALSE,FALSE,FALSE,FALSE
217,40.577224,-73.967061,2.7,277000,2017,1,11235,1800,471000,L,0.18,15,0,TRUE,TRUE,FALSE,TRUE,FALSE,FALSE
218,40.638789,-73.884239,2.4,342000,2017,1,11236,4000,511000,L,0.18,4,0,TRUE,TRUE,FALSE,TRUE,FALSE,FALSE
219,40.610114,-73.905003,4.1,741000,2017,1,11234,4817,1015000,M,0.12,6,0,TRUE,TRUE,FALSE,TRUE,FALSE,FALSE
220,40.612166,-73.907441,2.4,791000,2017,1,11234,5200,1090000,M,0.12,0,0,TRUE,TRUE,TRUE,TRUE,FALSE,FALSE
221,40.614176,-73.912183,2.9,359000,2017,1,11234,4200,635000,M,0.12,0,0,TRUE,TRUE,TRUE,TRUE,FALSE,FALSE
222,40.605777,-73.929552,3,431000,2017,1,11234,2200,566000,M,0.12,0,0,TRUE,TRUE,TRUE,TRUE,FALSE,FALSE
223,40.652312,-73.915821,8.4,149000,2017,1,11236,2100,367000,L,0.18,200,150,FALSE,FALSE,FALSE,FALSE,FALSE,FALSE
224,40.607989,-73.906066,3.2,663000,2017,1,11234,3750,962000,M,0.12,0,0,TRUE,TRUE,TRUE,TRUE,FALSE,FALSE
225,40.575809,-73.950532,0.9,758000,2017,1,11235,6000,1359000,M,0.12,0,0,TRUE,TRUE,TRUE,TRUE,FALSE,FALSE
226,40.579868,-73.966128,2.2,206000,2017,1,11235,1838,432000,L,0.18,18,1,TRUE,TRUE,FALSE,TRUE,FALSE,FALSE
227,40.605866,-73.911978,0.9,855000,2017,1,11234,4067,1154000,M,0.12,0,0,TRUE,TRUE,TRUE,TRUE,FALSE,FALSE
228,40.585016,-73.936687,2.1,291000,2017,1,11235,1080,383000,L,0.18,0,0,TRUE,TRUE,TRUE,TRUE,FALSE,FALSE
229,40.579096,-73.966767,2.4,372000,2017,1,11235,2865,643000,M,0.12,0,0,TRUE,TRUE,TRUE,TRUE,FALSE,FALSE
230,40.652696,-73.915003,8.3,163000,2017,1,11236,2200,391000,L,0.18,200,150,FALSE,FALSE,FALSE,FALSE,FALSE,FALSE
231,40.652589,-73.912317,7.8,233000,2017,1,11236,2400,485000,L,0.18,200,150,FALSE,FALSE,FALSE,FALSE,FALSE,FALSE
232,40.651983,-73.916614,8.7,140000,2017,1,11236,2400,389000,L,0.18,200,150,FALSE,FALSE,FALSE,FALSE,FALSE,FALSE
233,40.583383,-73.958639,3.3,163000,2017,1,11235,1400,314000,L,0.18,30,10,TRUE,TRUE,FALSE,TRUE,FALSE,FALSE
234,40.583325,-73.959177,3.4,150000,2017,1,11235,2246,365000,L,0.18,36,23,TRUE,TRUE,FALSE,TRUE,FALSE,FALSE
235,40.609569,-73.935714,4.1,431000,2017,1,11234,2200,577000,M,0.12,12,0,TRUE,TRUE,FALSE,TRUE,FALSE,FALSE
236,40.609881,-73.924247,2.9,294000,2017,1,11234,3000,462000,L,0.18,12,0,TRUE,TRUE,FALSE,TRUE,FALSE,FALSE
237,40.624938,-73.926284,4.6,326000,2017,1,11234,2183,458000,L,0.18,200,150,FALSE,FALSE,FALSE,FALSE,FALSE,FALSE
238,40.625567,-73.926609,4.7,322000,2017,1,11234,2200,469000,L,0.18,200,150,FALSE,FALSE,FALSE,FALSE,FALSE,FALSE
239,40.649758,-73.918809,8.1,164000,2017,1,11236,2900,417000,L,0.18,200,150,FALSE,FALSE,FALSE,FALSE,FALSE,FALSE
240,40.652283,-73.915294,8.3,202000,2017,1,11236,3100,474000,L,0.18,200,150,FALSE,FALSE,FALSE,FALSE,FALSE,FALSE
241,40.580247,-73.961745,2.7,174000,2017,1,11235,1800,330000,L,0.18,25,4,TRUE,TRUE,FALSE,TRUE,FALSE,FALSE
242,40.638142,-73.890193,2.6,285000,2017,1,11236,4150,491000,L,0.18,14,0,TRUE,TRUE,FALSE,TRUE,FALSE,FALSE
243,40.609605,-73.90659,4.1,634000,2017,1,11234,4299,871000,M,0.12,8,0,TRUE,TRUE,FALSE,TRUE,FALSE,FALSE
244,40.606414,-73.907494,0.1,958000,2017,1,11234,4300,1373000,M,0.12,0,0,TRUE,TRUE,TRUE,TRUE,FALSE,FALSE
245,40.638437,-73.889772,2.5,307000,2017,1,11236,4150,494000,L,0.18,8,0,TRUE,TRUE,FALSE,TRUE,FALSE,FALSE
246,40.639887,-73.908278,4.7,365000,2017,1,11236,1908,521000,L,0.18,200,150,FALSE,FALSE,FALSE,FALSE,FALSE,FALSE
247,40.584372,-73.938765,2,231000,2017,1,11235,1595,362000,L,0.18,2,0,TRUE,TRUE,FALSE,TRUE,FALSE,FALSE
248,40.605579,-73.912422,0.8,780000,2017,1,11234,4067,1154000,M,0.12,0,0,TRUE,TRUE,TRUE,TRUE,FALSE,FALSE
249,40.639427,-73.883817,2.1,342000,2017,1,11236,4000,511000,L,0.18,1,0,TRUE,TRUE,FALSE,TRUE,FALSE,FALSE
250,40.63823,-73.890292,2.6,276000,2017,1,11236,4150,468000,L,0.18,14,0,TRUE,TRUE,FALSE,TRUE,FALSE,FALSE
251,40.634035,-73.927617,5,242000,2017,1,11234,2150,373000,L,0.18,200,150,FALSE,FALSE,FALSE,FALSE,FALSE,FALSE
252,40.604387,-73.911827,0.3,585000,2017,1,11234,4000,939000,M,0.12,0,0,TRUE,TRUE,TRUE,TRUE,FALSE,FALSE
253,40.580264,-73.964369,2.5,199000,2017,1,11235,1600,349000,L,0.18,19,0,TRUE,TRUE,FALSE,TRUE,FALSE,FALSE
254,40.584675,-73.938493,2.7,57000,2017,1,11235,1200,145000,L,0.18,42,18,TRUE,TRUE,FALSE,TRUE,FALSE,FALSE
255,40.579247,-73.966018,2.5,262000,2017,1,11235,1800,456000,L,0.18,14,0,TRUE,TRUE,FALSE,TRUE,FALSE,FALSE
256,40.585206,-73.937667,2.8,310000,2017,1,11235,1579,441000,L,0.18,7,0,TRUE,TRUE,FALSE,TRUE,FALSE,FALSE
257,40.576927,-73.966949,2.7,238000,2017,1,11235,1800,436000,L,0.18,20,2,TRUE,TRUE,FALSE,TRUE,FALSE,FALSE
258,40.633648,-73.923744,4.3,177000,2017,1,11234,4000,360000,L,0.18,200,150,FALSE,FALSE,FALSE,FALSE,FALSE,FALSE
259,40.623582,-73.921302,4.4,344000,2017,1,11234,4000,602000,M,0.12,200,48,FALSE,TRUE,FALSE,TRUE,FALSE,FALSE
260,40.619816,-73.928128,5,376000,2017,1,11234,2200,523000,L,0.18,200,150,FALSE,FALSE,FALSE,FALSE,FALSE,FALSE
261,40.652401,-73.913375,7.9,193000,2017,1,11236,2828,436000,L,0.18,200,150,FALSE,FALSE,FALSE,FALSE,FALSE,FALSE
262,40.625345,-73.928764,4.9,393000,2017,1,11234,2625,569000,M,0.12,200,150,FALSE,FALSE,FALSE,FALSE,FALSE,FALSE
263,40.615626,-73.919507,3.4,230000,2017,1,11234,1992,397000,L,0.18,24,5,TRUE,TRUE,FALSE,TRUE,FALSE,FALSE
264,40.610524,-73.911516,2.3,652000,2017,1,11234,3967,1009000,M,0.12,0,0,TRUE,TRUE,TRUE,TRUE,FALSE,FALSE
265,40.583698,-73.93628,0.5,177000,2017,1,11235,912,267000,L,0.18,0,0,TRUE,TRUE,TRUE,TRUE,FALSE,FALSE
266,40.607566,-73.907331,1.4,592000,2017,1,11234,4258,900000,M,0.12,0,0,TRUE,TRUE,TRUE,TRUE,FALSE,FALSE
267,40.604429,-73.910125,0.2,653000,2017,1,11234,4000,1007000,M,0.12,0,0,TRUE,TRUE,TRUE,TRUE,FALSE,FALSE
268,40.633422,-73.927552,5.7,240000,2017,1,11234,2150,373000,L,0.18,200,150,FALSE,FALSE,FALSE,FALSE,FALSE,FALSE
269,40.591714,-73.953874,7,529000,2017,1,11235,2200,741000,M,0.12,200,150,FALSE,FALSE,FALSE,FALSE,FALSE,FALSE
270,40.619517,-73.928096,4.9,377000,2017,1,11234,2200,523000,L,0.18,200,150,FALSE,FALSE,FALSE,FALSE,FALSE,FALSE
271,40.592073,-73.951989,5.7,579000,2017,1,11235,2400,753000,M,0.12,200,150,FALSE,FALSE,FALSE,FALSE,FALSE,FALSE
272,40.57908,-73.940075,1.7,550000,2017,1,11235,2400,737000,M,0.12,0,0,TRUE,TRUE,TRUE,TRUE,FALSE,FALSE
273,40.638518,-73.905539,4.3,394000,2017,1,11236,2150,553000,M,0.12,36,26,TRUE,TRUE,FALSE,TRUE,FALSE,FALSE
274,40.637965,-73.894377,3.9,193000,2017,1,11236,2750,332000,L,0.18,35,22,TRUE,TRUE,FALSE,TRUE,FALSE,FALSE
275,40.648593,-73.919966,7,221000,2017,1,11236,2233,442000,L,0.18,200,150,FALSE,FALSE,FALSE,FALSE,FALSE,FALSE
276,40.579129,-73.93963,1.8,598000,2017,1,11235,2875,830000,M,0.12,0,0,TRUE,TRUE,TRUE,TRUE,FALSE,FALSE
277,40.610757,-73.905098,3.4,751000,2017,1,11234,7075,1120000,M,0.12,0,0,TRUE,TRUE,TRUE,TRUE,FALSE,FALSE
278,40.580096,-73.939103,1.1,698000,2017,1,11235,2500,919000,M,0.12,0,0,TRUE,TRUE,TRUE,TRUE,FALSE,FALSE
279,40.581882,-73.957616,3.1,414000,2017,1,11235,2400,660000,M,0.12,0,0,TRUE,TRUE,TRUE,TRUE,FALSE,FALSE
280,40.614538,-73.909256,2.7,597000,2017,1,11234,4975,904000,M,0.12,0,0,TRUE,TRUE,TRUE,TRUE,FALSE,FALSE
281,40.639891,-73.895072,3.8,174000,2017,1,11236,2600,326000,L,0.18,35,20,TRUE,TRUE,FALSE,TRUE,FALSE,FALSE
282,40.63154,-73.930316,6.5,332000,2017,1,11234,2425,495000,L,0.18,200,150,FALSE,FALSE,FALSE,FALSE,FALSE,FALSE
283,40.580935,-73.960952,2.7,161000,2017,1,11235,2077,359000,L,0.18,29,11,TRUE,TRUE,FALSE,TRUE,FALSE,FALSE
284,40.637113,-73.91021,2.7,212000,2017,1,11236,2000,367000,L,0.18,20,1,TRUE,TRUE,FALSE,TRUE,FALSE,FALSE
285,40.609023,-73.909712,1.8,650000,2017,1,11234,3975,915000,M,0.12,0,0,TRUE,TRUE,TRUE,TRUE,FALSE,FALSE
286,40.625577,-73.926451,4.7,323000,2017,1,11234,2200,469000,L,0.18,200,150,FALSE,FALSE,FALSE,FALSE,FALSE,FALSE
287,40.633481,-73.927558,5.6,236000,2017,1,11234,2150,370000,L,0.18,200,150,FALSE,FALSE,FALSE,FALSE,FALSE,FALSE
288,40.580342,-73.958713,2.7,396000,2017,1,11235,2400,632000,M,0.12,0,0,TRUE,TRUE,TRUE,TRUE,FALSE,FALSE
289,40.639358,-73.88336,2.1,357000,2017,1,11236,4000,526000,M,0.12,0,0,TRUE,TRUE,TRUE,TRUE,FALSE,FALSE
290,40.576472,-73.953523,1.9,829000,2017,1,11235,3276,1091000,M,0.12,0,0,TRUE,TRUE,TRUE,TRUE,FALSE,FALSE
291,40.637971,-73.890002,2.6,295000,2017,1,11236,4150,473000,L,0.18,10,0,TRUE,TRUE,FALSE,TRUE,FALSE,FALSE
292,40.607422,-73.905472,2.5,768000,2017,1,11234,5125,1135000,M,0.12,0,0,TRUE,TRUE,TRUE,TRUE,FALSE,FALSE
293,40.585191,-73.936907,2.4,198000,2017,1,11235,1320,311000,L,0.18,13,0,TRUE,TRUE,FALSE,TRUE,FALSE,FALSE
294,40.64136,-73.890476,2.5,271000,2017,1,11236,5200,497000,L,0.18,16,1,TRUE,TRUE,FALSE,TRUE,FALSE,FALSE
295,40.606644,-73.910767,0.5,522000,2017,1,11234,3950,802000,M,0.12,0,0,TRUE,TRUE,TRUE,TRUE,FALSE,FALSE
296,40.583709,-73.93596,0.6,173000,2017,1,11235,924,267000,L,0.18,0,0,TRUE,TRUE,TRUE,TRUE,FALSE,FALSE
297,40.581404,-73.957957,2.9,391000,2017,1,11235,2400,632000,M,0.12,0,0,TRUE,TRUE,TRUE,TRUE,FALSE,FALSE
298,40.583634,-73.936276,0.5,187000,2017,1,11235,836,256000,L,0.18,0,0,TRUE,TRUE,TRUE,TRUE,FALSE,FALSE
299,40.614513,-73.907901,2.8,478000,2017,1,11234,12780,962000,M,0.12,0,0,TRUE,TRUE,TRUE,TRUE,FALSE,FALSE
300,40.634753,-73.890737,3,179000,2017,1,11236,3120,336000,L,0.18,27,6,TRUE,TRUE,FALSE,TRUE,FALSE,FALSE
301,40.609255,-73.905457,4.4,747000,2017,1,11234,7600,1211000,M,0.12,50,43,TRUE,TRUE,FALSE,TRUE,FALSE,FALSE
302,40.637966,-73.888772,2.4,303000,2017,1,11236,4167,528000,M,0.12,0,0,TRUE,TRUE,TRUE,TRUE,FALSE,FALSE
303,40.610241,-73.904066,3.1,696000,2017,1,11234,5108,1010000,M,0.12,0,0,TRUE,TRUE,TRUE,TRUE,FALSE,FALSE
304,40.609276,-73.925542,3,262000,2017,1,11234,4000,519000,L,0.18,23,6,TRUE,TRUE,FALSE,TRUE,FALSE,FALSE
305,40.633473,-73.896438,3.3,175000,2017,1,11236,3000,362000,L,0.18,30,13,TRUE,TRUE,FALSE,TRUE,FALSE,FALSE
306,40.651507,-73.915653,8.3,149000,2017,1,11236,3100,421000,L,0.18,200,150,FALSE,FALSE,FALSE,FALSE,FALSE,FALSE
307,40.631307,-73.921543,4.3,174000,2017,1,11234,1967,291000,L,0.18,200,54,FALSE,TRUE,FALSE,TRUE,FALSE,FALSE
308,40.580825,-73.958369,2.7,287000,2017,1,11235,2400,510000,L,0.18,16,1,TRUE,TRUE,FALSE,TRUE,FALSE,FALSE
309,40.614984,-73.912968,2.9,592000,2017,1,11234,4950,888000,M,0.12,0,0,TRUE,TRUE,TRUE,TRUE,FALSE,FALSE
310,40.610189,-73.903669,2.5,845000,2017,1,11234,5392,1321000,M,0.12,0,0,TRUE,TRUE,TRUE,TRUE,FALSE,FALSE
311,40.608695,-73.925387,2.8,447000,2017,1,11234,1900,589000,M,0.12,0,0,TRUE,TRUE,TRUE,TRUE,FALSE,FALSE
312,40.57952,-73.965191,2.5,174000,2017,1,11235,1800,341000,L,0.18,24,3,TRUE,TRUE,FALSE,TRUE,FALSE,FALSE
313,40.631515,-73.930897,6.7,421000,2017,1,11234,2352,580000,M,0.12,200,150,FALSE,FALSE,FALSE,FALSE,FALSE,FALSE
314,40.586129,-73.942772,4.1,465000,2017,1,11235,1943,582000,M,0.12,8,0,TRUE,TRUE,FALSE,TRUE,FALSE,FALSE
315,40.604778,-73.912671,0.5,558000,2017,1,11234,4042,891000,M,0.12,0,0,TRUE,TRUE,TRUE,TRUE,FALSE,FALSE
316,40.634266,-73.890193,2.9,179000,2017,1,11236,2880,337000,L,0.18,26,5,TRUE,TRUE,FALSE,TRUE,FALSE,FALSE
317,40.631559,-73.929957,6.3,321000,2017,1,11234,2400,497000,L,0.18,200,150,FALSE,FALSE,FALSE,FALSE,FALSE,FALSE
318,40.639289,-73.894122,3.7,230000,2017,1,11236,3404,390000,L,0.18,28,9,TRUE,TRUE,FALSE,TRUE,FALSE,FALSE
319,40.647544,-73.919145,6.5,229000,2017,1,11236,2200,449000,L,0.18,200,150,FALSE,FALSE,FALSE,FALSE,FALSE,FALSE
320,40.634589,-73.893613,2.7,206000,2017,1,11236,2720,364000,L,0.18,21,2,TRUE,TRUE,FALSE,TRUE,FALSE,FALSE
321,40.610053,-73.903627,2.7,766000,2017,1,11234,5392,1098000,M,0.12,0,0,TRUE,TRUE,TRUE,TRUE,FALSE,FALSE
322,40.605211,-73.912001,0.7,511000,2017,1,11234,4042,891000,M,0.12,0,0,TRUE,TRUE,TRUE,TRUE,FALSE,FALSE
323,40.5878,-73.966849,3,582000,2017,1,11235,2020,747000,M,0.12,0,0,TRUE,TRUE,TRUE,TRUE,FALSE,FALSE
324,40.649483,-73.919729,7.5,130000,2017,1,11236,2200,355000,L,0.18,200,150,FALSE,FALSE,FALSE,FALSE,FALSE,FALSE
325,40.640919,-73.885287,1.7,362000,2017,1,11236,4000,548000,M,0.12,0,0,TRUE,TRUE,TRUE,TRUE,FALSE,FALSE
326,40.640388,-73.895623,3.9,167000,2017,1,11236,3025,324000,L,0.18,40,27,TRUE,TRUE,FALSE,TRUE,FALSE,FALSE
327,40.606334,-73.931431,3.3,436000,2017,1,11234,2200,569000,M,0.12,0,0,TRUE,TRUE,TRUE,TRUE,FALSE,FALSE
328,40.625217,-73.923427,4.4,174000,2017,1,11234,4000,431000,L,0.18,200,150,FALSE,FALSE,FALSE,FALSE,FALSE,FALSE
329,40.58435,-73.938477,2,246000,2017,1,11235,1568,346000,L,0.18,0,0,TRUE,TRUE,TRUE,TRUE,FALSE,FALSE
330,40.634277,-73.907808,2.7,425000,2017,1,11236,4000,693000,M,0.12,0,0,TRUE,TRUE,TRUE,TRUE,FALSE,FALSE
331,40.625324,-73.926688,4.6,318000,2017,1,11234,2375,463000,L,0.18,200,150,FALSE,FALSE,FALSE,FALSE,FALSE,FALSE
332,40.636015,-73.90134,3.9,172000,2017,1,11236,2667,336000,L,0.18,40,27,TRUE,TRUE,FALSE,TRUE,FALSE,FALSE
333,40.620997,-73.906401,2.7,407000,2017,1,11234,2800,573000,M,0.12,0,0,TRUE,TRUE,TRUE,TRUE,FALSE,FALSE
334,40.60643,-73.911098,0.7,512000,2017,1,11234,3950,795000,M,0.12,0,0,TRUE,TRUE,TRUE,TRUE,FALSE,FALSE
335,40.638779,-73.892601,3.3,300000,2017,1,11236,4000,469000,L,0.18,15,0,TRUE,TRUE,FALSE,TRUE,FALSE,FALSE
336,40.609944,-73.924317,2.9,292000,2017,1,11234,3000,460000,L,0.18,12,0,TRUE,TRUE,FALSE,TRUE,FALSE,FALSE
337,40.589758,-73.944825,3,402000,2017,1,11235,2900,582000,M,0.12,0,0,TRUE,TRUE,TRUE,TRUE,FALSE,FALSE
338,40.617326,-73.89933,2.2,608000,2017,1,11234,4000,841000,M,0.12,0,0,TRUE,TRUE,TRUE,TRUE,FALSE,FALSE
339,40.611056,-73.926294,3.7,447000,2017,1,11234,2000,597000,M,0.12,0,0,TRUE,TRUE,TRUE,TRUE,FALSE,FALSE
340,40.61738,-73.924539,4.3,247000,2017,1,11234,4000,505000,L,0.18,200,62,FALSE,TRUE,FALSE,TRUE,FALSE,FALSE
341,40.635408,-73.897652,3.9,170000,2017,1,11236,1254,261000,L,0.18,35,18,TRUE,TRUE,FALSE,TRUE,FALSE,FALSE
342,40.617203,-73.922933,3.9,408000,2017,1,11234,4000,644000,M,0.12,1,0,TRUE,TRUE,FALSE,TRUE,FALSE,FALSE
343,40.633525,-73.896521,3.3,235000,2017,1,11236,3000,422000,L,0.18,24,5,TRUE,TRUE,FALSE,TRUE,FALSE,FALSE
344,40.64197,-73.904874,5.5,120000,2017,1,11236,2197,281000,L,0.18,200,150,FALSE,FALSE,FALSE,FALSE,FALSE,FALSE
345,40.578754,-73.961012,2.7,406537,2017,1,11235,2200,181000,L,0.18,0,0,TRUE,TRUE,TRUE,TRUE,FALSE,FALSE
346,40.645518,-73.91139,6.9,251000,2017,1,11236,2000,371000,L,0.18,200,150,FALSE,FALSE,FALSE,FALSE,FALSE,FALSE
347,40.606242,-73.931328,3.3,436000,2017,1,11234,2200,569000,M,0.12,0,0,TRUE,TRUE,TRUE,TRUE,FALSE,FALSE
348,40.64087,-73.910617,5.7,479000,2017,1,11236,4000,736000,M,0.12,200,150,FALSE,FALSE,FALSE,FALSE,FALSE,FALSE
349,40.590447,-73.959455,3.6,627000,2017,1,11235,2700,819000,M,0.12,0,0,TRUE,TRUE,TRUE,TRUE,FALSE,FALSE
350,40.617293,-73.929372,4.3,296000,2017,1,11234,4000,544000,M,0.12,47,35,TRUE,TRUE,FALSE,TRUE,FALSE,FALSE
351,40.615735,-73.911348,2.7,449000,2017,1,11234,5000,702000,M,0.12,0,0,TRUE,TRUE,TRUE,TRUE,FALSE,FALSE
352,40.608158,-73.9089,1.3,683000,2017,1,11234,4000,975000,M,0.12,0,0,TRUE,TRUE,TRUE,TRUE,FALSE,FALSE
353,40.611243,-73.926502,3.8,476000,2017,1,11234,4000,760000,M,0.12,0,0,TRUE,TRUE,TRUE,TRUE,FALSE,FALSE
354,40.631952,-73.929999,6.3,328000,2017,1,11234,2392,474000,L,0.18,200,150,FALSE,FALSE,FALSE,FALSE,FALSE,FALSE
355,40.606374,-73.905362,0.7,995000,2017,1,11234,4200,1340000,M,0.12,0,0,TRUE,TRUE,TRUE,TRUE,FALSE,FALSE
356,40.625317,-73.925383,4.5,271000,2017,1,11234,2158,422000,L,0.18,200,150,FALSE,FALSE,FALSE,FALSE,FALSE,FALSE
357,40.605891,-73.929374,3.1,462000,2017,1,11234,2200,601000,M,0.12,0,0,TRUE,TRUE,TRUE,TRUE,FALSE,FALSE
358,40.578428,-73.943785,1.7,1285000,2017,1,11235,3744,1682000,M,0.12,0,0,TRUE,TRUE,TRUE,TRUE,FALSE,FALSE
359,40.652303,-73.912773,7.9,198000,2017,1,11236,2600,430000,L,0.18,200,150,FALSE,FALSE,FALSE,FALSE,FALSE,FALSE
360,40.617771,-73.901712,2.4,579000,2017,1,11234,6000,901000,M,0.12,0,0,TRUE,TRUE,TRUE,TRUE,FALSE,FALSE
361,40.585017,-73.937727,2.6,191000,2017,1,11235,2337,377000,L,0.18,24,4,TRUE,TRUE,FALSE,TRUE,FALSE,FALSE
362,40.58468,-73.938761,2.8,286000,2017,1,11235,1639,393000,L,0.18,7,0,TRUE,TRUE,FALSE,TRUE,FALSE,FALSE
363,40.58926,-73.955313,3.6,425000,2017,1,11235,2500,628000,M,0.12,0,0,TRUE,TRUE,TRUE,TRUE,FALSE,FALSE
364,40.631733,-73.900445,2.6,216000,2017,1,11236,2176,347000,L,0.18,16,0,TRUE,TRUE,FALSE,TRUE,FALSE,FALSE
365,40.609487,-73.903555,3.5,734000,2017,1,11234,5392,1060000,M,0.12,0,0,TRUE,TRUE,TRUE,TRUE,FALSE,FALSE
366,40.580301,-73.9596,2.7,212000,2017,1,11235,1620,400000,L,0.18,23,4,TRUE,TRUE,FALSE,TRUE,FALSE,FALSE
367,40.638761,-73.909026,4.3,245000,2017,1,11236,1800,379000,L,0.18,200,49,FALSE,TRUE,FALSE,TRUE,FALSE,FALSE
368,40.626775,-73.932348,5.8,339000,2017,1,11234,2600,511000,L,0.18,200,150,FALSE,FALSE,FALSE,FALSE,FALSE,FALSE
369,40.64075,-73.888505,2.3,284000,2017,1,11236,4000,453000,L,0.18,6,0,TRUE,TRUE,FALSE,TRUE,FALSE,FALSE
370,40.579375,-73.966523,2.3,283000,2017,1,11235,1800,440000,L,0.18,6,0,TRUE,TRUE,FALSE,TRUE,FALSE,FALSE
371,40.608918,-73.935541,4,550000,2017,1,11234,3500,772000,M,0.12,2,0,TRUE,TRUE,FALSE,TRUE,FALSE,FALSE
372,40.650965,-73.916275,8.4,139000,2017,1,11236,2192,330000,L,0.18,200,150,FALSE,FALSE,FALSE,FALSE,FALSE,FALSE
373,40.634496,-73.896681,3.6,197000,2017,1,11236,3360,377000,L,0.18,30,14,TRUE,TRUE,FALSE,TRUE,FALSE,FALSE
374,40.607503,-73.905303,2.7,891000,2017,1,11234,5125,1181000,M,0.12,0,0,TRUE,TRUE,TRUE,TRUE,FALSE,FALSE
375,40.63133,-73.921184,4.3,191000,2017,1,11234,1983,318000,L,0.18,200,53,FALSE,TRUE,FALSE,TRUE,FALSE,FALSE
376,40.640585,-73.887754,2.1,297000,2017,1,11236,4000,504000,L,0.18,5,0,TRUE,TRUE,FALSE,TRUE,FALSE,FALSE
377,40.614754,-73.910403,2.7,437000,2017,1,11234,6254,767000,M,0.12,0,0,TRUE,TRUE,TRUE,TRUE,FALSE,FALSE
378,40.649438,-73.919678,7.5,130000,2017,1,11236,2200,355000,L,0.18,200,150,FALSE,FALSE,FALSE,FALSE,FALSE,FALSE
379,40.606738,-73.902428,1.3,1136000,2017,1,11234,4800,1508000,M,0.12,0,0,TRUE,TRUE,TRUE,TRUE,FALSE,FALSE
380,40.64476,-73.898694,4.2,115000,2017,1,11236,5400,398000,L,0.18,200,150,FALSE,FALSE,FALSE,FALSE,FALSE,FALSE
381,40.639648,-73.911612,4.2,29000,2017,1,11236,2000,211000,L,0.18,200,150,FALSE,FALSE,FALSE,FALSE,FALSE,FALSE
382,40.647041,-73.90852,7,309000,2017,1,11236,3644,515000,L,0.18,200,150,FALSE,FALSE,FALSE,FALSE,FALSE,FALSE
383,40.579367,-73.963738,2.7,173000,2017,1,11235,1800,348000,L,0.18,27,6,TRUE,TRUE,FALSE,TRUE,FALSE,FALSE
384,40.631799,-73.929405,6.2,330000,2017,1,11234,2400,476000,L,0.18,200,150,FALSE,FALSE,FALSE,FALSE,FALSE,FALSE
385,40.632288,-73.933865,7.4,318000,2017,1,11234,2175,479000,L,0.18,200,150,FALSE,FALSE,FALSE,FALSE,FALSE,FALSE
386,40.583405,-73.935755,0.2,194000,2017,1,11235,932,271000,L,0.18,0,0,TRUE,TRUE,TRUE,TRUE,FALSE,FALSE
387,40.653588,-73.914145,8.2,197000,2017,1,11236,2550,427000,L,0.18,200,150,FALSE,FALSE,FALSE,FALSE,FALSE,FALSE
388,40.640634,-73.885726,1.8,361000,2017,1,11236,4000,530000,M,0.12,0,0,TRUE,TRUE,TRUE,TRUE,FALSE,FALSE
389,40.628979,-73.929679,6,360000,2017,1,11234,2200,493000,L,0.18,200,150,FALSE,FALSE,FALSE,FALSE,FALSE,FALSE
390,40.625433,-73.925396,4.5,293000,2017,1,11234,2158,423000,L,0.18,200,150,FALSE,FALSE,FALSE,FALSE,FALSE,FALSE
391,40.640259,-73.886305,1.9,390000,2017,1,11236,6000,654000,M,0.12,0,0,TRUE,TRUE,TRUE,TRUE,FALSE,FALSE
392,40.636144,-73.925533,4.5,318000,2017,1,11234,2100,444000,L,0.18,200,150,FALSE,FALSE,FALSE,FALSE,FALSE,FALSE
393,40.651196,-73.916532,8.6,116000,2017,1,11236,2200,335000,L,0.18,200,150,FALSE,FALSE,FALSE,FALSE,FALSE,FALSE
394,40.607739,-73.93006,3.5,530000,2017,1,11234,2817,744000,M,0.12,0,0,TRUE,TRUE,TRUE,TRUE,FALSE,FALSE
395,40.639828,-73.888301,2.3,310000,2017,1,11236,4150,509000,L,0.18,6,0,TRUE,TRUE,FALSE,TRUE,FALSE,FALSE
396,40.577373,-73.953071,2.5,334000,2017,1,11235,1088,507000,L,0.18,5,0,TRUE,TRUE,FALSE,TRUE,FALSE,FALSE
397,40.584492,-73.93758,1.8,171000,2017,1,11235,3616,408000,L,0.18,8,0,TRUE,TRUE,FALSE,TRUE,FALSE,FALSE
398,40.630314,-73.908866,1.5,243000,2017,1,11236,3000,411000,L,0.18,0,0,TRUE,TRUE,TRUE,TRUE,FALSE,FALSE
399,40.621099,-73.906248,2.7,408000,2017,1,11234,2800,573000,M,0.12,0,0,TRUE,TRUE,TRUE,TRUE,FALSE,FALSE
400,40.612593,-73.909488,2.4,465000,2017,1,11234,4975,810000,M,0.12,0,0,TRUE,TRUE,TRUE,TRUE,FALSE,FALSE
401,40.628436,-73.929986,5.9,361000,2017,1,11234,2200,514000,L,0.18,200,150,FALSE,FALSE,FALSE,FALSE,FALSE,FALSE
402,40.651731,-73.916377,8.6,107000,2017,1,11236,2200,322000,L,0.18,200,150,FALSE,FALSE,FALSE,FALSE,FALSE,FALSE
403,40.57954,-73.939663,1.5,767000,2017,1,11235,3075,1048000,M,0.12,0,0,TRUE,TRUE,TRUE,TRUE,FALSE,FALSE
404,40.607751,-73.929233,3.3,391000,2017,1,11234,2267,549000,M,0.12,0,0,TRUE,TRUE,TRUE,TRUE,FALSE,FALSE
405,40.614101,-73.910755,2.6,398000,2017,1,11234,5000,727000,M,0.12,0,0,TRUE,TRUE,TRUE,TRUE,FALSE,FALSE
406,40.585234,-73.937117,2.4,149000,2017,1,11235,1375,271000,L,0.18,22,0,TRUE,TRUE,FALSE,TRUE,FALSE,FALSE
407,40.576957,-73.96681,2.7,291000,2017,1,11235,1800,424000,L,0.18,8,0,TRUE,TRUE,FALSE,TRUE,FALSE,FALSE
408,40.606928,-73.910332,0.4,746000,2017,1,11234,4000,1025000,M,0.12,0,0,TRUE,TRUE,TRUE,TRUE,FALSE,FALSE
409,40.606563,-73.911456,0.9,628000,2017,1,11234,4000,981000,M,0.12,0,0,TRUE,TRUE,TRUE,TRUE,FALSE,FALSE
410,40.586907,-73.940492,3.6,369000,2017,1,11235,2200,514000,L,0.18,12,0,TRUE,TRUE,FALSE,TRUE,FALSE,FALSE
411,40.609278,-73.90709,3.8,610000,2017,1,11234,4200,877000,M,0.12,0,0,TRUE,TRUE,TRUE,TRUE,FALSE,FALSE
412,40.607834,-73.907088,2,653000,2017,1,11234,3500,921000,M,0.12,0,0,TRUE,TRUE,TRUE,TRUE,FALSE,FALSE
413,40.648272,-73.919607,6.8,164000,2017,1,11236,2192,380000,L,0.18,200,150,FALSE,FALSE,FALSE,FALSE,FALSE,FALSE
414,40.608799,-73.908375,2.3,675000,2017,1,11234,4000,975000,M,0.12,0,0,TRUE,TRUE,TRUE,TRUE,FALSE,FALSE
415,40.638143,-73.888969,2.4,332000,2017,1,11236,4167,526000,M,0.12,0,0,TRUE,TRUE,TRUE,TRUE,FALSE,FALSE
416,40.650976,-73.915533,8.1,105000,2017,1,11236,2192,317000,L,0.18,200,150,FALSE,FALSE,FALSE,FALSE,FALSE,FALSE
417,40.591464,-73.943972,3.4,542000,2017,1,11235,2200,703000,M,0.12,0,0,TRUE,TRUE,TRUE,TRUE,FALSE,FALSE
418,40.579155,-73.940087,1.6,571000,2017,1,11235,2200,802000,M,0.12,0,0,TRUE,TRUE,TRUE,TRUE,FALSE,FALSE
419,40.605351,-73.911217,0.7,515000,2017,1,11234,4000,809000,M,0.12,0,0,TRUE,TRUE,TRUE,TRUE,FALSE,FALSE
420,40.630963,-73.930836,6.6,407000,2017,1,11234,2950,602000,M,0.12,200,150,FALSE,FALSE,FALSE,FALSE,FALSE,FALSE
421,40.641678,-73.910287,5.8,211000,2017,1,11236,2504,364000,L,0.18,200,150,FALSE,FALSE,FALSE,FALSE,FALSE,FALSE
422,40.628798,-73.92966,6,360000,2017,1,11234,2200,493000,L,0.18,200,150,FALSE,FALSE,FALSE,FALSE,FALSE,FALSE
423,40.580306,-73.939113,0.8,579000,2017,1,11235,2500,835000,M,0.12,0,0,TRUE,TRUE,TRUE,TRUE,FALSE,FALSE
424,40.635252,-73.893613,2.7,437000,2017,1,11236,4327,697000,M,0.12,0,0,TRUE,TRUE,TRUE,TRUE,FALSE,FALSE
425,40.605866,-73.911978,0.9,855000,2017,1,11234,4067,1154000,M,0.12,0,0,TRUE,TRUE,TRUE,TRUE,FALSE,FALSE
426,40.635068,-73.904159,2.6,167000,2017,1,11236,2093,321000,L,0.18,25,4,TRUE,TRUE,FALSE,TRUE,FALSE,FALSE
427,40.651022,-73.915584,8.2,105000,2017,1,11236,2192,317000,L,0.18,200,150,FALSE,FALSE,FALSE,FALSE,FALSE,FALSE
428,40.579867,-73.963545,2.7,299000,2017,1,11235,1800,499000,L,0.18,13,0,TRUE,TRUE,FALSE,TRUE,FALSE,FALSE
429,40.639684,-73.911556,4.6,64000,2017,1,11236,2000,239000,L,0.18,200,150,FALSE,FALSE,FALSE,FALSE,FALSE,FALSE
430,40.609741,-73.902909,1.3,684000,2017,1,11234,7440,1167000,M,0.12,0,0,TRUE,TRUE,TRUE,TRUE,FALSE,FALSE
431,40.608238,-73.934784,3.8,495000,2017,1,11234,2200,651000,M,0.12,0,0,TRUE,TRUE,TRUE,TRUE,FALSE,FALSE
432,40.609945,-73.906715,4,721000,2017,1,11234,5457,1014000,M,0.12,0,0,TRUE,TRUE,TRUE,TRUE,FALSE,FALSE
433,40.579402,-73.96418,2.8,234000,2017,1,11235,1620,392000,L,0.18,18,1,TRUE,TRUE,FALSE,TRUE,FALSE,FALSE
434,40.628758,-73.93002,6,397000,2017,1,11234,2725,565000,M,0.12,200,150,FALSE,FALSE,FALSE,FALSE,FALSE,FALSE
435,40.624815,-73.926271,4.6,326000,2017,1,11234,2183,458000,L,0.18,200,150,FALSE,FALSE,FALSE,FALSE,FALSE,FALSE
436,40.61186,-73.90641,2.4,567000,2017,1,11234,5117,832000,M,0.12,0,0,TRUE,TRUE,TRUE,TRUE,FALSE,FALSE
437,40.618354,-73.904254,2.9,678000,2017,1,11234,6000,975000,M,0.12,0,0,TRUE,TRUE,TRUE,TRUE,FALSE,FALSE
438,40.649097,-73.919778,7.4,129000,2017,1,11236,2217,353000,L,0.18,200,150,FALSE,FALSE,FALSE,FALSE,FALSE,FALSE
439,40.639662,-73.909274,4.8,283000,2017,1,11236,4000,494000,L,0.18,200,150,FALSE,FALSE,FALSE,FALSE,FALSE,FALSE
440,40.635792,-73.901092,3.9,181000,2017,1,11236,2667,345000,L,0.18,38,26,TRUE,TRUE,FALSE,TRUE,FALSE,FALSE
441,40.607123,-73.907329,0.9,628000,2017,1,11234,3817,957000,M,0.12,0,0,TRUE,TRUE,TRUE,TRUE,FALSE,FALSE
442,40.61584,-73.911465,2.7,446000,2017,1,11234,5000,709000,M,0.12,0,0,TRUE,TRUE,TRUE,TRUE,FALSE,FALSE
443,40.607862,-73.906666,2.5,653000,2017,1,11234,3500,921000,M,0.12,0,0,TRUE,TRUE,TRUE,TRUE,FALSE,FALSE
444,40.607389,-73.909716,0.5,547000,2017,1,11234,4000,813000,M,0.12,0,0,TRUE,TRUE,TRUE,TRUE,FALSE,FALSE
445,40.606548,-73.903498,1.1,1035000,2017,1,11234,4800,1388000,M,0.12,0,0,TRUE,TRUE,TRUE,TRUE,FALSE,FALSE
446,40.584241,-73.938383,1.7,203000,2017,1,11235,1200,307000,L,0.18,0,0,TRUE,TRUE,TRUE,TRUE,FALSE,FALSE
447,40.579708,-73.952589,1.8,796000,2017,1,11235,4000,1258000,M,0.12,0,0,TRUE,TRUE,TRUE,TRUE,FALSE,FALSE
448,40.605281,-73.911326,0.7,516000,2017,1,11234,4000,809000,M,0.12,0,0,TRUE,TRUE,TRUE,TRUE,FALSE,FALSE
449,40.580614,-73.949556,0.5,963000,2017,1,11235,3000,1304000,M,0.12,0,0,TRUE,TRUE,TRUE,TRUE,FALSE,FALSE
450,40.583339,-73.935754,0.2,192000,2017,1,11235,890,267000,L,0.18,0,0,TRUE,TRUE,TRUE,TRUE,FALSE,FALSE
451,40.60987,-73.909774,2.1,636000,2017,1,11234,4092,943000,M,0.12,0,0,TRUE,TRUE,TRUE,TRUE,FALSE,FALSE
452,40.614911,-73.908112,2.5,539000,2017,1,11234,10100,1007000,M,0.12,0,0,TRUE,TRUE,TRUE,TRUE,FALSE,FALSE
453,40.638457,-73.888559,2.3,303000,2017,1,11236,4167,480000,L,0.18,5,0,TRUE,TRUE,FALSE,TRUE,FALSE,FALSE
454,40.635889,-73.925504,4.6,266000,2017,1,11234,2133,447000,L,0.18,200,150,FALSE,FALSE,FALSE,FALSE,FALSE,FALSE
455,40.651758,-73.915934,8.5,124000,2017,1,11236,2200,344000,L,0.18,200,150,FALSE,FALSE,FALSE,FALSE,FALSE,FALSE
456,40.588385,-73.963376,3.2,543000,2017,1,11235,2000,710000,M,0.12,0,0,TRUE,TRUE,TRUE,TRUE,FALSE,FALSE
457,40.638406,-73.889263,2.4,323000,2017,1,11236,4167,515000,L,0.18,6,0,TRUE,TRUE,FALSE,TRUE,FALSE,FALSE
458,40.592583,-73.953456,6.7,504000,2017,1,11235,2200,682000,M,0.12,200,150,FALSE,FALSE,FALSE,FALSE,FALSE,FALSE
459,40.606289,-73.93138,3.3,436000,2017,1,11234,2200,569000,M,0.12,0,0,TRUE,TRUE,TRUE,TRUE,FALSE,FALSE
460,40.610672,-73.907471,2.9,723000,2017,1,11234,5450,1040000,M,0.12,0,0,TRUE,TRUE,TRUE,TRUE,FALSE,FALSE
461,40.609099,-73.935261,4,441000,2017,1,11234,3500,663000,M,0.12,6,0,TRUE,TRUE,FALSE,TRUE,FALSE,FALSE
462,40.60472,-73.913752,0.2,854000,2017,1,11234,4067,1154000,M,0.12,0,0,TRUE,TRUE,TRUE,TRUE,FALSE,FALSE
463,40.604669,-73.911391,0.4,503000,2017,1,11234,4000,897000,M,0.12,0,0,TRUE,TRUE,TRUE,TRUE,FALSE,FALSE
464,40.626435,-73.926439,5,386000,2017,1,11234,2900,566000,M,0.12,200,150,FALSE,FALSE,FALSE,FALSE,FALSE,FALSE
465,40.620028,-73.903551,2.9,731000,2017,1,11234,5500,1084000,M,0.12,0,0,TRUE,TRUE,TRUE,TRUE,FALSE,FALSE
466,40.630916,-73.931197,6.7,209000,2017,1,11234,3000,372000,L,0.18,200,150,FALSE,FALSE,FALSE,FALSE,FALSE,FALSE
467,40.63886,-73.884129,2.3,342000,2017,1,11236,4000,511000,L,0.18,3,0,TRUE,TRUE,FALSE,TRUE,FALSE,FALSE
468,40.635766,-73.901987,3.7,190000,2017,1,11236,2900,363000,L,0.18,32,17,TRUE,TRUE,FALSE,TRUE,FALSE,FALSE
469,40.639074,-73.898116,4.7,183000,2017,1,11236,2373,326000,L,0.18,200,150,FALSE,FALSE,FALSE,FALSE,FALSE,FALSE
470,40.581599,-73.957818,3,382000,2017,1,11235,2400,593000,M,0.12,0,0,TRUE,TRUE,TRUE,TRUE,FALSE,FALSE
471,40.579546,-73.939075,1.9,634000,2017,1,11235,2500,863000,M,0.12,0,0,TRUE,TRUE,TRUE,TRUE,FALSE,FALSE
472,40.605933,-73.929309,3.1,428000,2017,1,11234,2200,566000,M,0.12,0,0,TRUE,TRUE,TRUE,TRUE,FALSE,FALSE
473,40.607332,-73.908452,0.6,650000,2017,1,11234,3817,978000,M,0.12,0,0,TRUE,TRUE,TRUE,TRUE,FALSE,FALSE
474,40.585245,-73.938057,3.8,243000,2017,1,11235,1320,342000,L,0.18,25,5,TRUE,TRUE,FALSE,TRUE,FALSE,FALSE
475,40.586132,-73.958725,3.1,255000,2017,1,11235,2000,422000,L,0.18,18,1,TRUE,TRUE,FALSE,TRUE,FALSE,FALSE
476,40.632127,-73.92944,6.2,306000,2017,1,11234,2400,475000,L,0.18,200,150,FALSE,FALSE,FALSE,FALSE,FALSE,FALSE
477,40.58171,-73.958582,2.9,318000,2017,1,11235,1600,464000,L,0.18,7,0,TRUE,TRUE,FALSE,TRUE,FALSE,FALSE
478,40.583367,-73.958785,3.3,101000,2017,1,11235,1400,273000,L,0.18,42,27,TRUE,TRUE,FALSE,TRUE,FALSE,FALSE
479,40.612808,-73.909992,2.4,467000,2017,1,11234,5000,811000,M,0.12,0,0,TRUE,TRUE,TRUE,TRUE,FALSE,FALSE
480,40.611232,-73.907753,2.5,652000,2017,1,11234,5000,920000,M,0.12,0,0,TRUE,TRUE,TRUE,TRUE,FALSE,FALSE
481,40.605067,-73.911658,0.6,565000,2017,1,11234,4000,868000,M,0.12,0,0,TRUE,TRUE,TRUE,TRUE,FALSE,FALSE
482,40.615564,-73.909933,2.9,623000,2017,1,11234,4700,884000,M,0.12,0,0,TRUE,TRUE,TRUE,TRUE,FALSE,FALSE
483,40.580871,-73.946688,0.2,934000,2017,1,11235,3120,1380000,M,0.12,0,0,TRUE,TRUE,TRUE,TRUE,FALSE,FALSE
484,40.591726,-73.952255,5.8,574000,2017,1,11235,3100,811000,M,0.12,200,150,FALSE,FALSE,FALSE,FALSE,FALSE,FALSE
485,40.619768,-73.902522,2.8,743000,2017,1,11234,6000,1101000,M,0.12,0,0,TRUE,TRUE,TRUE,TRUE,FALSE,FALSE
486,40.63668,-73.90208,4.2,192000,2017,1,11236,3011,380000,L,0.18,200,47,FALSE,TRUE,FALSE,TRUE,FALSE,FALSE
487,40.631652,-73.927363,6,166000,2017,1,11234,2500,319000,L,0.18,200,150,FALSE,FALSE,FALSE,FALSE,FALSE,FALSE
488,40.63421,-73.927636,5,243000,2017,1,11234,2150,373000,L,0.18,200,150,FALSE,FALSE,FALSE,FALSE,FALSE,FALSE
489,40.61263,-73.908524,2.4,463000,2017,1,11234,5100,788000,M,0.12,0,0,TRUE,TRUE,TRUE,TRUE,FALSE,FALSE
490,40.635253,-73.908133,3.3,225000,2017,1,11236,4233,433000,L,0.18,26,8,TRUE,TRUE,FALSE,TRUE,FALSE,FALSE
491,40.646817,-73.909174,7,277000,2017,1,11236,4000,534000,M,0.12,200,150,FALSE,FALSE,FALSE,FALSE,FALSE,FALSE
492,40.607578,-73.90748,1.3,833000,2017,1,11234,4600,1156000,M,0.12,0,0,TRUE,TRUE,TRUE,TRUE,FALSE,FALSE
493,40.63193,-73.927393,6,154000,2017,1,11234,2500,288000,L,0.18,200,150,FALSE,FALSE,FALSE,FALSE,FALSE,FALSE
494,40.643145,-73.907909,6.2,175000,2017,1,11236,4860,496000,L,0.18,200,150,FALSE,FALSE,FALSE,FALSE,FALSE,FALSE
495,40.583663,-73.936387,0.5,194000,2017,1,11235,966,287000,L,0.18,0,0,TRUE,TRUE,TRUE,TRUE,FALSE,FALSE
496,40.58625,-73.9586,3.3,223000,2017,1,11235,1500,354000,L,0.18,21,2,TRUE,TRUE,FALSE,TRUE,FALSE,FALSE
497,40.639615,-73.894573,3.7,180000,2017,1,11236,2470,332000,L,0.18,32,16,TRUE,TRUE,FALSE,TRUE,FALSE,FALSE
498,40.638372,-73.898574,4.7,196000,2017,1,11236,2933,378000,L,0.18,200,150,FALSE,FALSE,FALSE,FALSE,FALSE,FALSE
499,40.634672,-73.895683,2.7,289000,2017,1,11236,3600,439000,L,0.18,9,0,TRUE,TRUE,FALSE,TRUE,FALSE,FALSE
500,40.619115,-73.902638,2.9,595000,2017,1,11234,6000,929000,M,0.12,0,0,TRUE,TRUE,TRUE,TRUE,FALSE,FALSE
501,40.648546,-73.919914,7,164000,2017,1,11236,2192,380000,L,0.18,200,150,FALSE,FALSE,FALSE,FALSE,FALSE,FALSE
502,40.639317,-73.91342,4.3,155000,2017,1,11236,2500,342000,L,0.18,200,150,FALSE,FALSE,FALSE,FALSE,FALSE,FALSE
503,40.604366,-73.912744,0.2,547000,2017,1,11234,4000,888000,M,0.12,0,0,TRUE,TRUE,TRUE,TRUE,FALSE,FALSE
504,40.637372,-73.889291,2.6,161000,2017,1,11236,1424,246000,L,0.18,20,0,TRUE,TRUE,FALSE,TRUE,FALSE,FALSE
505,40.631742,-73.930338,6.4,332000,2017,1,11234,2775,504000,L,0.18,200,150,FALSE,FALSE,FALSE,FALSE,FALSE,FALSE
506,40.613348,-73.91114,2.6,635000,2017,1,11234,4900,949000,M,0.12,0,0,TRUE,TRUE,TRUE,TRUE,FALSE,FALSE
507,40.618083,-73.900173,2.7,476000,2017,1,11234,4000,661000,M,0.12,0,0,TRUE,TRUE,TRUE,TRUE,FALSE,FALSE
508,40.603769,-73.910586,0.1,645000,2017,1,11234,6000,1166000,M,0.12,0,0,TRUE,TRUE,TRUE,TRUE,FALSE,FALSE
509,40.638228,-73.906448,4.3,303000,2017,1,11236,2350,446000,L,0.18,200,46,FALSE,TRUE,FALSE,TRUE,FALSE,FALSE
510,40.611532,-73.907746,2.4,650000,2017,1,11234,6000,1003000,M,0.12,0,0,TRUE,TRUE,TRUE,TRUE,FALSE,FALSE
511,40.651527,-73.91615,8.5,108000,2017,1,11236,2225,324000,L,0.18,200,150,FALSE,FALSE,FALSE,FALSE,FALSE,FALSE
512,40.617378,-73.914974,2.9,384000,2017,1,11234,1933,503000,L,0.18,2,0,TRUE,TRUE,FALSE,TRUE,FALSE,FALSE
513,40.58098,-73.966759,2.4,207000,2017,1,11235,997,315000,L,0.18,11,0,TRUE,TRUE,FALSE,TRUE,FALSE,FALSE
514,40.640117,-73.88848,2.3,328000,2017,1,11236,4000,535000,M,0.12,0,0,TRUE,TRUE,TRUE,TRUE,FALSE,FALSE
515,40.608716,-73.935316,3.9,489000,2017,1,11234,2300,659000,M,0.12,0,0,TRUE,TRUE,TRUE,TRUE,FALSE,FALSE
516,40.58356,-73.936366,0.4,197000,2017,1,11235,836,266000,L,0.18,0,0,TRUE,TRUE,TRUE,TRUE,FALSE,FALSE
517,40.619675,-73.924142,4.8,252000,2017,1,11234,3333,481000,L,0.18,200,150,FALSE,FALSE,FALSE,FALSE,FALSE,FALSE
518,40.638698,-73.890064,2.6,309000,2017,1,11236,4150,494000,L,0.18,9,0,TRUE,TRUE,FALSE,TRUE,FALSE,FALSE
519,40.591976,-73.952339,6,563000,2017,1,11235,2200,756000,M,0.12,200,150,FALSE,FALSE,FALSE,FALSE,FALSE,FALSE
520,40.640705,-73.885616,1.8,394000,2017,1,11236,4000,563000,M,0.12,0,0,TRUE,TRUE,TRUE,TRUE,FALSE,FALSE
521,40.635361,-73.895213,4.1,162000,2017,1,11236,5600,424000,L,0.18,200,49,FALSE,TRUE,FALSE,TRUE,FALSE,FALSE
522,40.615733,-73.91012,2.9,606000,2017,1,11234,3775,831000,M,0.12,0,0,TRUE,TRUE,TRUE,TRUE,FALSE,FALSE
523,40.651407,-73.915541,8.2,117000,2017,1,11236,2175,340000,L,0.18,200,150,FALSE,FALSE,FALSE,FALSE,FALSE,FALSE
524,40.620094,-73.906658,2.7,457000,2017,1,11234,5000,751000,M,0.12,0,0,TRUE,TRUE,TRUE,TRUE,FALSE,FALSE
525,40.639772,-73.895835,4.1,191000,2017,1,11236,3120,383000,L,0.18,56,39,TRUE,TRUE,FALSE,TRUE,FALSE,FALSE
526,40.637878,-73.888673,2.4,293000,2017,1,11236,4167,495000,L,0.18,10,0,TRUE,TRUE,FALSE,TRUE,FALSE,FALSE
527,40.606084,-73.904325,0.7,1023000,2017,1,11234,4000,1514000,M,0.12,0,0,TRUE,TRUE,TRUE,TRUE,FALSE,FALSE
528,40.623643,-73.920874,4.3,298000,2017,1,11234,1850,408000,L,0.18,60,44,TRUE,TRUE,FALSE,TRUE,FALSE,FALSE
529,40.639224,-73.897258,4.5,200000,2017,1,11236,2800,373000,L,0.18,200,150,FALSE,FALSE,FALSE,FALSE,FALSE,FALSE
530,40.605288,-73.912872,0.7,900000,2017,1,11234,4067,1154000,M,0.12,0,0,TRUE,TRUE,TRUE,TRUE,FALSE,FALSE
531,40.638487,-73.891011,2.7,276000,2017,1,11236,4000,445000,L,0.18,13,0,TRUE,TRUE,FALSE,TRUE,FALSE,FALSE
532,40.625498,-73.922875,4.4,258000,2017,1,11234,4000,482000,L,0.18,200,150,FALSE,FALSE,FALSE,FALSE,FALSE,FALSE
533,40.6125,-73.908479,2.4,463000,2017,1,11234,5100,788000,M,0.12,0,0,TRUE,TRUE,TRUE,TRUE,FALSE,FALSE
534,40.613578,-73.910173,2.4,843000,2017,1,11234,5175,1179000,M,0.12,0,0,TRUE,TRUE,TRUE,TRUE,FALSE,FALSE
535,40.580437,-73.961643,2.7,203000,2017,1,11235,1800,443000,L,0.18,27,9,TRUE,TRUE,FALSE,TRUE,FALSE,FALSE
536,40.604934,-73.91342,0.4,854000,2017,1,11234,4067,1154000,M,0.12,0,0,TRUE,TRUE,TRUE,TRUE,FALSE,FALSE
537,40.591916,-73.952327,6,527000,2017,1,11235,2200,726000,M,0.12,200,150,FALSE,FALSE,FALSE,FALSE,FALSE,FALSE
538,40.636475,-73.892118,3.6,237000,2017,1,11236,2000,357000,L,0.18,23,3,TRUE,TRUE,FALSE,TRUE,FALSE,FALSE
539,40.651481,-73.916098,8.5,105000,2017,1,11236,2192,317000,L,0.18,200,150,FALSE,FALSE,FALSE,FALSE,FALSE,FALSE
540,40.579659,-73.965272,2.5,201000,2017,1,11235,1600,350000,L,0.18,18,0,TRUE,TRUE,FALSE,TRUE,FALSE,FALSE
541,40.607415,-73.931358,3.6,446000,2017,1,11234,2300,594000,M,0.12,0,0,TRUE,TRUE,TRUE,TRUE,FALSE,FALSE
542,40.584564,-73.938397,2.3,228000,2017,1,11235,1200,311000,L,0.18,5,0,TRUE,TRUE,FALSE,TRUE,FALSE,FALSE
543,40.583421,-73.958287,3.2,168000,2017,1,11235,1400,357000,L,0.18,30,13,TRUE,TRUE,FALSE,TRUE,FALSE,FALSE
544,40.586959,-73.958188,3,218000,2017,1,11235,2400,421000,L,0.18,25,6,TRUE,TRUE,FALSE,TRUE,FALSE,FALSE
545,40.639837,-73.908235,4.7,407000,2017,1,11236,2000,563000,M,0.12,200,150,FALSE,FALSE,FALSE,FALSE,FALSE,FALSE
546,40.586078,-73.959219,3.1,294000,2017,1,11235,2000,441000,L,0.18,11,0,TRUE,TRUE,FALSE,TRUE,FALSE,FALSE
547,40.58976,-73.945464,3.1,546000,2017,1,11235,2175,726000,M,0.12,0,0,TRUE,TRUE,TRUE,TRUE,FALSE,FALSE
548,40.585312,-73.937789,3.4,318000,2017,1,11235,1238,402000,L,0.18,7,0,TRUE,TRUE,FALSE,TRUE,FALSE,FALSE
549,40.607285,-73.909103,0.3,909000,2017,1,11234,5026,1233000,M,0.12,0,0,TRUE,TRUE,TRUE,TRUE,FALSE,FALSE
550,40.650872,-73.916171,8.3,109000,2017,1,11236,2192,330000,L,0.18,200,150,FALSE,FALSE,FALSE,FALSE,FALSE,FALSE
551,40.633487,-73.89361,2.7,214000,2017,1,11236,2000,340000,L,0.18,17,0,TRUE,TRUE,FALSE,TRUE,FALSE,FALSE
552,40.604249,-73.911481,0.3,570000,2017,1,11234,4000,943000,M,0.12,0,0,TRUE,TRUE,TRUE,TRUE,FALSE,FALSE
553,40.614831,-73.923475,3,248000,2017,1,11234,1983,375000,L,0.18,15,0,TRUE,TRUE,FALSE,TRUE,FALSE,FALSE
554,40.607851,-73.908497,1,854000,2017,1,11234,6450,1262000,M,0.12,0,0,TRUE,TRUE,TRUE,TRUE,FALSE,FALSE
555,40.639022,-73.910553,4.5,253000,2017,1,11236,3000,440000,L,0.18,200,150,FALSE,FALSE,FALSE,FALSE,FALSE,FALSE
556,40.585104,-73.937093,2.3,71000,2017,1,11235,1320,190000,L,0.18,31,5,TRUE,TRUE,FALSE,TRUE,FALSE,FALSE
557,40.617494,-73.899517,2.4,513000,2017,1,11234,4000,751000,M,0.12,0,0,TRUE,TRUE,TRUE,TRUE,FALSE,FALSE
558,40.644235,-73.902836,6.1,152000,2017,1,11236,1967,270000,L,0.18,200,150,FALSE,FALSE,FALSE,FALSE,FALSE,FALSE
559,40.604922,-73.912449,0.5,576000,2017,1,11234,4042,906000,M,0.12,0,0,TRUE,TRUE,TRUE,TRUE,FALSE,FALSE
560,40.634482,-73.890434,2.9,179000,2017,1,11236,3120,336000,L,0.18,26,5,TRUE,TRUE,FALSE,TRUE,FALSE,FALSE
561,40.606344,-73.903032,1,996000,2017,1,11234,4592,1508000,M,0.12,0,0,TRUE,TRUE,TRUE,TRUE,FALSE,FALSE
562,40.607762,-73.910546,0.9,475000,2017,1,11234,4000,920000,M,0.12,0,0,TRUE,TRUE,TRUE,TRUE,FALSE,FALSE
563,40.591615,-73.951903,5.4,718000,2017,1,11235,3900,968000,M,0.12,200,150,FALSE,FALSE,FALSE,FALSE,FALSE,FALSE
564,40.583653,-73.93576,0.5,193000,2017,1,11235,988,275000,L,0.18,0,0,TRUE,TRUE,TRUE,TRUE,FALSE,FALSE
565,40.604391,-73.911261,0.3,573000,2017,1,11234,4000,943000,M,0.12,0,0,TRUE,TRUE,TRUE,TRUE,FALSE,FALSE
566,40.58668,-73.959459,3.4,253000,2017,1,11235,1099,335000,L,0.18,14,0,TRUE,TRUE,FALSE,TRUE,FALSE,FALSE
567,40.616448,-73.910913,2.7,541000,2017,1,11234,3775,767000,M,0.12,0,0,TRUE,TRUE,TRUE,TRUE,FALSE,FALSE
568,40.586098,-73.928706,1.6,156000,2017,1,11235,1960,305000,L,0.18,0,0,TRUE,TRUE,TRUE,TRUE,FALSE,FALSE
569,40.607118,-73.907182,0.9,679000,2017,1,11234,3817,988000,M,0.12,0,0,TRUE,TRUE,TRUE,TRUE,FALSE,FALSE
570,40.626485,-73.925875,4.9,328000,2017,1,11234,2567,500000,L,0.18,200,150,FALSE,FALSE,FALSE,FALSE,FALSE,FALSE
571,40.615025,-73.90163,1.8,564000,2017,1,11234,4000,821000,M,0.12,0,0,TRUE,TRUE,TRUE,TRUE,FALSE,FALSE
572,40.632017,-73.930006,6.3,348000,2017,1,11234,2400,497000,L,0.18,200,150,FALSE,FALSE,FALSE,FALSE,FALSE,FALSE
573,40.578775,-73.951487,1.6,969000,2017,1,11235,4000,1415000,M,0.12,0,0,TRUE,TRUE,TRUE,TRUE,FALSE,FALSE
574,40.616933,-73.901924,2.2,328000,2017,1,11234,3000,570000,M,0.12,0,0,TRUE,TRUE,TRUE,TRUE,FALSE,FALSE
575,40.646728,-73.909694,7.1,628000,2017,1,11236,4391,927000,M,0.12,200,150,FALSE,FALSE,FALSE,FALSE,FALSE,FALSE
576,40.613767,-73.90812,2.6,648000,2017,1,11234,6408,982000,M,0.12,0,0,TRUE,TRUE,TRUE,TRUE,FALSE,FALSE
577,40.631215,-73.895522,2.9,259000,2017,1,11236,4000,516000,L,0.18,23,6,TRUE,TRUE,FALSE,TRUE,FALSE,FALSE
578,40.603978,-73.909728,0.1,870000,2017,1,11234,6000,1236000,M,0.12,0,0,TRUE,TRUE,TRUE,TRUE,FALSE,FALSE
579,40.609313,-73.904505,4.7,646000,2017,1,11234,5575,986000,M,0.12,200,150,FALSE,FALSE,FALSE,FALSE,FALSE,FALSE
580,40.615736,-73.900112,2,478000,2017,1,11234,4000,741000,M,0.12,0,0,TRUE,TRUE,TRUE,TRUE,FALSE,FALSE
581,40.590694,-73.966163,3.2,649000,2017,1,11235,4000,906000,M,0.12,0,0,TRUE,TRUE,TRUE,TRUE,FALSE,FALSE
582,40.613557,-73.911372,2.7,642000,2017,1,11234,4900,949000,M,0.12,0,0,TRUE,TRUE,TRUE,TRUE,FALSE,FALSE
583,40.592106,-73.953248,6.6,528000,2017,1,11235,2200,728000,M,0.12,200,150,FALSE,FALSE,FALSE,FALSE,FALSE,FALSE
584,40.63035,-73.925408,5.2,256000,2017,1,11234,3450,599000,M,0.12,200,150,FALSE,FALSE,FALSE,FALSE,FALSE,FALSE
585,40.606465,-73.905099,0.9,998000,2017,1,11234,4200,1340000,M,0.12,0,0,TRUE,TRUE,TRUE,TRUE,FALSE,FALSE
586,40.647996,-73.919444,6.6,260000,2017,1,11236,2200,496000,L,0.18,200,150,FALSE,FALSE,FALSE,FALSE,FALSE,FALSE
587,40.613234,-73.910301,2.4,376000,2017,1,11234,4700,761000,M,0.12,0,0,TRUE,TRUE,TRUE,TRUE,FALSE,FALSE
588,40.618276,-73.905277,2.6,326000,2017,1,11234,5000,603000,M,0.12,0,0,TRUE,TRUE,TRUE,TRUE,FALSE,FALSE
589,40.609508,-73.909359,2.2,638000,2017,1,11234,3975,945000,M,0.12,0,0,TRUE,TRUE,TRUE,TRUE,FALSE,FALSE
590,40.63607,-73.901401,4,166000,2017,1,11236,2667,330000,L,0.18,48,32,TRUE,TRUE,FALSE,TRUE,FALSE,FALSE
591,40.609381,-73.925657,3,301000,2017,1,11234,2000,421000,L,0.18,7,0,TRUE,TRUE,FALSE,TRUE,FALSE,FALSE
592,40.614219,-73.912587,2.9,400000,2017,1,11234,5000,698000,M,0.12,0,0,TRUE,TRUE,TRUE,TRUE,FALSE,FALSE
593,40.591297,-73.957551,3.1,304000,2017,1,11235,1842,447000,L,0.18,9,0,TRUE,TRUE,FALSE,TRUE,FALSE,FALSE
594,40.606817,-73.904358,1.6,852000,2017,1,11234,4200,1138000,M,0.12,0,0,TRUE,TRUE,TRUE,TRUE,FALSE,FALSE
595,40.606852,-73.906801,0.7,1010000,2017,1,11234,4433,1313000,M,0.12,0,0,TRUE,TRUE,TRUE,TRUE,FALSE,FALSE
596,40.591838,-73.960201,3.2,415000,2017,1,11235,3100,629000,M,0.12,0,0,TRUE,TRUE,TRUE,TRUE,FALSE,FALSE
597,40.576848,-73.950645,1.3,943000,2017,1,11235,3618,1368000,M,0.12,0,0,TRUE,TRUE,TRUE,TRUE,FALSE,FALSE
598,40.620243,-73.903048,2.8,547000,2017,1,11234,4000,838000,M,0.12,0,0,TRUE,TRUE,TRUE,TRUE,FALSE,FALSE
599,40.609086,-73.90818,2.7,674000,2017,1,11234,4000,975000,M,0.12,0,0,TRUE,TRUE,TRUE,TRUE,FALSE,FALSE
600,40.639958,-73.907172,4.8,212000,2017,1,11236,2610,440000,L,0.18,200,150,FALSE,FALSE,FALSE,FALSE,FALSE,FALSE
601,40.604634,-73.912894,0.3,554000,2017,1,11234,4042,891000,M,0.12,0,0,TRUE,TRUE,TRUE,TRUE,FALSE,FALSE
602,40.584731,-73.93854,2.9,213000,2017,1,11235,1200,296000,L,0.18,15,0,TRUE,TRUE,FALSE,TRUE,FALSE,FALSE
603,40.640777,-73.885506,1.8,310000,2017,1,11236,4000,495000,L,0.18,0,0,TRUE,TRUE,TRUE,TRUE,FALSE,FALSE
604,40.584729,-73.939039,3,294000,2017,1,11235,2120,429000,L,0.18,9,0,TRUE,TRUE,FALSE,TRUE,FALSE,FALSE
605,40.585398,-73.962444,3.1,564000,2017,1,11235,2200,761000,M,0.12,0,0,TRUE,TRUE,TRUE,TRUE,FALSE,FALSE
606,40.64035,-73.886165,1.9,361000,2017,1,11236,4000,530000,M,0.12,0,0,TRUE,TRUE,TRUE,TRUE,FALSE,FALSE
607,40.631439,-73.921196,4.3,190000,2017,1,11234,1983,318000,L,0.18,200,54,FALSE,TRUE,FALSE,TRUE,FALSE,FALSE
608,40.604603,-73.910933,0.4,580000,2017,1,11234,4000,943000,M,0.12,0,0,TRUE,TRUE,TRUE,TRUE,FALSE,FALSE
609,40.60743,-73.908711,0.5,629000,2017,1,11234,3817,957000,M,0.12,0,0,TRUE,TRUE,TRUE,TRUE,FALSE,FALSE
610,40.647502,-73.919209,6.4,244000,2017,1,11236,2700,478000,L,0.18,200,150,FALSE,FALSE,FALSE,FALSE,FALSE,FALSE
611,40.64,-73.895193,3.8,196000,2017,1,11236,2600,356000,L,0.18,33,18,TRUE,TRUE,FALSE,TRUE,FALSE,FALSE
612,40.605186,-73.909888,0.3,716000,2017,1,11234,9500,1241000,M,0.12,0,0,TRUE,TRUE,TRUE,TRUE,FALSE,FALSE
613,40.640442,-73.887976,2.2,262000,2017,1,11236,4000,431000,L,0.18,6,0,TRUE,TRUE,FALSE,TRUE,FALSE,FALSE
614,40.58624,-73.942854,4.2,522000,2017,1,11235,2525,686000,M,0.12,21,9,TRUE,TRUE,FALSE,TRUE,FALSE,FALSE
615,40.584514,-73.938617,2.3,236000,2017,1,11235,1591,351000,L,0.18,6,0,TRUE,TRUE,FALSE,TRUE,FALSE,FALSE
616,40.605067,-73.912224,0.6,509000,2017,1,11234,4042,891000,M,0.12,0,0,TRUE,TRUE,TRUE,TRUE,FALSE,FALSE
617,40.628617,-73.930005,6,356000,2017,1,11234,2200,531000,M,0.12,200,150,FALSE,FALSE,FALSE,FALSE,FALSE,FALSE
618,40.584893,-73.93868,3.5,213000,2017,1,11235,1200,296000,L,0.18,22,0,TRUE,TRUE,FALSE,TRUE,FALSE,FALSE
619,40.590155,-73.945538,3.2,561000,2017,1,11235,2183,726000,M,0.12,0,0,TRUE,TRUE,TRUE,TRUE,FALSE,FALSE
620,40.609794,-73.903936,3.9,721000,2017,1,11234,5108,1049000,M,0.12,0,0,TRUE,TRUE,TRUE,TRUE,FALSE,FALSE
621,40.619395,-73.928082,4.9,374000,2017,1,11234,2200,523000,L,0.18,200,150,FALSE,FALSE,FALSE,FALSE,FALSE,FALSE
622,40.610216,-73.928292,4,473000,2017,1,11234,7000,928000,M,0.12,16,6,TRUE,TRUE,FALSE,TRUE,FALSE,FALSE
623,40.62959,-73.930108,6.2,365000,2017,1,11234,2200,498000,L,0.18,200,150,FALSE,FALSE,FALSE,FALSE,FALSE,FALSE
624,40.605815,-73.929492,3,430000,2017,1,11234,2200,566000,M,0.12,0,0,TRUE,TRUE,TRUE,TRUE,FALSE,FALSE
625,40.605623,-73.903045,0.1,1038000,2017,1,11234,4800,1376000,M,0.12,0,0,TRUE,TRUE,TRUE,TRUE,FALSE,FALSE
626,40.617608,-73.922609,4.1,335000,2017,1,11234,4000,545000,M,0.12,22,8,TRUE,TRUE,FALSE,TRUE,FALSE,FALSE
627,40.634918,-73.890921,3.1,259000,2017,1,11236,3120,435000,L,0.18,18,1,TRUE,TRUE,FALSE,TRUE,FALSE,FALSE
628,40.651206,-73.91579,8.3,105000,2017,1,11236,2192,317000,L,0.18,200,150,FALSE,FALSE,FALSE,FALSE,FALSE,FALSE
629,40.609337,-73.925608,3,301000,2017,1,11234,2000,421000,L,0.18,7,0,TRUE,TRUE,FALSE,TRUE,FALSE,FALSE
630,40.63886,-73.89142,2.9,278000,2017,1,11236,4000,447000,L,0.18,14,0,TRUE,TRUE,FALSE,TRUE,FALSE,FALSE
631,40.58459,-73.938953,2.5,235000,2017,1,11235,1643,367000,L,0.18,12,0,TRUE,TRUE,FALSE,TRUE,FALSE,FALSE
632,40.581585,-73.965118,2.7,280000,2017,1,11235,2000,448000,L,0.18,12,0,TRUE,TRUE,FALSE,TRUE,FALSE,FALSE
633,40.619675,-73.924142,4.8,252000,2017,1,11234,3333,481000,L,0.18,200,150,FALSE,FALSE,FALSE,FALSE,FALSE,FALSE
634,40.620296,-73.904424,2.8,832000,2017,1,11234,4000,1060000,M,0.12,0,0,TRUE,TRUE,TRUE,TRUE,FALSE,FALSE
635,40.614466,-73.931325,4.2,519000,2017,1,11234,4000,769000,M,0.12,25,15,TRUE,TRUE,FALSE,TRUE,FALSE,FALSE
636,40.631251,-73.921537,4.3,164000,2017,1,11234,2017,302000,L,0.18,200,59,FALSE,TRUE,FALSE,TRUE,FALSE,FALSE
637,40.585127,-73.936895,2.3,208000,2017,1,11235,1320,320000,L,0.18,9,0,TRUE,TRUE,FALSE,TRUE,FALSE,FALSE
638,40.633656,-73.927577,5.4,297000,2017,1,11234,2150,427000,L,0.18,200,150,FALSE,FALSE,FALSE,FALSE,FALSE,FALSE
639,40.638933,-73.913474,2,122000,2017,1,11236,4000,396000,L,0.18,25,6,TRUE,TRUE,FALSE,TRUE,FALSE,FALSE
640,40.610861,-73.930374,4.3,445000,2017,1,11234,4000,711000,M,0.12,38,30,TRUE,TRUE,FALSE,TRUE,FALSE,FALSE
641,40.609249,-73.935429,4,431000,2017,1,11234,2200,577000,M,0.12,3,0,TRUE,TRUE,FALSE,TRUE,FALSE,FALSE
642,40.640604,-73.884932,1.8,399000,2017,1,11236,4000,568000,M,0.12,0,0,TRUE,TRUE,TRUE,TRUE,FALSE,FALSE
643,40.579266,-73.939641,1.8,1083000,2017,1,11235,2973,1380000,M,0.12,0,0,TRUE,TRUE,TRUE,TRUE,FALSE,FALSE
644,40.640492,-73.885945,1.9,391000,2017,1,11236,4000,590000,M,0.12,0,0,TRUE,TRUE,TRUE,TRUE,FALSE,FALSE
645,40.606424,-73.90765,0.1,985000,2017,1,11234,4200,1403000,M,0.12,0,0,TRUE,TRUE,TRUE,TRUE,FALSE,FALSE
646,40.585279,-73.937314,2.6,205000,2017,1,11235,1035,292000,L,0.18,13,0,TRUE,TRUE,FALSE,TRUE,FALSE,FALSE
647,40.585307,-73.938255,4.5,317000,2017,1,11235,1561,433000,L,0.18,200,150,FALSE,FALSE,FALSE,FALSE,FALSE,FALSE
648,40.609281,-73.908061,2.9,685000,2017,1,11234,4000,975000,M,0.12,0,0,TRUE,TRUE,TRUE,TRUE,FALSE,FALSE
649,40.632164,-73.932913,7.2,353000,2017,1,11234,2475,538000,M,0.12,200,150,FALSE,FALSE,FALSE,FALSE,FALSE,FALSE
650,40.579951,-73.939696,0.9,948000,2017,1,11235,3275,1272000,M,0.12,0,0,TRUE,TRUE,TRUE,TRUE,FALSE,FALSE
651,40.607267,-73.905879,1.9,785000,2017,1,11234,6183,1230000,M,0.12,0,0,TRUE,TRUE,TRUE,TRUE,FALSE,FALSE
652,40.609559,-73.904852,4.6,632000,2017,1,11234,4817,941000,M,0.12,200,150,FALSE,FALSE,FALSE,FALSE,FALSE,FALSE
653,40.640768,-73.908896,5.8,280000,2017,1,11236,1885,393000,L,0.18,200,150,FALSE,FALSE,FALSE,FALSE,FALSE,FALSE
654,40.611224,-73.905857,2.7,624000,2017,1,11234,5750,957000,M,0.12,0,0,TRUE,TRUE,TRUE,TRUE,FALSE,FALSE
655,40.650826,-73.91612,8.3,109000,2017,1,11236,2192,330000,L,0.18,200,150,FALSE,FALSE,FALSE,FALSE,FALSE,FALSE
656,40.584427,-73.939947,2.1,372000,2017,1,11235,1664,487000,L,0.18,0,0,TRUE,TRUE,TRUE,TRUE,FALSE,FALSE
657,40.618781,-73.906434,2.4,534000,2017,1,11234,4000,763000,M,0.12,0,0,TRUE,TRUE,TRUE,TRUE,FALSE,FALSE
658,40.632756,-73.901107,2.7,284000,2017,1,11236,2667,448000,L,0.18,11,0,TRUE,TRUE,FALSE,TRUE,FALSE,FALSE
659,40.580728,-73.962444,2.7,222000,2017,1,11235,1800,414000,L,0.18,22,3,TRUE,TRUE,FALSE,TRUE,FALSE,FALSE
660,40.633348,-73.896854,3.4,208000,2017,1,11236,6843,489000,L,0.18,32,21,TRUE,TRUE,FALSE,TRUE,FALSE,FALSE
661,40.631891,-73.896758,3,324000,2017,1,11236,4200,521000,L,0.18,12,0,TRUE,TRUE,FALSE,TRUE,FALSE,FALSE
662,40.647562,-73.919057,6.6,233000,2017,1,11236,3080,497000,L,0.18,200,150,FALSE,FALSE,FALSE,FALSE,FALSE,FALSE
663,40.64762,-73.918918,6.8,233000,2017,1,11236,3080,497000,L,0.18,200,150,FALSE,FALSE,FALSE,FALSE,FALSE,FALSE
664,40.638398,-73.910322,4.3,265000,2017,1,11236,2000,403000,L,0.18,200,48,FALSE,TRUE,FALSE,TRUE,FALSE,FALSE
665,40.639166,-73.88997,2.5,280000,2017,1,11236,4000,505000,L,0.18,15,1,TRUE,TRUE,FALSE,TRUE,FALSE,FALSE
666,40.628556,-73.929998,5.9,356000,2017,1,11234,2200,531000,M,0.12,200,150,FALSE,FALSE,FALSE,FALSE,FALSE,FALSE
667,40.578152,-73.943347,2,1560000,2017,1,11235,10000,2498000,M,0.12,0,0,TRUE,TRUE,TRUE,TRUE,FALSE,FALSE
668,40.633832,-73.927595,5.2,200000,2017,1,11234,2150,368000,L,0.18,200,150,FALSE,FALSE,FALSE,FALSE,FALSE,FALSE
669,40.652085,-73.917463,8.9,152000,2017,1,11236,2400,389000,L,0.18,200,150,FALSE,FALSE,FALSE,FALSE,FALSE,FALSE
670,40.608468,-73.907997,2.2,667000,2017,1,11234,4500,957000,M,0.12,0,0,TRUE,TRUE,TRUE,TRUE,FALSE,FALSE
671,40.576864,-73.949234,1.2,1120000,2017,1,11235,4000,1633000,M,0.12,0,0,TRUE,TRUE,TRUE,TRUE,FALSE,FALSE
672,40.639216,-73.883579,2.2,342000,2017,1,11236,4000,511000,L,0.18,2,0,TRUE,TRUE,FALSE,TRUE,FALSE,FALSE
673,40.581812,-73.958805,2.8,359000,2017,1,11235,1600,505000,L,0.18,4,0,TRUE,TRUE,FALSE,TRUE,FALSE,FALSE
674,40.639069,-73.889242,2.4,303000,2017,1,11236,4167,480000,L,0.18,7,0,TRUE,TRUE,FALSE,TRUE,FALSE,FALSE
675,40.638807,-73.888949,2.3,303000,2017,1,11236,4167,480000,L,0.18,5,0,TRUE,TRUE,FALSE,TRUE,FALSE,FALSE
676,40.610154,-73.924551,3,220000,2017,1,11234,3000,400000,L,0.18,23,4,TRUE,TRUE,FALSE,TRUE,FALSE,FALSE
677,40.578551,-73.939164,2.3,667000,2017,1,11235,2500,933000,M,0.12,0,0,TRUE,TRUE,TRUE,TRUE,FALSE,FALSE
678,40.578783,-73.94003,1.9,100000,2017,1,11235,3265,492000,L,0.18,30,18,TRUE,TRUE,FALSE,TRUE,FALSE,FALSE
679,40.620878,-73.91951,4.3,325000,2017,1,11234,2835,471000,L,0.18,60,45,TRUE,TRUE,FALSE,TRUE,FALSE,FALSE
680,40.625388,-73.922863,4.4,255000,2017,1,11234,4000,482000,L,0.18,200,150,FALSE,FALSE,FALSE,FALSE,FALSE,FALSE
681,40.611375,-73.907746,2.5,597000,2017,1,11234,5000,945000,M,0.12,0,0,TRUE,TRUE,TRUE,TRUE,FALSE,FALSE
682,40.583459,-73.935947,0.3,193000,2017,1,11235,982,275000,L,0.18,0,0,TRUE,TRUE,TRUE,TRUE,FALSE,FALSE
683,40.589467,-73.942395,3,369000,2017,1,11235,4000,684000,M,0.12,0,0,TRUE,TRUE,TRUE,TRUE,FALSE,FALSE
684,40.633426,-73.926614,5.7,196000,2017,1,11234,2150,350000,L,0.18,200,150,FALSE,FALSE,FALSE,FALSE,FALSE,FALSE
685,40.635085,-73.893423,2.7,284000,2017,1,11236,4283,559000,M,0.12,0,0,TRUE,TRUE,TRUE,TRUE,FALSE,FALSE
686,40.625253,-73.926681,4.6,302000,2017,1,11234,2858,479000,L,0.18,200,150,FALSE,FALSE,FALSE,FALSE,FALSE,FALSE
687,40.604863,-73.91353,0.4,854000,2017,1,11234,4067,1154000,M,0.12,0,0,TRUE,TRUE,TRUE,TRUE,FALSE,FALSE
688,40.635308,-73.889975,2.7,375000,2017,1,11236,2500,528000,M,0.12,0,0,TRUE,TRUE,TRUE,TRUE,FALSE,FALSE
689,40.640044,-73.88859,2.3,273000,2017,1,11236,4000,442000,L,0.18,7,0,TRUE,TRUE,FALSE,TRUE,FALSE,FALSE
690,40.587061,-73.939067,2.7,419000,2017,1,11235,4800,662000,M,0.12,0,0,TRUE,TRUE,TRUE,TRUE,FALSE,FALSE
691,40.6248,-73.925696,4.7,294000,2017,1,11234,2167,425000,L,0.18,200,150,FALSE,FALSE,FALSE,FALSE,FALSE,FALSE
692,40.648126,-73.918251,7.5,143000,2017,1,11236,2217,363000,L,0.18,200,150,FALSE,FALSE,FALSE,FALSE,FALSE,FALSE
693,40.614003,-73.908719,2.7,586000,2017,1,11234,4808,895000,M,0.12,0,0,TRUE,TRUE,TRUE,TRUE,FALSE,FALSE
694,40.624739,-73.9272,4.6,361000,2017,1,11234,2800,544000,M,0.12,200,150,FALSE,FALSE,FALSE,FALSE,FALSE,FALSE
695,40.61177,-73.906037,2.5,749000,2017,1,11234,5198,1081000,M,0.12,0,0,TRUE,TRUE,TRUE,TRUE,FALSE,FALSE
696,40.584401,-73.938257,2,198000,2017,1,11235,1150,307000,L,0.18,3,0,TRUE,TRUE,FALSE,TRUE,FALSE,FALSE
697,40.615559,-73.91162,2.7,398000,2017,1,11234,5000,738000,M,0.12,0,0,TRUE,TRUE,TRUE,TRUE,FALSE,FALSE
698,40.64474,-73.910342,6.7,136000,2017,1,11236,3577,357000,L,0.18,200,150,FALSE,FALSE,FALSE,FALSE,FALSE,FALSE
699,40.633724,-73.896975,3.4,413000,2017,1,11236,5000,685000,M,0.12,0,0,TRUE,TRUE,TRUE,TRUE,FALSE,FALSE
700,40.584136,-73.939722,1.5,406000,2017,1,11235,1690,522000,L,0.18,0,0,TRUE,TRUE,TRUE,TRUE,FALSE,FALSE
701,40.631362,-73.921549,4.3,178000,2017,1,11234,2017,300000,L,0.18,200,54,FALSE,TRUE,FALSE,TRUE,FALSE,FALSE
702,40.647233,-73.917222,7.5,190000,2017,1,11236,4000,573000,M,0.12,200,150,FALSE,FALSE,FALSE,FALSE,FALSE,FALSE
703,40.638883,-73.897621,4.6,186000,2017,1,11236,2825,361000,L,0.18,200,150,FALSE,FALSE,FALSE,FALSE,FALSE,FALSE
704,40.58351,-73.93627,0.3,187000,2017,1,11235,836,256000,L,0.18,0,0,TRUE,TRUE,TRUE,TRUE,FALSE,FALSE
705,40.609409,-73.909425,2.1,642000,2017,1,11234,3975,917000,M,0.12,0,0,TRUE,TRUE,TRUE,TRUE,FALSE,FALSE
706,40.581792,-73.965022,2.7,237000,2017,1,11235,1460,373000,L,0.18,15,0,TRUE,TRUE,FALSE,TRUE,FALSE,FALSE
707,40.584819,-73.937228,2.1,132000,2017,1,11235,1028,228000,L,0.18,12,0,TRUE,TRUE,FALSE,TRUE,FALSE,FALSE
708,40.634806,-73.890796,3,177000,2017,1,11236,3120,338000,L,0.18,27,6,TRUE,TRUE,FALSE,TRUE,FALSE,FALSE
709,40.639796,-73.883247,1.9,267000,2017,1,11236,6000,575000,M,0.12,0,0,TRUE,TRUE,TRUE,TRUE,FALSE,FALSE
710,40.628738,-73.929654,6,360000,2017,1,11234,2200,493000,L,0.18,200,150,FALSE,FALSE,FALSE,FALSE,FALSE,FALSE
711,40.638054,-73.88887,2.4,293000,2017,1,11236,4167,495000,L,0.18,10,0,TRUE,TRUE,FALSE,TRUE,FALSE,FALSE
712,40.606485,-73.903044,1.2,1098000,2017,1,11234,5192,1562000,M,0.12,0,0,TRUE,TRUE,TRUE,TRUE,FALSE,FALSE
713,40.607846,-73.907369,1.8,665000,2017,1,11234,3500,921000,M,0.12,0,0,TRUE,TRUE,TRUE,TRUE,FALSE,FALSE
714,40.607309,-73.909814,0.4,552000,2017,1,11234,4000,812000,M,0.12,0,0,TRUE,TRUE,TRUE,TRUE,FALSE,FALSE
715,40.584649,-73.937185,1.8,162000,2017,1,11235,1750,333000,L,0.18,4,0,TRUE,TRUE,FALSE,TRUE,FALSE,FALSE
716,40.615478,-73.920801,2.8,264000,2017,1,11234,3000,510000,L,0.18,21,4,TRUE,TRUE,FALSE,TRUE,FALSE,FALSE
717,40.613782,-73.909223,2.5,453000,2017,1,11234,5100,758000,M,0.12,0,0,TRUE,TRUE,TRUE,TRUE,FALSE,FALSE
718,40.613452,-73.911255,2.6,638000,2017,1,11234,4900,972000,M,0.12,0,0,TRUE,TRUE,TRUE,TRUE,FALSE,FALSE
719,40.639116,-73.894389,3.8,173000,2017,1,11236,2613,370000,L,0.18,37,25,TRUE,TRUE,FALSE,TRUE,FALSE,FALSE
720,40.635643,-73.901859,3.6,190000,2017,1,11236,2800,363000,L,0.18,31,14,TRUE,TRUE,FALSE,TRUE,FALSE,FALSE
721,40.638894,-73.889047,2.4,310000,2017,1,11236,4167,487000,L,0.18,6,0,TRUE,TRUE,FALSE,TRUE,FALSE,FALSE
722,40.584172,-73.936929,1.1,291000,2017,1,11235,2949,521000,L,0.18,0,0,TRUE,TRUE,TRUE,TRUE,FALSE,FALSE
723,40.578645,-73.96068,2.7,215000,2017,1,11235,1694,383000,L,0.18,21,2,TRUE,TRUE,FALSE,TRUE,FALSE,FALSE
724,40.579912,-73.944925,0.5,1840000,2017,1,11235,6300,2541000,M,0.12,0,0,TRUE,TRUE,TRUE,TRUE,FALSE,FALSE
725,40.638175,-73.89461,2.6,178000,2017,1,11236,2750,347000,L,0.18,25,4,TRUE,TRUE,FALSE,TRUE,FALSE,FALSE
726,40.634573,-73.896784,3.7,207000,2017,1,11236,3640,427000,L,0.18,32,20,TRUE,TRUE,FALSE,TRUE,FALSE,FALSE
727,40.644118,-73.903546,6,57000,2017,1,11236,4315,309000,L,0.18,200,150,FALSE,FALSE,FALSE,FALSE,FALSE,FALSE
728,40.581578,-73.958934,2.9,200000,2017,1,11235,1800,398000,L,0.18,26,7,TRUE,TRUE,FALSE,TRUE,FALSE,FALSE
729,40.583644,-73.935957,0.5,192000,2017,1,11235,847,263000,L,0.18,0,0,TRUE,TRUE,TRUE,TRUE,FALSE,FALSE
730,40.585654,-73.959145,3,269000,2017,1,11235,2350,427000,L,0.18,15,0,TRUE,TRUE,FALSE,TRUE,FALSE,FALSE
731,40.592617,-73.953145,6.5,501000,2017,1,11235,2200,682000,M,0.12,200,150,FALSE,FALSE,FALSE,FALSE,FALSE,FALSE
732,40.584169,-73.936828,1.1,250000,2017,1,11235,3031,507000,L,0.18,0,0,TRUE,TRUE,TRUE,TRUE,FALSE,FALSE
733,40.578128,-73.94372,1.9,1284000,2017,1,11235,3888,1698000,M,0.12,0,0,TRUE,TRUE,TRUE,TRUE,FALSE,FALSE
734,40.614109,-73.90954,2.6,505000,2017,1,11234,5100,833000,M,0.12,0,0,TRUE,TRUE,TRUE,TRUE,FALSE,FALSE
735,40.620342,-73.932589,5.1,260000,2017,1,11234,2700,400000,L,0.18,200,150,FALSE,FALSE,FALSE,FALSE,FALSE,FALSE
736,40.605421,-73.903861,0.1,1038000,2017,1,11234,4800,1376000,M,0.12,0,0,TRUE,TRUE,TRUE,TRUE,FALSE,FALSE
737,40.584785,-73.938587,3.1,213000,2017,1,11235,1200,296000,L,0.18,16,0,TRUE,TRUE,FALSE,TRUE,FALSE,FALSE
738,40.585212,-73.936723,2.3,288000,2017,1,11235,1080,379000,L,0.18,2,0,TRUE,TRUE,FALSE,TRUE,FALSE,FALSE
739,40.628445,-73.929043,5.8,401000,2017,1,11234,2900,601000,M,0.12,200,150,FALSE,FALSE,FALSE,FALSE,FALSE,FALSE
740,40.612676,-73.932256,4.3,500000,2017,1,11234,2000,631000,M,0.12,31,22,TRUE,TRUE,FALSE,TRUE,FALSE,FALSE
741,40.608237,-73.902946,1.5,897000,2017,1,11234,5400,1252000,M,0.12,0,0,TRUE,TRUE,TRUE,TRUE,FALSE,FALSE
742,40.585289,-73.937683,3.1,163000,2017,1,11235,1080,250000,L,0.18,24,1,TRUE,TRUE,FALSE,TRUE,FALSE,FALSE
743,40.579281,-73.964693,2.7,356000,2017,1,11235,1800,536000,M,0.12,0,0,TRUE,TRUE,TRUE,TRUE,FALSE,FALSE
744,40.636204,-73.896642,4.3,246000,2017,1,11236,5000,574000,M,0.12,200,44,FALSE,TRUE,FALSE,TRUE,FALSE,FALSE
745,40.633529,-73.893656,2.7,208000,2017,1,11236,2000,334000,L,0.18,18,0,TRUE,TRUE,FALSE,TRUE,FALSE,FALSE
746,40.580632,-73.958507,2.7,287000,2017,1,11235,2400,526000,M,0.12,0,0,TRUE,TRUE,TRUE,TRUE,FALSE,FALSE
747,40.643662,-73.912494,5.9,100000,2017,1,11236,2500,253000,L,0.18,200,150,FALSE,FALSE,FALSE,FALSE,FALSE,FALSE
748,40.615141,-73.911153,2.8,489000,2017,1,11234,5000,779000,M,0.12,0,0,TRUE,TRUE,TRUE,TRUE,FALSE,FALSE
749,40.638318,-73.889164,2.4,332000,2017,1,11236,4167,526000,M,0.12,0,0,TRUE,TRUE,TRUE,TRUE,FALSE,FALSE
750,40.604462,-73.911152,0.4,575000,2017,1,11234,4000,943000,M,0.12,0,0,TRUE,TRUE,TRUE,TRUE,FALSE,FALSE
751,40.639789,-73.894305,3.6,185000,2017,1,11236,2304,324000,L,0.18,29,10,TRUE,TRUE,FALSE,TRUE,FALSE,FALSE
752,40.652645,-73.917402,8.8,194000,2017,1,11236,2750,451000,L,0.18,200,150,FALSE,FALSE,FALSE,FALSE,FALSE,FALSE
753,40.581695,-73.957749,3,419000,2017,1,11235,2400,660000,M,0.12,0,0,TRUE,TRUE,TRUE,TRUE,FALSE,FALSE
754,40.638124,-73.906332,4.3,340000,2017,1,11236,2858,517000,L,0.18,62,46,TRUE,TRUE,FALSE,TRUE,FALSE,FALSE
755,40.646607,-73.92006,5.8,250000,2017,1,11236,2112,485000,L,0.18,200,150,FALSE,FALSE,FALSE,FALSE,FALSE,FALSE
756,40.621307,-73.903759,2.7,556000,2017,1,11234,4000,797000,M,0.12,0,0,TRUE,TRUE,TRUE,TRUE,FALSE,FALSE
757,40.607469,-73.909621,0.5,553000,2017,1,11234,4000,812000,M,0.12,0,0,TRUE,TRUE,TRUE,TRUE,FALSE,FALSE
758,40.638702,-73.890678,2.7,260000,2017,1,11236,4000,473000,L,0.18,19,2,TRUE,TRUE,FALSE,TRUE,FALSE,FALSE
759,40.645194,-73.899674,4.2,36000,2017,1,11236,7500,355000,L,0.18,200,150,FALSE,FALSE,FALSE,FALSE,FALSE,FALSE
760,40.611975,-73.90572,2.6,741000,2017,1,11234,5600,1163000,M,0.12,0,0,TRUE,TRUE,TRUE,TRUE,FALSE,FALSE
761,40.650101,-73.920392,7.8,155000,2017,1,11236,4951,557000,M,0.12,200,150,FALSE,FALSE,FALSE,FALSE,FALSE,FALSE
762,40.605639,-73.91134,0.7,564000,2017,1,11234,4042,891000,M,0.12,0,0,TRUE,TRUE,TRUE,TRUE,FALSE,FALSE
763,40.63023,-73.927272,5.8,336000,2017,1,11234,2167,508000,L,0.18,200,150,FALSE,FALSE,FALSE,FALSE,FALSE,FALSE
764,40.603624,-73.911634,0.1,760000,2017,1,11234,4920,1098000,M,0.12,0,0,TRUE,TRUE,TRUE,TRUE,FALSE,FALSE
765,40.609528,-73.935776,4.1,431000,2017,1,11234,2200,577000,M,0.12,12,0,TRUE,TRUE,FALSE,TRUE,FALSE,FALSE
766,40.607655,-73.907923,1,602000,2017,1,11234,4293,903000,M,0.12,0,0,TRUE,TRUE,TRUE,TRUE,FALSE,FALSE
767,40.581114,-73.958163,2.8,210000,2017,1,11235,2400,451000,L,0.18,27,9,TRUE,TRUE,FALSE,TRUE,FALSE,FALSE
768,40.578715,-73.939597,2,572000,2017,1,11235,2690,886000,M,0.12,0,0,TRUE,TRUE,TRUE,TRUE,FALSE,FALSE
769,40.646764,-73.919816,5.8,189000,2017,1,11236,2112,424000,L,0.18,200,150,FALSE,FALSE,FALSE,FALSE,FALSE,FALSE
770,40.608983,-73.92569,3,350000,2017,1,11234,5000,629000,M,0.12,0,0,TRUE,TRUE,TRUE,TRUE,FALSE,FALSE
771,40.608704,-73.908445,2.1,676000,2017,1,11234,4000,975000,M,0.12,0,0,TRUE,TRUE,TRUE,TRUE,FALSE,FALSE
772,40.626242,-73.926418,4.9,372000,2017,1,11234,2225,525000,L,0.18,200,150,FALSE,FALSE,FALSE,FALSE,FALSE,FALSE
773,40.639702,-73.894439,3.7,225000,2017,1,11236,2280,364000,L,0.18,27,7,TRUE,TRUE,FALSE,TRUE,FALSE,FALSE
774,40.580452,-73.964283,2.5,242000,2017,1,11235,1600,432000,L,0.18,16,0,TRUE,TRUE,FALSE,TRUE,FALSE,FALSE
775,40.614323,-73.912702,2.9,644000,2017,1,11234,5000,942000,M,0.12,0,0,TRUE,TRUE,TRUE,TRUE,FALSE,FALSE
776,40.610387,-73.904135,2.8,929000,2017,1,11234,5775,1268000,M,0.12,0,0,TRUE,TRUE,TRUE,TRUE,FALSE,FALSE
777,40.60638,-73.931481,3.3,436000,2017,1,11234,2200,569000,M,0.12,0,0,TRUE,TRUE,TRUE,TRUE,FALSE,FALSE
778,40.639554,-73.889354,2.5,258000,2017,1,11236,4000,427000,L,0.18,12,0,TRUE,TRUE,FALSE,TRUE,FALSE,FALSE
779,40.585343,-73.936747,2.5,301000,2017,1,11235,1035,393000,L,0.18,3,0,TRUE,TRUE,FALSE,TRUE,FALSE,FALSE
780,40.640371,-73.888086,2.2,262000,2017,1,11236,4000,431000,L,0.18,6,0,TRUE,TRUE,FALSE,TRUE,FALSE,FALSE
781,40.607187,-73.929445,3.3,352000,2017,1,11234,2600,599000,M,0.12,0,0,TRUE,TRUE,TRUE,TRUE,FALSE,FALSE
782,40.584915,-73.938064,2.8,298000,2017,1,11235,1400,428000,L,0.18,8,0,TRUE,TRUE,FALSE,TRUE,FALSE,FALSE
783,40.608291,-73.907447,2.4,647000,2017,1,11234,4300,914000,M,0.12,0,0,TRUE,TRUE,TRUE,TRUE,FALSE,FALSE
784,40.625039,-73.926657,4.6,319000,2017,1,11234,2333,461000,L,0.18,200,150,FALSE,FALSE,FALSE,FALSE,FALSE,FALSE
785,40.652752,-73.915064,8.3,173000,2017,1,11236,3150,450000,L,0.18,200,150,FALSE,FALSE,FALSE,FALSE,FALSE,FALSE
786,40.638795,-73.910764,4.4,200000,2017,1,11236,4000,457000,L,0.18,200,150,FALSE,FALSE,FALSE,FALSE,FALSE,FALSE
787,40.608381,-73.904945,4.3,584000,2017,1,11234,4142,894000,M,0.12,35,28,TRUE,TRUE,FALSE,TRUE,FALSE,FALSE
788,40.580801,-73.954288,2.6,403000,2017,1,11235,1880,666000,M,0.12,0,0,TRUE,TRUE,TRUE,TRUE,FALSE,FALSE
789,40.608709,-73.907821,2.7,670000,2017,1,11234,5067,988000,M,0.12,0,0,TRUE,TRUE,TRUE,TRUE,FALSE,FALSE
790,40.607355,-73.932567,3.6,373000,2017,1,11234,2200,532000,M,0.12,0,0,TRUE,TRUE,TRUE,TRUE,FALSE,FALSE
791,40.638931,-73.884019,2.3,431000,2017,1,11236,4000,616000,M,0.12,0,0,TRUE,TRUE,TRUE,TRUE,FALSE,FALSE
792,40.613775,-73.907423,2.7,640000,2017,1,11234,4160,956000,M,0.12,0,0,TRUE,TRUE,TRUE,TRUE,FALSE,FALSE
793,40.580225,-73.939718,0.7,794000,2017,1,11235,3423,1148000,M,0.12,0,0,TRUE,TRUE,TRUE,TRUE,FALSE,FALSE
794,40.635025,-73.891041,3.1,189000,2017,1,11236,3120,346000,L,0.18,26,5,TRUE,TRUE,FALSE,TRUE,FALSE,FALSE
795,40.607499,-73.932728,3.6,484000,2017,1,11234,2825,659000,M,0.12,0,0,TRUE,TRUE,TRUE,TRUE,FALSE,FALSE
796,40.606864,-73.90665,0.7,826000,2017,1,11234,4433,1174000,M,0.12,0,0,TRUE,TRUE,TRUE,TRUE,FALSE,FALSE
797,40.605568,-73.911449,0.8,567000,2017,1,11234,4042,892000,M,0.12,0,0,TRUE,TRUE,TRUE,TRUE,FALSE,FALSE
798,40.631584,-73.927356,6,121000,2017,1,11234,2500,274000,L,0.18,200,150,FALSE,FALSE,FALSE,FALSE,FALSE,FALSE
799,40.611343,-73.906226,2.6,672000,2017,1,11234,6000,1041000,M,0.12,0,0,TRUE,TRUE,TRUE,TRUE,FALSE,FALSE
800,40.642646,-73.90597,5.8,352000,2017,1,11236,2500,521000,L,0.18,200,150,FALSE,FALSE,FALSE,FALSE,FALSE,FALSE
801,40.651389,-73.915995,8.4,105000,2017,1,11236,2192,317000,L,0.18,200,150,FALSE,FALSE,FALSE,FALSE,FALSE,FALSE
802,40.580051,-73.963472,2.7,288000,2017,1,11235,1600,470000,L,0.18,12,0,TRUE,TRUE,FALSE,TRUE,FALSE,FALSE
803,40.585018,-73.937265,2.3,207000,2017,1,11235,1080,298000,L,0.18,7,0,TRUE,TRUE,FALSE,TRUE,FALSE,FALSE
804,40.613339,-73.909294,2.4,436000,2017,1,11234,4979,737000,M,0.12,0,0,TRUE,TRUE,TRUE,TRUE,FALSE,FALSE
805,40.63739,-73.893737,4.3,175000,2017,1,11236,2750,337000,L,0.18,200,61,FALSE,TRUE,FALSE,TRUE,FALSE,FALSE
806,40.607214,-73.908978,0.3,900000,2017,1,11234,4643,1208000,M,0.12,0,0,TRUE,TRUE,TRUE,TRUE,FALSE,FALSE
807,40.640217,-73.895435,3.8,172000,2017,1,11236,2600,326000,L,0.18,35,21,TRUE,TRUE,FALSE,TRUE,FALSE,FALSE
808,40.622491,-73.92061,4.2,374000,2017,1,11234,4000,685000,M,0.12,33,24,TRUE,TRUE,FALSE,TRUE,FALSE,FALSE
809,40.584627,-73.937035,1.8,316000,2017,1,11235,1679,437000,L,0.18,0,0,TRUE,TRUE,TRUE,TRUE,FALSE,FALSE
810,40.607147,-73.908865,0.2,883000,2017,1,11234,4643,1208000,M,0.12,0,0,TRUE,TRUE,TRUE,TRUE,FALSE,FALSE
811,40.633487,-73.89361,2.7,214000,2017,1,11236,2000,340000,L,0.18,17,0,TRUE,TRUE,FALSE,TRUE,FALSE,FALSE
812,40.617095,-73.899402,2.1,483000,2017,1,11234,4000,672000,M,0.12,0,0,TRUE,TRUE,TRUE,TRUE,FALSE,FALSE
813,40.580062,-73.938713,1.8,629000,2017,1,11235,2500,869000,M,0.12,0,0,TRUE,TRUE,TRUE,TRUE,FALSE,FALSE
814,40.614822,-73.923618,2.9,245000,2017,1,11234,1983,375000,L,0.18,15,0,TRUE,TRUE,FALSE,TRUE,FALSE,FALSE
815,40.584373,-73.938004,1.8,274000,2017,1,11235,1076,348000,L,0.18,0,0,TRUE,TRUE,TRUE,TRUE,FALSE,FALSE
816,40.609509,-73.902878,1.3,721000,2017,1,11234,7640,1198000,M,0.12,0,0,TRUE,TRUE,TRUE,TRUE,FALSE,FALSE
817,40.620488,-73.932035,5.1,268000,2017,1,11234,2500,390000,L,0.18,200,150,FALSE,FALSE,FALSE,FALSE,FALSE,FALSE
818,40.606939,-73.929169,3.2,545000,2017,1,11234,3100,766000,M,0.12,0,0,TRUE,TRUE,TRUE,TRUE,FALSE,FALSE
819,40.603748,-73.912354,0.1,793000,2017,1,11234,4920,1150000,M,0.12,0,0,TRUE,TRUE,TRUE,TRUE,FALSE,FALSE
820,40.618548,-73.902009,2.7,379000,2017,1,11234,8000,797000,M,0.12,0,0,TRUE,TRUE,TRUE,TRUE,FALSE,FALSE
821,40.633774,-73.927589,5.3,242000,2017,1,11234,2150,373000,L,0.18,200,150,FALSE,FALSE,FALSE,FALSE,FALSE,FALSE
822,40.640695,-73.909001,5.8,279000,2017,1,11236,1983,398000,L,0.18,200,150,FALSE,FALSE,FALSE,FALSE,FALSE,FALSE
823,40.607784,-73.908329,1,825000,2017,1,11234,5291,1373000,M,0.12,0,0,TRUE,TRUE,TRUE,TRUE,FALSE,FALSE
824,40.60683,-73.908337,0.2,762000,2017,1,11234,4000,1073000,M,0.12,0,0,TRUE,TRUE,TRUE,TRUE,FALSE,FALSE
825,40.607556,-73.929017,3.3,394000,2017,1,11234,2733,594000,M,0.12,0,0,TRUE,TRUE,TRUE,TRUE,FALSE,FALSE
826,40.631239,-73.930866,6.6,397000,2017,1,11234,2750,599000,M,0.12,200,150,FALSE,FALSE,FALSE,FALSE,FALSE,FALSE
827,40.609158,-73.935327,4,431000,2017,1,11234,2200,577000,M,0.12,3,0,TRUE,TRUE,FALSE,TRUE,FALSE,FALSE
828,40.579621,-73.965933,2.4,298000,2017,1,11235,1600,467000,L,0.18,7,0,TRUE,TRUE,FALSE,TRUE,FALSE,FALSE
829,40.610688,-73.907835,2.8,680000,2017,1,11234,5000,976000,M,0.12,0,0,TRUE,TRUE,TRUE,TRUE,FALSE,FALSE
830,40.631515,-73.927349,6,189000,2017,1,11234,2500,342000,L,0.18,200,150,FALSE,FALSE,FALSE,FALSE,FALSE,FALSE
831,40.624444,-73.93576,4.6,272000,2017,1,11234,3948,531000,M,0.12,200,150,FALSE,FALSE,FALSE,FALSE,FALSE,FALSE
832,40.609412,-73.935958,4.1,431000,2017,1,11234,2200,577000,M,0.12,12,0,TRUE,TRUE,FALSE,TRUE,FALSE,FALSE
833,40.583454,-73.936085,0.3,190000,2017,1,11235,982,272000,L,0.18,0,0,TRUE,TRUE,TRUE,TRUE,FALSE,FALSE
834,40.631742,-73.930338,6.4,332000,2017,1,11234,2775,504000,L,0.18,200,150,FALSE,FALSE,FALSE,FALSE,FALSE,FALSE
835,40.638121,-73.900027,4.7,271000,2017,1,11236,2000,395000,L,0.18,200,150,FALSE,FALSE,FALSE,FALSE,FALSE,FALSE
836,40.633308,-73.900967,2.8,318000,2017,1,11236,2667,482000,L,0.18,8,0,TRUE,TRUE,FALSE,TRUE,FALSE,FALSE
837,40.628826,-73.930027,6,385000,2017,1,11234,2200,533000,M,0.12,200,150,FALSE,FALSE,FALSE,FALSE,FALSE,FALSE
838,40.579028,-73.94485,1,949000,2017,1,11235,6000,1712000,M,0.12,0,0,TRUE,TRUE,TRUE,TRUE,FALSE,FALSE
839,40.606048,-73.910653,0.5,987000,2017,1,11234,4800,1332000,M,0.12,0,0,TRUE,TRUE,TRUE,TRUE,FALSE,FALSE
840,40.589948,-73.944861,3,409000,2017,1,11235,2200,565000,M,0.12,0,0,TRUE,TRUE,TRUE,TRUE,FALSE,FALSE
841,40.652839,-73.917618,8.8,159000,2017,1,11236,2600,399000,L,0.18,200,150,FALSE,FALSE,FALSE,FALSE,FALSE,FALSE
842,40.608043,-73.905333,3.8,584000,2017,1,11234,4133,893000,M,0.12,0,0,TRUE,TRUE,TRUE,TRUE,FALSE,FALSE
843,40.60852,-73.908589,1.9,670000,2017,1,11234,4000,961000,M,0.12,0,0,TRUE,TRUE,TRUE,TRUE,FALSE,FALSE
844,40.589888,-73.94485,3,409000,2017,1,11235,2200,565000,M,0.12,0,0,TRUE,TRUE,TRUE,TRUE,FALSE,FALSE
845,40.60615,-73.931225,3.3,436000,2017,1,11234,2200,569000,M,0.12,0,0,TRUE,TRUE,TRUE,TRUE,FALSE,FALSE
846,40.63583,-73.925498,4.6,267000,2017,1,11234,2133,447000,L,0.18,200,150,FALSE,FALSE,FALSE,FALSE,FALSE,FALSE
847,40.631606,-73.930323,6.4,336000,2017,1,11234,2400,497000,L,0.18,200,150,FALSE,FALSE,FALSE,FALSE,FALSE,FALSE
848,40.631931,-73.929419,6.2,330000,2017,1,11234,2400,476000,L,0.18,200,150,FALSE,FALSE,FALSE,FALSE,FALSE,FALSE
849,40.585039,-73.937081,2.2,210000,2017,1,11235,1320,317000,L,0.18,6,0,TRUE,TRUE,FALSE,TRUE,FALSE,FALSE
850,40.638792,-73.910297,4.3,234000,2017,1,11236,3000,473000,L,0.18,200,61,FALSE,TRUE,FALSE,TRUE,FALSE,FALSE
851,40.57975,-73.938121,2.6,326000,2017,1,11235,2700,529000,M,0.12,0,0,TRUE,TRUE,TRUE,TRUE,FALSE,FALSE
852,40.626159,-73.924965,4.7,447000,2017,1,11234,2500,635000,M,0.12,200,150,FALSE,FALSE,FALSE,FALSE,FALSE,FALSE
853,40.628979,-73.929679,6,360000,2017,1,11234,2200,493000,L,0.18,200,150,FALSE,FALSE,FALSE,FALSE,FALSE,FALSE
854,40.590525,-73.94497,3.2,431000,2017,1,11235,2500,634000,M,0.12,0,0,TRUE,TRUE,TRUE,TRUE,FALSE,FALSE
855,40.579059,-73.939624,1.8,887000,2017,1,11235,2850,1186000,M,0.12,0,0,TRUE,TRUE,TRUE,TRUE,FALSE,FALSE
856,40.610243,-73.907594,3.2,578000,2017,1,11234,5450,869000,M,0.12,0,0,TRUE,TRUE,TRUE,TRUE,FALSE,FALSE
857,40.617578,-73.899611,2.4,513000,2017,1,11234,4000,751000,M,0.12,0,0,TRUE,TRUE,TRUE,TRUE,FALSE,FALSE
858,40.651778,-73.91643,8.7,107000,2017,1,11236,2200,322000,L,0.18,200,150,FALSE,FALSE,FALSE,FALSE,FALSE,FALSE
859,40.638957,-73.889878,2.5,306000,2017,1,11236,5000,522000,L,0.18,11,0,TRUE,TRUE,FALSE,TRUE,FALSE,FALSE
860,40.579303,-73.938677,2.3,467000,2017,1,11235,2500,680000,M,0.12,0,0,TRUE,TRUE,TRUE,TRUE,FALSE,FALSE
861,40.606128,-73.910557,0.4,1012000,2017,1,11234,4400,1298000,M,0.12,0,0,TRUE,TRUE,TRUE,TRUE,FALSE,FALSE
862,40.584619,-73.936859,1.7,219000,2017,1,11235,2036,351000,L,0.18,0,0,TRUE,TRUE,TRUE,TRUE,FALSE,FALSE
863,40.631944,-73.93036,6.3,378000,2017,1,11234,2400,527000,M,0.12,200,150,FALSE,FALSE,FALSE,FALSE,FALSE,FALSE
864,40.585214,-73.937301,2.5,189000,2017,1,11235,1125,294000,L,0.18,16,0,TRUE,TRUE,FALSE,TRUE,FALSE,FALSE
865,40.584735,-73.938808,3,222000,2017,1,11235,1639,321000,L,0.18,16,0,TRUE,TRUE,FALSE,TRUE,FALSE,FALSE
866,40.628611,-73.92964,6,378000,2017,1,11234,2750,555000,M,0.12,200,150,FALSE,FALSE,FALSE,FALSE,FALSE,FALSE
867,40.64135,-73.911963,5.8,259000,2017,1,11236,5640,539000,M,0.12,200,150,FALSE,FALSE,FALSE,FALSE,FALSE,FALSE
868,40.649653,-73.918692,8.1,161000,2017,1,11236,2900,414000,L,0.18,200,150,FALSE,FALSE,FALSE,FALSE,FALSE,FALSE
869,40.638629,-73.890792,2.7,263000,2017,1,11236,4000,432000,L,0.18,14,0,TRUE,TRUE,FALSE,TRUE,FALSE,FALSE
870,40.640204,-73.887946,2.2,317000,2017,1,11236,4150,520000,L,0.18,5,0,TRUE,TRUE,FALSE,TRUE,FALSE,FALSE
871,40.628411,-73.926686,5.2,331000,2017,1,11234,2233,518000,L,0.18,200,150,FALSE,FALSE,FALSE,FALSE,FALSE,FALSE
872,40.614574,-73.910658,2.6,430000,2017,1,11234,5922,754000,M,0.12,0,0,TRUE,TRUE,TRUE,TRUE,FALSE,FALSE
873,40.632012,-73.930367,6.3,354000,2017,1,11234,2350,497000,L,0.18,200,150,FALSE,FALSE,FALSE,FALSE,FALSE,FALSE
874,40.579608,-73.939669,1.4,734000,2017,1,11235,3100,994000,M,0.12,0,0,TRUE,TRUE,TRUE,TRUE,FALSE,FALSE
875,40.609615,-73.928855,3.9,457000,2017,1,11234,2000,610000,M,0.12,0,0,TRUE,TRUE,TRUE,TRUE,FALSE,FALSE
876,40.635515,-73.890206,2.7,141000,2017,1,11236,2500,281000,L,0.18,28,6,TRUE,TRUE,FALSE,TRUE,FALSE,FALSE
877,40.63983,-73.901991,4.1,338000,2017,1,11236,5269,670000,M,0.12,28,17,TRUE,TRUE,FALSE,TRUE,FALSE,FALSE
878,40.578128,-73.94372,1.9,1284000,2017,1,11235,3888,1698000,M,0.12,0,0,TRUE,TRUE,TRUE,TRUE,FALSE,FALSE
879,40.584482,-73.940007,2.2,368000,2017,1,11235,1690,485000,L,0.18,0,0,TRUE,TRUE,TRUE,TRUE,FALSE,FALSE
880,40.579289,-73.960778,2.7,246000,2017,1,11235,1879,418000,L,0.18,17,0,TRUE,TRUE,FALSE,TRUE,FALSE,FALSE
881,40.625553,-73.926852,4.8,328000,2017,1,11234,2300,504000,L,0.18,200,150,FALSE,FALSE,FALSE,FALSE,FALSE,FALSE
882,40.637416,-73.889178,2.6,214000,2017,1,11236,756,272000,L,0.18,8,0,TRUE,TRUE,FALSE,TRUE,FALSE,FALSE
883,40.63169,-73.929971,6.3,325000,2017,1,11234,2400,497000,L,0.18,200,150,FALSE,FALSE,FALSE,FALSE,FALSE,FALSE
884,40.605352,-73.911783,0.8,568000,2017,1,11234,4042,891000,M,0.12,0,0,TRUE,TRUE,TRUE,TRUE,FALSE,FALSE
885,40.610526,-73.925556,3.3,475000,2017,1,11234,4000,790000,M,0.12,0,0,TRUE,TRUE,TRUE,TRUE,FALSE,FALSE
886,40.624475,-73.926597,4.7,314000,2017,1,11234,2200,447000,L,0.18,200,150,FALSE,FALSE,FALSE,FALSE,FALSE,FALSE
887,40.584461,-73.938572,2.2,177000,2017,1,11235,1591,296000,L,0.18,11,0,TRUE,TRUE,FALSE,TRUE,FALSE,FALSE
888,40.606931,-73.910889,0.7,501000,2017,1,11234,4100,871000,M,0.12,0,0,TRUE,TRUE,TRUE,TRUE,FALSE,FALSE
889,40.629711,-73.930121,6.2,365000,2017,1,11234,2200,498000,L,0.18,200,150,FALSE,FALSE,FALSE,FALSE,FALSE,FALSE
890,40.636202,-73.925539,4.5,259000,2017,1,11234,2100,437000,L,0.18,200,150,FALSE,FALSE,FALSE,FALSE,FALSE,FALSE
891,40.606196,-73.90236,1.2,1038000,2017,1,11234,4800,1376000,M,0.12,0,0,TRUE,TRUE,TRUE,TRUE,FALSE,FALSE
892,40.613034,-73.910811,2.5,529000,2017,1,11234,5100,905000,M,0.12,0,0,TRUE,TRUE,TRUE,TRUE,FALSE,FALSE
893,40.65,-73.918326,8.4,175000,2017,1,11236,2200,382000,L,0.18,200,150,FALSE,FALSE,FALSE,FALSE,FALSE,FALSE
894,40.639786,-73.889989,2.6,290000,2017,1,11236,4000,459000,L,0.18,10,0,TRUE,TRUE,FALSE,TRUE,FALSE,FALSE
895,40.633631,-73.897106,3.4,319000,2017,1,11236,5000,581000,M,0.12,0,0,TRUE,TRUE,TRUE,TRUE,FALSE,FALSE
896,40.634107,-73.893009,2.7,200000,2017,1,11236,2557,331000,L,0.18,20,0,TRUE,TRUE,FALSE,TRUE,FALSE,FALSE
897,40.638228,-73.89467,2.6,192000,2017,1,11236,2750,332000,L,0.18,20,1,TRUE,TRUE,FALSE,TRUE,FALSE,FALSE
898,40.623691,-73.921314,4.3,342000,2017,1,11234,4000,600000,M,0.12,43,33,TRUE,TRUE,FALSE,TRUE,FALSE,FALSE
899,40.607552,-73.909525,0.5,554000,2017,1,11234,4000,812000,M,0.12,0,0,TRUE,TRUE,TRUE,TRUE,FALSE,FALSE
900,40.622762,-73.920639,4.3,246000,2017,1,11234,4000,459000,L,0.18,200,56,FALSE,TRUE,FALSE,TRUE,FALSE,FALSE
901,40.58982,-73.945475,3.1,546000,2017,1,11235,2183,726000,M,0.12,0,0,TRUE,TRUE,TRUE,TRUE,FALSE,FALSE
902,40.585336,-73.959792,3.3,252000,2017,1,11235,1400,369000,L,0.18,16,0,TRUE,TRUE,FALSE,TRUE,FALSE,FALSE
903,40.610103,-73.907646,3.2,719000,2017,1,11234,5450,1062000,M,0.12,0,0,TRUE,TRUE,TRUE,TRUE,FALSE,FALSE
904,40.6461,-73.901405,4.3,164000,2017,1,11236,1120,257000,L,0.18,200,52,FALSE,TRUE,FALSE,TRUE,FALSE,FALSE
905,40.638581,-73.889459,2.5,335000,2017,1,11236,4167,537000,M,0.12,0,0,TRUE,TRUE,TRUE,TRUE,FALSE,FALSE
906,40.610556,-73.904897,3.5,735000,2017,1,11234,6592,1164000,M,0.12,0,0,TRUE,TRUE,TRUE,TRUE,FALSE,FALSE
907,40.57823,-73.943739,1.9,890000,2017,1,11235,3888,1349000,M,0.12,0,0,TRUE,TRUE,TRUE,TRUE,FALSE,FALSE
908,40.620265,-73.914937,2.7,412000,2017,1,11234,3820,629000,M,0.12,0,0,TRUE,TRUE,TRUE,TRUE,FALSE,FALSE
909,40.629237,-73.930646,6.2,342000,2017,1,11234,2233,505000,L,0.18,200,150,FALSE,FALSE,FALSE,FALSE,FALSE,FALSE
910,40.644978,-73.907636,6.4,237000,2017,1,11236,3000,424000,L,0.18,200,150,FALSE,FALSE,FALSE,FALSE,FALSE,FALSE
911,40.614564,-73.912498,2.9,592000,2017,1,11234,4950,888000,M,0.12,0,0,TRUE,TRUE,TRUE,TRUE,FALSE,FALSE
912,40.613146,-73.910916,2.5,635000,2017,1,11234,5100,960000,M,0.12,0,0,TRUE,TRUE,TRUE,TRUE,FALSE,FALSE
913,40.638097,-73.891612,3,294000,2017,1,11236,4000,474000,L,0.18,14,0,TRUE,TRUE,FALSE,TRUE,FALSE,FALSE
914,40.579951,-73.96394,2.7,228000,2017,1,11235,1600,419000,L,0.18,21,3,TRUE,TRUE,FALSE,TRUE,FALSE,FALSE
915,40.584538,-73.938146,2.2,273000,2017,1,11235,1076,361000,L,0.18,1,0,TRUE,TRUE,FALSE,TRUE,FALSE,FALSE
916,40.631385,-73.92119,4.3,191000,2017,1,11234,1983,318000,L,0.18,200,53,FALSE,TRUE,FALSE,TRUE,FALSE,FALSE
917,40.639711,-73.908094,4.5,402000,2017,1,11236,2050,567000,M,0.12,200,150,FALSE,FALSE,FALSE,FALSE,FALSE,FALSE
918,40.60833,-73.925722,2.9,444000,2017,1,11234,2000,586000,M,0.12,0,0,TRUE,TRUE,TRUE,TRUE,FALSE,FALSE
919,40.638176,-73.889479,2.5,298000,2017,1,11236,4150,494000,L,0.18,10,0,TRUE,TRUE,FALSE,TRUE,FALSE,FALSE
920,40.642034,-73.903923,5.1,167000,2017,1,11236,2590,335000,L,0.18,200,150,FALSE,FALSE,FALSE,FALSE,FALSE,FALSE
921,40.615559,-73.900386,2,567000,2017,1,11234,4000,850000,M,0.12,0,0,TRUE,TRUE,TRUE,TRUE,FALSE,FALSE
922,40.640846,-73.902556,4.3,185000,2017,1,11236,2000,305000,L,0.18,200,53,FALSE,TRUE,FALSE,TRUE,FALSE,FALSE
923,40.639013,-73.896965,4.4,153000,2017,1,11236,3500,371000,L,0.18,200,150,FALSE,FALSE,FALSE,FALSE,FALSE,FALSE
924,40.639929,-73.889767,2.6,290000,2017,1,11236,4000,459000,L,0.18,10,0,TRUE,TRUE,FALSE,TRUE,FALSE,FALSE
925,40.607285,-73.909103,0.3,909000,2017,1,11234,5026,1233000,M,0.12,0,0,TRUE,TRUE,TRUE,TRUE,FALSE,FALSE
926,40.606018,-73.929176,3.1,405000,2017,1,11234,2300,576000,M,0.12,0,0,TRUE,TRUE,TRUE,TRUE,FALSE,FALSE
927,40.631948,-73.923205,4.5,98000,2017,1,11234,4000,349000,L,0.18,200,150,FALSE,FALSE,FALSE,FALSE,FALSE,FALSE
928,40.64548,-73.911448,6.8,202000,2017,1,11236,2000,325000,L,0.18,200,150,FALSE,FALSE,FALSE,FALSE,FALSE,FALSE
929,40.609295,-73.935479,4,433000,2017,1,11234,2200,566000,M,0.12,2,0,TRUE,TRUE,FALSE,TRUE,FALSE,FALSE
930,40.647252,-73.909013,7.1,273000,2017,1,11236,2255,445000,L,0.18,200,150,FALSE,FALSE,FALSE,FALSE,FALSE,FALSE
931,40.609114,-73.935759,4.1,463000,2017,1,11234,2200,609000,M,0.12,11,0,TRUE,TRUE,FALSE,TRUE,FALSE,FALSE
932,40.625374,-73.92539,4.5,293000,2017,1,11234,2158,423000,L,0.18,200,150,FALSE,FALSE,FALSE,FALSE,FALSE,FALSE
933,40.645437,-73.90692,6.6,274000,2017,1,11236,3000,461000,L,0.18,200,150,FALSE,FALSE,FALSE,FALSE,FALSE,FALSE
934,40.624186,-73.922735,4.4,238000,2017,1,11234,4000,482000,L,0.18,200,150,FALSE,FALSE,FALSE,FALSE,FALSE,FALSE
935,40.632142,-73.933273,7.2,375000,2017,1,11234,2475,532000,M,0.12,200,150,FALSE,FALSE,FALSE,FALSE,FALSE,FALSE
936,40.616229,-73.919571,3.4,230000,2017,1,11234,1992,397000,L,0.18,24,5,TRUE,TRUE,FALSE,TRUE,FALSE,FALSE
937,40.584568,-73.936613,1.6,235000,2017,1,11235,1250,332000,L,0.18,0,0,TRUE,TRUE,TRUE,TRUE,FALSE,FALSE
938,40.577388,-73.95296,2.4,414000,2017,1,11235,837,556000,M,0.12,0,0,TRUE,TRUE,TRUE,TRUE,FALSE,FALSE
939,40.617183,-73.902203,2.3,433000,2017,1,11234,5000,747000,M,0.12,0,0,TRUE,TRUE,TRUE,TRUE,FALSE,FALSE
940,40.611233,-73.904888,2.3,753000,2017,1,11234,5038,1088000,M,0.12,0,0,TRUE,TRUE,TRUE,TRUE,FALSE,FALSE
941,40.609199,-73.910252,2,659000,2017,1,11234,4092,922000,M,0.12,0,0,TRUE,TRUE,TRUE,TRUE,FALSE,FALSE
942,40.634973,-73.890982,3.1,177000,2017,1,11236,3120,352000,L,0.18,28,8,TRUE,TRUE,FALSE,TRUE,FALSE,FALSE
943,40.634944,-73.908555,4.1,236000,2017,1,11236,3025,412000,L,0.18,47,34,TRUE,TRUE,FALSE,TRUE,FALSE,FALSE
944,40.607147,-73.90761,0.8,629000,2017,1,11234,3817,957000,M,0.12,0,0,TRUE,TRUE,TRUE,TRUE,FALSE,FALSE
945,40.606574,-73.910877,0.5,532000,2017,1,11234,3950,810000,M,0.12,0,0,TRUE,TRUE,TRUE,TRUE,FALSE,FALSE
946,40.62517,-73.92284,4.4,255000,2017,1,11234,4000,482000,L,0.18,200,150,FALSE,FALSE,FALSE,FALSE,FALSE,FALSE
947,40.6353,-73.895151,4,229000,2017,1,11236,2033,351000,L,0.18,37,24,TRUE,TRUE,FALSE,TRUE,FALSE,FALSE
948,40.607077,-73.910663,0.6,504000,2017,1,11234,4000,864000,M,0.12,0,0,TRUE,TRUE,TRUE,TRUE,FALSE,FALSE
949,40.615812,-73.910208,2.9,446000,2017,1,11234,3775,695000,M,0.12,0,0,TRUE,TRUE,TRUE,TRUE,FALSE,FALSE
950,40.640902,-73.884472,1.7,348000,2017,1,11236,6000,640000,M,0.12,0,0,TRUE,TRUE,TRUE,TRUE,FALSE,FALSE
951,40.60432,-73.911932,0.3,577000,2017,1,11234,4000,944000,M,0.12,0,0,TRUE,TRUE,TRUE,TRUE,FALSE,FALSE
952,40.609674,-73.909898,2,621000,2017,1,11234,4092,895000,M,0.12,0,0,TRUE,TRUE,TRUE,TRUE,FALSE,FALSE
953,40.580246,-73.958781,2.7,252000,2017,1,11235,2400,487000,L,0.18,21,4,TRUE,TRUE,FALSE,TRUE,FALSE,FALSE
954,40.65127,-73.915388,8.1,117000,2017,1,11236,2200,341000,L,0.18,200,150,FALSE,FALSE,FALSE,FALSE,FALSE,FALSE
955,40.634564,-73.927673,4.7,242000,2017,1,11234,2150,372000,L,0.18,200,150,FALSE,FALSE,FALSE,FALSE,FALSE,FALSE
956,40.578989,-73.939619,1.8,709000,2017,1,11235,2775,926000,M,0.12,0,0,TRUE,TRUE,TRUE,TRUE,FALSE,FALSE
957,40.612921,-73.907009,2.6,411000,2017,1,11234,4000,641000,M,0.12,0,0,TRUE,TRUE,TRUE,TRUE,FALSE,FALSE
958,40.643549,-73.900386,6,169000,2017,1,11236,2175,342000,L,0.18,200,150,FALSE,FALSE,FALSE,FALSE,FALSE,FALSE
959,40.61467,-73.912617,2.9,367000,2017,1,11234,4950,696000,M,0.12,0,0,TRUE,TRUE,TRUE,TRUE,FALSE,FALSE
960,40.590595,-73.944984,3.2,530000,2017,1,11235,2750,703000,M,0.12,0,0,TRUE,TRUE,TRUE,TRUE,FALSE,FALSE
961,40.577216,-73.951728,1.4,2022000,2017,1,11235,10000,2753000,M,0.12,0,0,TRUE,TRUE,TRUE,TRUE,FALSE,FALSE
962,40.584454,-73.93967,2.2,296000,2017,1,11235,1638,436000,L,0.18,3,0,TRUE,TRUE,FALSE,TRUE,FALSE,FALSE
963,40.620824,-73.905677,2.7,562000,2017,1,11234,6000,886000,M,0.12,0,0,TRUE,TRUE,TRUE,TRUE,FALSE,FALSE
964,40.610385,-73.906531,3.7,737000,2017,1,11234,4800,1045000,M,0.12,0,0,TRUE,TRUE,TRUE,TRUE,FALSE,FALSE
965,40.615471,-73.928604,4.1,327000,2017,1,11234,4000,523000,L,0.18,40,30,TRUE,TRUE,FALSE,TRUE,FALSE,FALSE
966,40.638071,-73.894495,3.1,197000,2017,1,11236,2750,339000,L,0.18,24,3,TRUE,TRUE,FALSE,TRUE,FALSE,FALSE
967,40.61484,-73.923334,3,248000,2017,1,11234,1983,375000,L,0.18,15,0,TRUE,TRUE,FALSE,TRUE,FALSE,FALSE
968,40.592013,-73.953931,7,555000,2017,1,11235,2200,741000,M,0.12,200,150,FALSE,FALSE,FALSE,FALSE,FALSE,FALSE
969,40.634329,-73.927648,5,243000,2017,1,11234,2150,373000,L,0.18,200,150,FALSE,FALSE,FALSE,FALSE,FALSE,FALSE
970,40.639032,-73.892884,3.4,289000,2017,1,11236,4000,472000,L,0.18,19,2,TRUE,TRUE,FALSE,TRUE,FALSE,FALSE
971,40.638862,-73.892695,3.3,300000,2017,1,11236,4000,469000,L,0.18,15,0,TRUE,TRUE,FALSE,TRUE,FALSE,FALSE
972,40.584275,-73.939495,1.8,270000,2017,1,11235,1440,396000,L,0.18,0,0,TRUE,TRUE,TRUE,TRUE,FALSE,FALSE
973,40.636261,-73.89242,3.9,217000,2017,1,11236,3600,443000,L,0.18,38,27,TRUE,TRUE,FALSE,TRUE,FALSE,FALSE
974,40.623744,-73.919324,4.3,244000,2017,1,11234,8370,688000,M,0.12,200,53,FALSE,TRUE,FALSE,TRUE,FALSE,FALSE
975,40.59171,-73.951921,5.5,606000,2017,1,11235,3033,834000,M,0.12,200,150,FALSE,FALSE,FALSE,FALSE,FALSE,FALSE
976,40.610458,-73.906019,3.7,751000,2017,1,11234,5708,1115000,M,0.12,0,0,TRUE,TRUE,TRUE,TRUE,FALSE,FALSE
977,40.617881,-73.902399,2.5,498000,2017,1,11234,2750,718000,M,0.12,0,0,TRUE,TRUE,TRUE,TRUE,FALSE,FALSE
978,40.609317,-73.907233,3.6,560000,2017,1,11234,4200,895000,M,0.12,0,0,TRUE,TRUE,TRUE,TRUE,FALSE,FALSE
979,40.639223,-73.894224,3.7,166000,2017,1,11236,3658,376000,L,0.18,37,25,TRUE,TRUE,FALSE,TRUE,FALSE,FALSE
980,40.652591,-73.915665,8.4,148000,2017,1,11236,2200,390000,L,0.18,200,150,FALSE,FALSE,FALSE,FALSE,FALSE,FALSE
981,40.650526,-73.916268,8.3,109000,2017,1,11236,2217,331000,L,0.18,200,150,FALSE,FALSE,FALSE,FALSE,FALSE,FALSE
982,40.648963,-73.921177,7.2,155000,2017,1,11236,2200,381000,L,0.18,200,150,FALSE,FALSE,FALSE,FALSE,FALSE,FALSE
983,40.579635,-73.94683,0.6,1197000,2017,1,11235,5000,1912000,M,0.12,0,0,TRUE,TRUE,TRUE,TRUE,FALSE,FALSE
984,40.60784,-73.933109,3.8,456000,2017,1,11234,2200,605000,M,0.12,0,0,TRUE,TRUE,TRUE,TRUE,FALSE,FALSE
985,40.634699,-73.890677,2.9,190000,2017,1,11236,3120,364000,L,0.18,26,6,TRUE,TRUE,FALSE,TRUE,FALSE,FALSE
986,40.619877,-73.928134,5,382000,2017,1,11234,2200,523000,L,0.18,200,150,FALSE,FALSE,FALSE,FALSE,FALSE,FALSE
987,40.610817,-73.905686,3.4,763000,2017,1,11234,5025,1032000,M,0.12,0,0,TRUE,TRUE,TRUE,TRUE,FALSE,FALSE
988,40.614403,-73.931255,4.1,354000,2017,1,11234,2000,504000,L,0.18,36,27,TRUE,TRUE,FALSE,TRUE,FALSE,FALSE
989,40.63049,-73.923196,4.4,212000,2017,1,11234,2000,332000,L,0.18,200,150,FALSE,FALSE,FALSE,FALSE,FALSE,FALSE
990,40.591244,-73.95752,3.2,222000,2017,1,11235,1168,347000,L,0.18,20,0,TRUE,TRUE,FALSE,TRUE,FALSE,FALSE
991,40.640675,-73.884823,1.7,367000,2017,1,11236,4000,536000,M,0.12,0,0,TRUE,TRUE,TRUE,TRUE,FALSE,FALSE
992,40.60945,-73.935898,4.1,431000,2017,1,11234,2200,577000,M,0.12,12,0,TRUE,TRUE,FALSE,TRUE,FALSE,FALSE
993,40.613273,-73.907824,2.5,653000,2017,1,11234,5200,957000,M,0.12,0,0,TRUE,TRUE,TRUE,TRUE,FALSE,FALSE
994,40.581789,-73.957683,3.1,419000,2017,1,11235,2400,660000,M,0.12,0,0,TRUE,TRUE,TRUE,TRUE,FALSE,FALSE
995,40.623555,-73.919415,4.3,307000,2017,1,11234,4000,563000,M,0.12,46,35,TRUE,TRUE,FALSE,TRUE,FALSE,FALSE
996,40.633838,-73.8956,2.9,176000,2017,1,11236,2999,369000,L,0.18,28,10,TRUE,TRUE,FALSE,TRUE,FALSE,FALSE
997,40.580639,-73.960692,2.8,160000,2017,1,11235,1916,346000,L,0.18,29,11,TRUE,TRUE,FALSE,TRUE,FALSE,FALSE
998,40.584952,-73.937253,2.2,223000,2017,1,11235,1080,315000,L,0.18,4,0,TRUE,TRUE,FALSE,TRUE,FALSE,FALSE
999,40.580205,-73.964645,2.5,211000,2017,1,11235,1600,350000,L,0.18,16,0,TRUE,TRUE,FALSE,TRUE,FALSE,FALSE
1000,40.581228,-73.951944,0.5,670000,2017,1,11235,4000,965000,M,0.12,0,0,TRUE,TRUE,TRUE,TRUE,FALSE,FALSE
1001,40.592609,-73.953222,6.5,503000,2017,1,11235,2200,682000,M,0.12,200,150,FALSE,FALSE,FALSE,FALSE,FALSE,FALSE
1002,40.646134,-73.901351,4.3,201000,2017,1,11236,981,296000,L,0.18,200,49,FALSE,TRUE,FALSE,TRUE,FALSE,FALSE
1003,40.604456,-73.91172,0.4,548000,2017,1,11234,4000,866000,M,0.12,0,0,TRUE,TRUE,TRUE,TRUE,FALSE,FALSE
1004,40.608415,-73.907846,2.3,683000,2017,1,11234,4400,951000,M,0.12,0,0,TRUE,TRUE,TRUE,TRUE,FALSE,FALSE
1005,40.607783,-73.905812,3,585000,2017,1,11234,4258,904000,M,0.12,0,0,TRUE,TRUE,TRUE,TRUE,FALSE,FALSE
1006,40.592634,-73.952989,6.4,504000,2017,1,11235,2200,682000,M,0.12,200,150,FALSE,FALSE,FALSE,FALSE,FALSE,FALSE
1007,40.644278,-73.902885,6.1,163000,2017,1,11236,2000,283000,L,0.18,200,150,FALSE,FALSE,FALSE,FALSE,FALSE,FALSE
1008,40.583638,-73.936095,0.5,190000,2017,1,11235,847,260000,L,0.18,0,0,TRUE,TRUE,TRUE,TRUE,FALSE,FALSE
1009,40.609069,-73.935708,4.1,463000,2017,1,11234,2200,609000,M,0.12,11,0,TRUE,TRUE,FALSE,TRUE,FALSE,FALSE
1010,40.639189,-73.897161,4.5,163000,2017,1,11236,3500,381000,L,0.18,200,150,FALSE,FALSE,FALSE,FALSE,FALSE,FALSE
1011,40.630057,-73.925253,5,210000,2017,1,11234,4000,440000,L,0.18,200,150,FALSE,FALSE,FALSE,FALSE,FALSE,FALSE
1012,40.580506,-73.938689,0.9,634000,2017,1,11235,2240,865000,M,0.12,0,0,TRUE,TRUE,TRUE,TRUE,FALSE,FALSE
1013,40.617055,-73.930721,4.3,382000,2017,1,11234,5000,644000,M,0.12,41,32,TRUE,TRUE,FALSE,TRUE,FALSE,FALSE
1014,40.630166,-73.925265,5.1,133000,2017,1,11234,4000,427000,L,0.18,200,150,FALSE,FALSE,FALSE,FALSE,FALSE,FALSE
1015,40.634388,-73.907024,2.5,272000,2017,1,11236,4000,489000,L,0.18,15,0,TRUE,TRUE,FALSE,TRUE,FALSE,FALSE
1016,40.606856,-73.910441,0.4,530000,2017,1,11234,4000,806000,M,0.12,0,0,TRUE,TRUE,TRUE,TRUE,FALSE,FALSE
1017,40.615753,-73.900509,2,407000,2017,1,11234,5258,761000,M,0.12,0,0,TRUE,TRUE,TRUE,TRUE,FALSE,FALSE
1018,40.639647,-73.888575,2.3,356000,2017,1,11236,4150,535000,M,0.12,0,0,TRUE,TRUE,TRUE,TRUE,FALSE,FALSE
1019,40.579266,-73.948745,0.7,1343000,2017,1,11235,6240,2042000,M,0.12,0,0,TRUE,TRUE,TRUE,TRUE,FALSE,FALSE
1020,40.641129,-73.907967,5.7,382000,2017,1,11236,2544,540000,M,0.12,200,150,FALSE,FALSE,FALSE,FALSE,FALSE,FALSE
1021,40.584405,-73.938524,2.1,246000,2017,1,11235,1568,346000,L,0.18,2,0,TRUE,TRUE,FALSE,TRUE,FALSE,FALSE
1022,40.604321,-73.91137,0.3,572000,2017,1,11234,4000,943000,M,0.12,0,0,TRUE,TRUE,TRUE,TRUE,FALSE,FALSE
1023,40.579956,-73.958987,2.7,274000,2017,1,11235,2400,510000,L,0.18,19,3,TRUE,TRUE,FALSE,TRUE,FALSE,FALSE
1024,40.608978,-73.935607,4.1,463000,2017,1,11234,2200,609000,M,0.12,11,0,TRUE,TRUE,FALSE,TRUE,FALSE,FALSE
1025,40.638284,-73.894731,2.6,190000,2017,1,11236,2750,332000,L,0.18,21,1,TRUE,TRUE,FALSE,TRUE,FALSE,FALSE
1026,40.609489,-73.935838,4.1,431000,2017,1,11234,2200,577000,M,0.12,12,0,TRUE,TRUE,FALSE,TRUE,FALSE,FALSE
1027,40.581857,-73.964992,2.7,270000,2017,1,11235,1980,414000,L,0.18,11,0,TRUE,TRUE,FALSE,TRUE,FALSE,FALSE
1028,40.619996,-73.928147,5,375000,2017,1,11234,2200,523000,L,0.18,200,150,FALSE,FALSE,FALSE,FALSE,FALSE,FALSE
1029,40.606354,-73.910108,0.1,893000,2017,1,11234,7000,1371000,M,0.12,0,0,TRUE,TRUE,TRUE,TRUE,FALSE,FALSE
1030,40.612923,-73.910714,2.5,554000,2017,1,11234,5100,880000,M,0.12,0,0,TRUE,TRUE,TRUE,TRUE,FALSE,FALSE
1031,40.609816,-73.931063,4.2,432000,2017,1,11234,1600,556000,M,0.12,23,8,TRUE,TRUE,FALSE,TRUE,FALSE,FALSE
1032,40.617179,-73.905407,2.1,552000,2017,1,11234,6000,816000,M,0.12,0,0,TRUE,TRUE,TRUE,TRUE,FALSE,FALSE
1033,40.631813,-73.930346,6.4,385000,2017,1,11234,2400,534000,M,0.12,200,150,FALSE,FALSE,FALSE,FALSE,FALSE,FALSE
1034,40.615213,-73.902314,1.8,526000,2017,1,11234,4000,815000,M,0.12,0,0,TRUE,TRUE,TRUE,TRUE,FALSE,FALSE
1035,40.576808,-73.951006,1.3,1001000,2017,1,11235,3350,1464000,M,0.12,0,0,TRUE,TRUE,TRUE,TRUE,FALSE,FALSE
1036,40.639341,-73.894041,3.7,194000,2017,1,11236,2280,333000,L,0.18,30,11,TRUE,TRUE,FALSE,TRUE,FALSE,FALSE
1037,40.642214,-73.909782,6.1,212000,2017,1,11236,1500,330000,L,0.18,200,150,FALSE,FALSE,FALSE,FALSE,FALSE,FALSE
1038,40.609399,-73.935595,4.1,441000,2017,1,11234,3500,663000,M,0.12,16,4,TRUE,TRUE,FALSE,TRUE,FALSE,FALSE
1039,40.614793,-73.909072,2.7,672000,2017,1,11234,5033,1036000,M,0.12,0,0,TRUE,TRUE,TRUE,TRUE,FALSE,FALSE
1040,40.632323,-73.933292,7.3,332000,2017,1,11234,2175,493000,L,0.18,200,150,FALSE,FALSE,FALSE,FALSE,FALSE,FALSE
1041,40.638246,-73.898438,4.7,186000,2017,1,11236,2933,368000,L,0.18,200,150,FALSE,FALSE,FALSE,FALSE,FALSE,FALSE
1042,40.604927,-73.911874,0.5,511000,2017,1,11234,4000,809000,M,0.12,0,0,TRUE,TRUE,TRUE,TRUE,FALSE,FALSE
1043,40.624513,-73.92277,4.4,209000,2017,1,11234,4000,448000,L,0.18,200,150,FALSE,FALSE,FALSE,FALSE,FALSE,FALSE
1044,40.651666,-73.915831,8.4,124000,2017,1,11236,2200,344000,L,0.18,200,150,FALSE,FALSE,FALSE,FALSE,FALSE,FALSE
1045,40.633252,-73.900905,2.8,252000,2017,1,11236,2667,394000,L,0.18,14,0,TRUE,TRUE,FALSE,TRUE,FALSE,FALSE
1046,40.644241,-73.9035,6.1,80000,2017,1,11236,3543,294000,L,0.18,200,150,FALSE,FALSE,FALSE,FALSE,FALSE,FALSE
1047,40.640965,-73.911427,5.6,237000,2017,1,11236,3157,439000,L,0.18,200,150,FALSE,FALSE,FALSE,FALSE,FALSE,FALSE
1048,40.625259,-73.925377,4.6,292000,2017,1,11234,2158,422000,L,0.18,200,150,FALSE,FALSE,FALSE,FALSE,FALSE,FALSE
1049,40.650931,-73.915482,8.1,105000,2017,1,11236,2192,317000,L,0.18,200,150,FALSE,FALSE,FALSE,FALSE,FALSE,FALSE
1050,40.58656,-73.959994,3.4,285000,2017,1,11235,2000,452000,L,0.18,18,2,TRUE,TRUE,FALSE,TRUE,FALSE,FALSE
1051,40.583592,-73.935759,0.4,193000,2017,1,11235,952,272000,L,0.18,0,0,TRUE,TRUE,TRUE,TRUE,FALSE,FALSE
1052,40.584928,-73.936858,2.1,201000,2017,1,11235,1375,312000,L,0.18,5,0,TRUE,TRUE,FALSE,TRUE,FALSE,FALSE
1053,40.63774,-73.912136,4.3,179000,2017,1,11236,3000,463000,L,0.18,200,150,FALSE,FALSE,FALSE,FALSE,FALSE,FALSE
1054,40.619635,-73.928108,4.9,376000,2017,1,11234,2200,523000,L,0.18,200,150,FALSE,FALSE,FALSE,FALSE,FALSE,FALSE
1055,40.613034,-73.910811,2.5,529000,2017,1,11234,5100,905000,M,0.12,0,0,TRUE,TRUE,TRUE,TRUE,FALSE,FALSE
1056,40.579476,-73.963778,2.7,234000,2017,1,11235,1800,385000,L,0.18,17,0,TRUE,TRUE,FALSE,TRUE,FALSE,FALSE
1057,40.611247,-73.907388,2.6,571000,2017,1,11234,5000,935000,M,0.12,0,0,TRUE,TRUE,TRUE,TRUE,FALSE,FALSE
1058,40.628349,-73.927685,5.5,283000,2017,1,11234,5000,602000,M,0.12,200,150,FALSE,FALSE,FALSE,FALSE,FALSE,FALSE
1059,40.641191,-73.897401,4.5,209000,2017,1,11236,2300,347000,L,0.18,200,150,FALSE,FALSE,FALSE,FALSE,FALSE,FALSE
1060,40.639915,-73.888398,2.3,340000,2017,1,11236,4150,541000,M,0.12,0,0,TRUE,TRUE,TRUE,TRUE,FALSE,FALSE
1061,40.605073,-73.90527,0.1,1222000,2017,1,11234,6000,1610000,M,0.12,0,0,TRUE,TRUE,TRUE,TRUE,FALSE,FALSE
1062,40.637953,-73.891837,3,269000,2017,1,11236,4000,476000,L,0.18,19,2,TRUE,TRUE,FALSE,TRUE,FALSE,FALSE
1063,40.61455,-73.931419,4.2,458000,2017,1,11234,4000,697000,M,0.12,26,16,TRUE,TRUE,FALSE,TRUE,FALSE,FALSE
1064,40.617987,-73.902517,2.6,467000,2017,1,11234,2750,677000,M,0.12,0,0,TRUE,TRUE,TRUE,TRUE,FALSE,FALSE
1065,40.624713,-73.924313,4.6,295000,2017,1,11234,7500,699000,M,0.12,200,150,FALSE,FALSE,FALSE,FALSE,FALSE,FALSE
1066,40.607577,-73.906732,1.9,669000,2017,1,11234,4258,983000,M,0.12,0,0,TRUE,TRUE,TRUE,TRUE,FALSE,FALSE
1067,40.610014,-73.904586,4.2,735000,2017,1,11234,5575,1061000,M,0.12,21,13,TRUE,TRUE,FALSE,TRUE,FALSE,FALSE
1068,40.632142,-73.933273,7.2,375000,2017,1,11234,2475,532000,M,0.12,200,150,FALSE,FALSE,FALSE,FALSE,FALSE,FALSE
1069,40.607101,-73.90872,0.2,943000,2017,1,11234,5585,1269000,M,0.12,0,0,TRUE,TRUE,TRUE,TRUE,FALSE,FALSE
1070,40.638169,-73.8915,2.9,283000,2017,1,11236,4000,453000,L,0.18,14,0,TRUE,TRUE,FALSE,TRUE,FALSE,FALSE
1071,40.585148,-73.936711,2.3,288000,2017,1,11235,1080,379000,L,0.18,2,0,TRUE,TRUE,FALSE,TRUE,FALSE,FALSE
1072,40.592145,-73.952887,6.4,521000,2017,1,11235,2200,765000,M,0.12,200,150,FALSE,FALSE,FALSE,FALSE,FALSE,FALSE
1073,40.625058,-73.926297,4.6,329000,2017,1,11234,2217,467000,L,0.18,200,150,FALSE,FALSE,FALSE,FALSE,FALSE,FALSE
1074,40.625558,-73.926769,4.7,323000,2017,1,11234,2200,469000,L,0.18,200,150,FALSE,FALSE,FALSE,FALSE,FALSE,FALSE
1075,40.641395,-73.916211,5.8,87000,2017,1,11236,4000,377000,L,0.18,200,150,FALSE,FALSE,FALSE,FALSE,FALSE,FALSE
1076,40.592116,-73.953159,6.6,651000,2017,1,11235,2833,864000,M,0.12,200,150,FALSE,FALSE,FALSE,FALSE,FALSE,FALSE
1077,40.580246,-73.958781,2.7,252000,2017,1,11235,2400,487000,L,0.18,21,4,TRUE,TRUE,FALSE,TRUE,FALSE,FALSE
1078,40.575447,-73.948966,0.6,915000,2017,1,11235,4000,1377000,M,0.12,0,0,TRUE,TRUE,TRUE,TRUE,FALSE,FALSE
1079,40.579166,-73.93867,2.3,574000,2017,1,11235,2500,787000,M,0.12,0,0,TRUE,TRUE,TRUE,TRUE,FALSE,FALSE
1080,40.640175,-73.885596,1.8,399000,2017,1,11236,4000,568000,M,0.12,0,0,TRUE,TRUE,TRUE,TRUE,FALSE,FALSE
1081,40.638982,-73.889144,2.4,303000,2017,1,11236,4167,480000,L,0.18,7,0,TRUE,TRUE,FALSE,TRUE,FALSE,FALSE
1082,40.584794,-73.941589,4.9,340000,2017,1,11235,2635,548000,M,0.12,200,150,FALSE,FALSE,FALSE,FALSE,FALSE,FALSE
1083,40.609069,-73.935708,4.1,463000,2017,1,11234,2200,609000,M,0.12,11,0,TRUE,TRUE,FALSE,TRUE,FALSE,FALSE
1084,40.652742,-73.91751,8.8,149000,2017,1,11236,2200,380000,L,0.18,200,150,FALSE,FALSE,FALSE,FALSE,FALSE,FALSE
1085,40.611107,-73.9074,2.7,591000,2017,1,11234,5450,869000,M,0.12,0,0,TRUE,TRUE,TRUE,TRUE,FALSE,FALSE
1086,40.585083,-73.937277,2.3,211000,2017,1,11235,1080,313000,L,0.18,8,0,TRUE,TRUE,FALSE,TRUE,FALSE,FALSE
1087,40.628634,-73.929062,5.9,412000,2017,1,11234,2200,559000,M,0.12,200,150,FALSE,FALSE,FALSE,FALSE,FALSE,FALSE
1088,40.57923,-73.965263,2.7,283000,2017,1,11235,1350,439000,L,0.18,11,0,TRUE,TRUE,FALSE,TRUE,FALSE,FALSE
1089,40.613571,-73.907304,2.7,503000,2017,1,11234,4000,778000,M,0.12,0,0,TRUE,TRUE,TRUE,TRUE,FALSE,FALSE
1090,40.651833,-73.916491,8.7,112000,2017,1,11236,3067,381000,L,0.18,200,150,FALSE,FALSE,FALSE,FALSE,FALSE,FALSE
1091,40.638825,-73.897555,4.6,231000,2017,1,11236,2825,406000,L,0.18,200,150,FALSE,FALSE,FALSE,FALSE,FALSE,FALSE
1092,40.650875,-73.914998,7.8,126000,2017,1,11236,2500,363000,L,0.18,200,150,FALSE,FALSE,FALSE,FALSE,FALSE,FALSE
1093,40.58635,-73.956659,3.1,281000,2017,1,11235,2000,427000,L,0.18,13,0,TRUE,TRUE,FALSE,TRUE,FALSE,FALSE
1094,40.584805,-73.936648,1.9,238000,2017,1,11235,1560,364000,L,0.18,0,0,TRUE,TRUE,TRUE,TRUE,FALSE,FALSE
1095,40.632193,-73.929447,6.2,330000,2017,1,11234,2400,476000,L,0.18,200,150,FALSE,FALSE,FALSE,FALSE,FALSE,FALSE
1096,40.583494,-73.936363,0.3,187000,2017,1,11235,836,256000,L,0.18,0,0,TRUE,TRUE,TRUE,TRUE,FALSE,FALSE
1097,40.639166,-73.894313,3.8,201000,2017,1,11236,2375,346000,L,0.18,31,15,TRUE,TRUE,FALSE,TRUE,FALSE,FALSE
1098,40.608255,-73.907018,2.8,654000,2017,1,11234,4900,973000,M,0.12,0,0,TRUE,TRUE,TRUE,TRUE,FALSE,FALSE
1099,40.633035,-73.901418,2.7,255000,2017,1,11236,2667,419000,L,0.18,15,0,TRUE,TRUE,FALSE,TRUE,FALSE,FALSE
1100,40.58136,-73.966593,2.6,162000,2017,1,11235,548,232000,L,0.18,18,0,TRUE,TRUE,FALSE,TRUE,FALSE,FALSE
1101,40.583337,-73.959059,3.4,195000,2017,1,11235,2246,373000,L,0.18,29,10,TRUE,TRUE,FALSE,TRUE,FALSE,FALSE
1102,40.638591,-73.897296,4.4,201000,2017,1,11236,2800,374000,L,0.18,200,150,FALSE,FALSE,FALSE,FALSE,FALSE,FALSE
1103,40.644323,-73.902934,6.1,151000,2017,1,11236,2000,271000,L,0.18,200,150,FALSE,FALSE,FALSE,FALSE,FALSE,FALSE
1104,40.638369,-73.888462,2.3,283000,2017,1,11236,4167,474000,L,0.18,8,0,TRUE,TRUE,FALSE,TRUE,FALSE,FALSE
1105,40.581584,-73.958789,2.8,218000,2017,1,11235,1800,417000,L,0.18,23,5,TRUE,TRUE,FALSE,TRUE,FALSE,FALSE
1106,40.61065,-73.903294,0.9,750000,2017,1,11234,6966,1174000,M,0.12,0,0,TRUE,TRUE,TRUE,TRUE,FALSE,FALSE
1107,40.631718,-73.896083,2.9,276000,2017,1,11236,4400,520000,L,0.18,20,4,TRUE,TRUE,FALSE,TRUE,FALSE,FALSE
1108,40.584317,-73.937955,1.7,272000,2017,1,11235,1076,371000,L,0.18,0,0,TRUE,TRUE,TRUE,TRUE,FALSE,FALSE
1109,40.615086,-73.913081,2.9,592000,2017,1,11234,4950,888000,M,0.12,0,0,TRUE,TRUE,TRUE,TRUE,FALSE,FALSE
1110,40.605208,-73.911438,0.6,479000,2017,1,11234,4000,805000,M,0.12,0,0,TRUE,TRUE,TRUE,TRUE,FALSE,FALSE
1111,40.609592,-73.904497,4.6,735000,2017,1,11234,5575,1061000,M,0.12,200,150,FALSE,FALSE,FALSE,FALSE,FALSE,FALSE
1112,40.652684,-73.912173,7.8,243000,2017,1,11236,2700,494000,L,0.18,200,150,FALSE,FALSE,FALSE,FALSE,FALSE,FALSE
1113,40.624404,-73.922759,4.4,258000,2017,1,11234,4000,482000,L,0.18,200,150,FALSE,FALSE,FALSE,FALSE,FALSE,FALSE
1114,40.609975,-73.90971,2.2,673000,2017,1,11234,4092,945000,M,0.12,0,0,TRUE,TRUE,TRUE,TRUE,FALSE,FALSE
1115,40.607594,-73.906586,2,792000,2017,1,11234,4600,1110000,M,0.12,0,0,TRUE,TRUE,TRUE,TRUE,FALSE,FALSE
1116,40.58484,-73.937044,2.1,57000,2017,1,11235,1256,152000,L,0.18,25,0,TRUE,TRUE,FALSE,TRUE,FALSE,FALSE
1117,40.585327,-73.937873,3.7,207000,2017,1,11235,1238,317000,L,0.18,27,6,TRUE,TRUE,FALSE,TRUE,FALSE,FALSE
1118,40.608926,-73.903644,3.7,771000,2017,1,11234,5392,1083000,M,0.12,0,0,TRUE,TRUE,TRUE,TRUE,FALSE,FALSE
1119,40.642884,-73.904275,5.5,238000,2017,1,11236,1508,346000,L,0.18,200,150,FALSE,FALSE,FALSE,FALSE,FALSE,FALSE
1120,40.634538,-73.895533,2.7,242000,2017,1,11236,3250,433000,L,0.18,19,2,TRUE,TRUE,FALSE,TRUE,FALSE,FALSE
1121,40.611045,-73.906192,2.9,738000,2017,1,11234,5025,1085000,M,0.12,0,0,TRUE,TRUE,TRUE,TRUE,FALSE,FALSE
1122,40.584948,-73.938727,3.7,161000,2017,1,11235,1200,282000,L,0.18,32,14,TRUE,TRUE,FALSE,TRUE,FALSE,FALSE
1123,40.642986,-73.90691,5.9,155000,2017,1,11236,4176,406000,L,0.18,200,150,FALSE,FALSE,FALSE,FALSE,FALSE,FALSE
1124,40.623648,-73.920803,4.3,304000,2017,1,11234,1850,410000,L,0.18,59,43,TRUE,TRUE,FALSE,TRUE,FALSE,FALSE
1125,40.612494,-73.910842,2.5,690000,2017,1,11234,4750,1003000,M,0.12,0,0,TRUE,TRUE,TRUE,TRUE,FALSE,FALSE
1126,40.609479,-73.907947,3,700000,2017,1,11234,4000,975000,M,0.12,0,0,TRUE,TRUE,TRUE,TRUE,FALSE,FALSE
1127,40.63534,-73.899315,3.8,149000,2017,1,11236,4399,425000,L,0.18,47,33,TRUE,TRUE,FALSE,TRUE,FALSE,FALSE
1128,40.604785,-73.912094,0.5,456000,2017,1,11234,4000,809000,M,0.12,0,0,TRUE,TRUE,TRUE,TRUE,FALSE,FALSE
1129,40.613356,-73.909967,2.4,400000,2017,1,11234,5175,734000,M,0.12,0,0,TRUE,TRUE,TRUE,TRUE,FALSE,FALSE
1130,40.585148,-73.93729,2.4,222000,2017,1,11235,1080,313000,L,0.18,7,0,TRUE,TRUE,FALSE,TRUE,FALSE,FALSE
1131,40.609024,-73.935658,4.1,463000,2017,1,11234,2200,609000,M,0.12,11,0,TRUE,TRUE,FALSE,TRUE,FALSE,FALSE
1132,40.619936,-73.928141,5,377000,2017,1,11234,2200,523000,L,0.18,200,150,FALSE,FALSE,FALSE,FALSE,FALSE,FALSE
1133,40.652312,-73.915821,8.4,149000,2017,1,11236,2100,367000,L,0.18,200,150,FALSE,FALSE,FALSE,FALSE,FALSE,FALSE
1134,40.58366,-73.936468,0.5,142000,2017,1,11235,836,213000,L,0.18,0,0,TRUE,TRUE,TRUE,TRUE,FALSE,FALSE
1135,40.607733,-73.905946,2.8,677000,2017,1,11234,4408,960000,M,0.12,0,0,TRUE,TRUE,TRUE,TRUE,FALSE,FALSE
1136,40.632106,-73.933845,7.3,334000,2017,1,11234,2475,517000,L,0.18,200,150,FALSE,FALSE,FALSE,FALSE,FALSE,FALSE
1137,40.608528,-73.90604,4,662000,2017,1,11234,4233,996000,M,0.12,2,0,TRUE,TRUE,FALSE,TRUE,FALSE,FALSE
1138,40.639072,-73.884366,2.2,357000,2017,1,11236,4000,526000,M,0.12,0,0,TRUE,TRUE,TRUE,TRUE,FALSE,FALSE
1139,40.59185,-73.960089,3.2,418000,2017,1,11235,3100,629000,M,0.12,0,0,TRUE,TRUE,TRUE,TRUE,FALSE,FALSE
1140,40.615825,-73.918957,3.3,237000,2017,1,11234,1983,385000,L,0.18,21,2,TRUE,TRUE,FALSE,TRUE,FALSE,FALSE
1141,40.604714,-73.914605,0,607000,2017,1,11234,3240,889000,M,0.12,0,0,TRUE,TRUE,TRUE,TRUE,FALSE,FALSE
1142,40.580392,-73.964563,2.5,219000,2017,1,11235,1600,388000,L,0.18,18,0,TRUE,TRUE,FALSE,TRUE,FALSE,FALSE
